{"type":"FeatureCollection","properties":{"provisional":true,"source":"placeholder generator, not pipeline output"},"features":[{"type":"Feature","geometry":{"type":"LineString","coordinates":[[-118.35296,33.96139],[-118.35275761904761,33.96133428571429]]},"properties":{"id":"florence_300_01","name":"W Florence Ave, 300 block, seg 01","len_m":19.7,"approach":"k_line_downtown_inglewood","degmin":{"15":0.747,"17":0.529,"19":0.24,"21":0},"degmin_lo":{"15":0.546,"17":0.327,"19":0.038,"21":0},"degmin_hi":{"15":0.974,"17":0.756,"19":0.467,"21":0},"wbgt":{"15":35,"17":34.1,"19":33,"21":29.9},"shade_frac":{"15":0.1,"17":0.17,"19":0.28,"21":1},"fans":9800,"svi":0.66,"canopy_pct":6,"treatable":["sail","tree","awning"]}},{"type":"Feature","geometry":{"type":"LineString","coordinates":[[-118.35275761904761,33.96133428571429],[-118.35255523809523,33.96127857142857]]},"properties":{"id":"florence_300_02","name":"W Florence Ave, 300 block, seg 02","len_m":19.7,"approach":"k_line_downtown_inglewood","degmin":{"15":0.716,"17":0.496,"19":0.205,"21":0},"degmin_lo":{"15":0.514,"17":0.294,"19":0.003,"21":0},"degmin_hi":{"15":0.943,"17":0.723,"19":0.432,"21":0},"wbgt":{"15":34.8,"17":34,"19":32.8,"21":29.8},"shade_frac":{"15":0.09,"17":0.15,"19":0.27,"21":1},"fans":9800,"svi":0.66,"canopy_pct":7.3,"treatable":["sail","tree","awning"]}},{"type":"Feature","geometry":{"type":"LineString","coordinates":[[-118.35255523809523,33.96127857142857],[-118.35235285714285,33.96122285714286]]},"properties":{"id":"florence_300_03","name":"W Florence Ave, 300 block, seg 03","len_m":19.7,"approach":"k_line_downtown_inglewood","degmin":{"15":0.684,"17":0.467,"19":0.184,"21":0},"degmin_lo":{"15":0.482,"17":0.265,"19":0,"21":0},"degmin_hi":{"15":0.911,"17":0.694,"19":0.411,"21":0},"wbgt":{"15":34.7,"17":33.9,"19":32.7,"21":29.8},"shade_frac":{"15":0.13,"17":0.19,"19":0.31,"21":1},"fans":9800,"svi":0.66,"canopy_pct":11.4,"treatable":["sail","tree","awning"]}},{"type":"Feature","geometry":{"type":"LineString","coordinates":[[-118.35235285714285,33.96122285714286],[-118.35215047619047,33.96116714285714]]},"properties":{"id":"florence_300_04","name":"W Florence Ave, 300 block, seg 04","len_m":19.7,"approach":"k_line_downtown_inglewood","degmin":{"15":0.608,"17":0.404,"19":0.147,"21":0},"degmin_lo":{"15":0.406,"17":0.203,"19":0,"21":0},"degmin_hi":{"15":0.835,"17":0.631,"19":0.374,"21":0},"wbgt":{"15":34.4,"17":33.6,"19":32.6,"21":29.9},"shade_frac":{"15":0.26,"17":0.32,"19":0.44,"21":1},"fans":9800,"svi":0.66,"canopy_pct":23.2,"treatable":["sail","tree","awning"]}},{"type":"Feature","geometry":{"type":"LineString","coordinates":[[-118.35215047619047,33.96116714285714],[-118.35194809523809,33.96111142857143]]},"properties":{"id":"florence_300_05","name":"W Florence Ave, 300 block, seg 05","len_m":19.7,"approach":"k_line_downtown_inglewood","degmin":{"15":0.57,"17":0.366,"19":0.108,"21":0},"degmin_lo":{"15":0.368,"17":0.164,"19":0,"21":0},"degmin_hi":{"15":0.797,"17":0.593,"19":0.335,"21":0},"wbgt":{"15":34.3,"17":33.5,"19":32.4,"21":29.8},"shade_frac":{"15":0.25,"17":0.32,"19":0.43,"21":1},"fans":9800,"svi":0.66,"canopy_pct":25.4,"treatable":["sail","tree","awning"]}},{"type":"Feature","geometry":{"type":"LineString","coordinates":[[-118.35194809523809,33.96111142857143],[-118.35174571428571,33.96105571428571]]},"properties":{"id":"florence_300_06","name":"W Florence Ave, 300 block, seg 06","len_m":19.7,"approach":"k_line_downtown_inglewood","degmin":{"15":0.557,"17":0.352,"19":0.091,"21":0},"degmin_lo":{"15":0.355,"17":0.15,"19":0,"21":0},"degmin_hi":{"15":0.784,"17":0.579,"19":0.319,"21":0},"wbgt":{"15":34.2,"17":33.4,"19":32.4,"21":29.7},"shade_frac":{"15":0.24,"17":0.3,"19":0.42,"21":1},"fans":9800,"svi":0.66,"canopy_pct":25.4,"treatable":["sail","tree","awning"]}},{"type":"Feature","geometry":{"type":"LineString","coordinates":[[-118.35174571428571,33.96105571428571],[-118.35154333333332,33.961]]},"properties":{"id":"florence_300_07","name":"W Florence Ave, 300 block, seg 07","len_m":19.7,"approach":"k_line_downtown_inglewood","degmin":{"15":0.486,"17":0.29,"19":0.048,"21":0},"degmin_lo":{"15":0.284,"17":0.088,"19":0,"21":0},"degmin_hi":{"15":0.713,"17":0.517,"19":0.275,"21":0},"wbgt":{"15":33.9,"17":33.2,"19":32.2,"21":29.7},"shade_frac":{"15":0.33,"17":0.39,"19":0.51,"21":1},"fans":9800,"svi":0.66,"canopy_pct":34.8,"treatable":["tree","awning"]}},{"type":"Feature","geometry":{"type":"LineString","coordinates":[[-118.35154333333332,33.961],[-118.35134095238095,33.960944285714284]]},"properties":{"id":"florence_300_08","name":"W Florence Ave, 300 block, seg 08","len_m":19.7,"approach":"k_line_downtown_inglewood","degmin":{"15":0.374,"17":0.194,"19":0,"21":0},"degmin_lo":{"15":0.172,"17":0,"19":0,"21":0},"degmin_hi":{"15":0.601,"17":0.421,"19":0.209,"21":0},"wbgt":{"15":33.5,"17":32.8,"19":31.9,"21":29.8},"shade_frac":{"15":0.48,"17":0.55,"19":0.66,"21":1},"fans":9800,"svi":0.66,"canopy_pct":50,"treatable":["tree","awning"]}},{"type":"Feature","geometry":{"type":"LineString","coordinates":[[-118.35134095238095,33.960944285714284],[-118.35113857142856,33.96088857142857]]},"properties":{"id":"florence_300_09","name":"W Florence Ave, 300 block, seg 09","len_m":19.7,"approach":"k_line_downtown_inglewood","degmin":{"15":0.281,"17":0.114,"19":0,"21":0},"degmin_lo":{"15":0.079,"17":0,"19":0,"21":0},"degmin_hi":{"15":0.508,"17":0.341,"19":0.155,"21":0},"wbgt":{"15":33.1,"17":32.5,"19":31.7,"21":29.9},"shade_frac":{"15":0.61,"17":0.67,"19":0.79,"21":1},"fans":9800,"svi":0.66,"canopy_pct":62.8,"treatable":["tree","awning"]}},{"type":"Feature","geometry":{"type":"LineString","coordinates":[[-118.35113857142856,33.96088857142857],[-118.35093619047619,33.960832857142854]]},"properties":{"id":"florence_300_10","name":"W Florence Ave, 300 block, seg 10","len_m":19.7,"approach":"k_line_downtown_inglewood","degmin":{"15":0.276,"17":0.109,"19":0,"21":0},"degmin_lo":{"15":0.074,"17":0,"19":0,"21":0},"degmin_hi":{"15":0.503,"17":0.336,"19":0.153,"21":0},"wbgt":{"15":33.1,"17":32.4,"19":31.7,"21":29.9},"shade_frac":{"15":0.62,"17":0.68,"19":0.8,"21":1},"fans":9800,"svi":0.66,"canopy_pct":63.7,"treatable":["tree","awning"]}},{"type":"Feature","geometry":{"type":"LineString","coordinates":[[-118.35093619047619,33.960832857142854],[-118.3507338095238,33.96077714285715]]},"properties":{"id":"florence_300_11","name":"W Florence Ave, 300 block, seg 11","len_m":19.7,"approach":"k_line_downtown_inglewood","degmin":{"15":0.426,"17":0.238,"19":0.013,"21":0},"degmin_lo":{"15":0.224,"17":0.037,"19":0,"21":0},"degmin_hi":{"15":0.653,"17":0.465,"19":0.24,"21":0},"wbgt":{"15":33.7,"17":32.9,"19":32.1,"21":29.8},"shade_frac":{"15":0.41,"17":0.48,"19":0.59,"21":1},"fans":9800,"svi":0.66,"canopy_pct":43.1,"treatable":["tree","awning"]}},{"type":"Feature","geometry":{"type":"LineString","coordinates":[[-118.3507338095238,33.96077714285715],[-118.35053142857143,33.96072142857143]]},"properties":{"id":"florence_300_12","name":"W Florence Ave, 300 block, seg 12","len_m":19.7,"approach":"k_line_downtown_inglewood","degmin":{"15":0.527,"17":0.326,"19":0.073,"21":0},"degmin_lo":{"15":0.325,"17":0.124,"19":0,"21":0},"degmin_hi":{"15":0.754,"17":0.553,"19":0.3,"21":0},"wbgt":{"15":34.1,"17":33.3,"19":32.3,"21":29.7},"shade_frac":{"15":0.28,"17":0.34,"19":0.46,"21":1},"fans":9800,"svi":0.66,"canopy_pct":29.4,"treatable":["sail","tree","awning"]}},{"type":"Feature","geometry":{"type":"LineString","coordinates":[[-118.35053142857143,33.96072142857143],[-118.35032904761904,33.96066571428572]]},"properties":{"id":"florence_300_13","name":"W Florence Ave, 300 block, seg 13","len_m":19.7,"approach":"k_line_downtown_inglewood","degmin":{"15":0.551,"17":0.349,"19":0.094,"21":0},"degmin_lo":{"15":0.349,"17":0.147,"19":0,"21":0},"degmin_hi":{"15":0.778,"17":0.576,"19":0.321,"21":0},"wbgt":{"15":34.2,"17":33.4,"19":32.4,"21":29.7},"shade_frac":{"15":0.27,"17":0.33,"19":0.45,"21":1},"fans":9800,"svi":0.66,"canopy_pct":27.3,"treatable":["sail","tree","awning"]}},{"type":"Feature","geometry":{"type":"LineString","coordinates":[[-118.35032904761904,33.96066571428572],[-118.35012666666667,33.96061]]},"properties":{"id":"florence_300_14","name":"W Florence Ave, 300 block, seg 14","len_m":19.7,"approach":"k_line_downtown_inglewood","degmin":{"15":0.621,"17":0.41,"19":0.136,"21":0},"degmin_lo":{"15":0.419,"17":0.208,"19":0,"21":0},"degmin_hi":{"15":0.848,"17":0.637,"19":0.363,"21":0},"wbgt":{"15":34.5,"17":33.6,"19":32.5,"21":29.7},"shade_frac":{"15":0.18,"17":0.24,"19":0.36,"21":1},"fans":9800,"svi":0.66,"canopy_pct":18,"treatable":["sail","tree","awning"]}},{"type":"Feature","geometry":{"type":"LineString","coordinates":[[-118.35012666666667,33.96061],[-118.34992428571428,33.96055428571429]]},"properties":{"id":"florence_300_15","name":"W Florence Ave, 300 block, seg 15","len_m":19.7,"approach":"k_line_downtown_inglewood","degmin":{"15":0.654,"17":0.445,"19":0.175,"21":0},"degmin_lo":{"15":0.452,"17":0.243,"19":0,"21":0},"degmin_hi":{"15":0.881,"17":0.672,"19":0.402,"21":0},"wbgt":{"15":34.6,"17":33.8,"19":32.7,"21":29.9},"shade_frac":{"15":0.2,"17":0.26,"19":0.38,"21":1},"fans":9800,"svi":0.66,"canopy_pct":17,"treatable":["sail","tree","awning"]}},{"type":"Feature","geometry":{"type":"LineString","coordinates":[[-118.34992428571428,33.96055428571429],[-118.3497219047619,33.96049857142857]]},"properties":{"id":"florence_300_16","name":"W Florence Ave, 300 block, seg 16","len_m":19.7,"approach":"k_line_downtown_inglewood","degmin":{"15":0.696,"17":0.474,"19":0.18,"21":0},"degmin_lo":{"15":0.494,"17":0.272,"19":0,"21":0},"degmin_hi":{"15":0.923,"17":0.701,"19":0.407,"21":0},"wbgt":{"15":34.8,"17":33.9,"19":32.7,"21":29.6},"shade_frac":{"15":0.07,"17":0.14,"19":0.25,"21":1},"fans":9800,"svi":0.66,"canopy_pct":7.6,"treatable":["sail","tree","awning"]}},{"type":"Feature","geometry":{"type":"LineString","coordinates":[[-118.3497219047619,33.96049857142857],[-118.34951952380952,33.96044285714286]]},"properties":{"id":"florence_300_17","name":"W Florence Ave, 300 block, seg 17","len_m":19.7,"approach":"k_line_downtown_inglewood","degmin":{"15":0.713,"17":0.49,"19":0.194,"21":0},"degmin_lo":{"15":0.511,"17":0.289,"19":0,"21":0},"degmin_hi":{"15":0.94,"17":0.717,"19":0.422,"21":0},"wbgt":{"15":34.8,"17":33.9,"19":32.8,"21":29.7},"shade_frac":{"15":0.06,"17":0.13,"19":0.24,"21":1},"fans":9800,"svi":0.66,"canopy_pct":6.2,"treatable":["sail","tree","awning"]}},{"type":"Feature","geometry":{"type":"LineString","coordinates":[[-118.34951952380952,33.96044285714286],[-118.34931714285715,33.960387142857144]]},"properties":{"id":"florence_300_18","name":"W Florence Ave, 300 block, seg 18","len_m":19.7,"approach":"k_line_downtown_inglewood","degmin":{"15":0.732,"17":0.512,"19":0.223,"21":0},"degmin_lo":{"15":0.53,"17":0.311,"19":0.021,"21":0},"degmin_hi":{"15":0.959,"17":0.739,"19":0.45,"21":0},"wbgt":{"15":34.9,"17":34,"19":32.9,"21":29.8},"shade_frac":{"15":0.09,"17":0.16,"19":0.27,"21":1},"fans":9800,"svi":0.66,"canopy_pct":6.7,"treatable":["sail","tree","awning"]}},{"type":"Feature","geometry":{"type":"LineString","coordinates":[[-118.34931714285715,33.960387142857144],[-118.34911476190476,33.96033142857143]]},"properties":{"id":"florence_300_19","name":"W Florence Ave, 300 block, seg 19","len_m":19.7,"approach":"k_line_downtown_inglewood","degmin":{"15":0.694,"17":0.474,"19":0.184,"21":0},"degmin_lo":{"15":0.492,"17":0.273,"19":0,"21":0},"degmin_hi":{"15":0.921,"17":0.701,"19":0.411,"21":0},"wbgt":{"15":34.8,"17":33.9,"19":32.7,"21":29.7},"shade_frac":{"15":0.09,"17":0.16,"19":0.27,"21":1},"fans":9800,"svi":0.66,"canopy_pct":8.9,"treatable":["sail","tree","awning"]}},{"type":"Feature","geometry":{"type":"LineString","coordinates":[[-118.34911476190476,33.96033142857143],[-118.34891238095238,33.960275714285714]]},"properties":{"id":"florence_300_20","name":"W Florence Ave, 300 block, seg 20","len_m":19.7,"approach":"k_line_downtown_inglewood","degmin":{"15":0.646,"17":0.436,"19":0.163,"21":0},"degmin_lo":{"15":0.444,"17":0.234,"19":0,"21":0},"degmin_hi":{"15":0.873,"17":0.663,"19":0.391,"21":0},"wbgt":{"15":34.6,"17":33.7,"19":32.6,"21":29.8},"shade_frac":{"15":0.18,"17":0.25,"19":0.36,"21":1},"fans":9800,"svi":0.66,"canopy_pct":16.8,"treatable":["sail","tree","awning"]}},{"type":"Feature","geometry":{"type":"LineString","coordinates":[[-118.34891238095238,33.960275714285714],[-118.34871,33.96022]]},"properties":{"id":"florence_300_21","name":"W Florence Ave, 300 block, seg 21","len_m":19.7,"approach":"k_line_downtown_inglewood","degmin":{"15":0.56,"17":0.361,"19":0.112,"21":0},"degmin_lo":{"15":0.358,"17":0.159,"19":0,"21":0},"degmin_hi":{"15":0.787,"17":0.588,"19":0.339,"21":0},"wbgt":{"15":34.2,"17":33.4,"19":32.4,"21":29.9},"shade_frac":{"15":0.3,"17":0.36,"19":0.48,"21":1},"fans":9800,"svi":0.66,"canopy_pct":28.4,"treatable":["sail","tree","awning"]}},{"type":"Feature","geometry":{"type":"LineString","coordinates":[[-118.34871,33.96022],[-118.34851043478261,33.96015]]},"properties":{"id":"florence_300_22","name":"W Florence Ave, 300 block, seg 22","len_m":20,"approach":"k_line_downtown_inglewood","degmin":{"15":0.498,"17":0.302,"19":0.063,"21":0},"degmin_lo":{"15":0.293,"17":0.097,"19":0,"21":0},"degmin_hi":{"15":0.728,"17":0.533,"19":0.294,"21":0},"wbgt":{"15":33.9,"17":33.2,"19":32.2,"21":29.9},"shade_frac":{"15":0.36,"17":0.43,"19":0.54,"21":1},"fans":9800,"svi":0.66,"canopy_pct":36.4,"treatable":["tree","awning"]}},{"type":"Feature","geometry":{"type":"LineString","coordinates":[[-118.34851043478261,33.96015],[-118.34831086956521,33.96008]]},"properties":{"id":"florence_300_23","name":"W Florence Ave, 300 block, seg 23","len_m":20,"approach":"k_line_downtown_inglewood","degmin":{"15":0.388,"17":0.207,"19":0,"21":0},"degmin_lo":{"15":0.183,"17":0.002,"19":0,"21":0},"degmin_hi":{"15":0.619,"17":0.437,"19":0.226,"21":0},"wbgt":{"15":33.5,"17":32.8,"19":32,"21":29.9},"shade_frac":{"15":0.5,"17":0.56,"19":0.68,"21":1},"fans":9800,"svi":0.66,"canopy_pct":50.5,"treatable":["tree","awning"]}},{"type":"Feature","geometry":{"type":"LineString","coordinates":[[-118.34831086956521,33.96008],[-118.34811130434782,33.96001]]},"properties":{"id":"florence_300_24","name":"W Florence Ave, 300 block, seg 24","len_m":20,"approach":"k_line_downtown_inglewood","degmin":{"15":0.484,"17":0.285,"19":0.04,"21":0},"degmin_lo":{"15":0.279,"17":0.08,"19":0,"21":0},"degmin_hi":{"15":0.714,"17":0.516,"19":0.271,"21":0},"wbgt":{"15":33.9,"17":33.1,"19":32.2,"21":29.7},"shade_frac":{"15":0.34,"17":0.4,"19":0.52,"21":1},"fans":9800,"svi":0.66,"canopy_pct":35.8,"treatable":["tree","awning"]}},{"type":"Feature","geometry":{"type":"LineString","coordinates":[[-118.34811130434782,33.96001],[-118.34791173913044,33.95994]]},"properties":{"id":"florence_300_25","name":"W Florence Ave, 300 block, seg 25","len_m":20,"approach":"k_line_downtown_inglewood","degmin":{"15":0.504,"17":0.302,"19":0.05,"21":0},"degmin_lo":{"15":0.299,"17":0.097,"19":0,"21":0},"degmin_hi":{"15":0.735,"17":0.533,"19":0.281,"21":0},"wbgt":{"15":34,"17":33.2,"19":32.2,"21":29.6},"shade_frac":{"15":0.3,"17":0.36,"19":0.48,"21":1},"fans":9800,"svi":0.66,"canopy_pct":32.5,"treatable":["tree","awning"]}},{"type":"Feature","geometry":{"type":"LineString","coordinates":[[-118.34791173913044,33.95994],[-118.34771217391304,33.95987]]},"properties":{"id":"florence_300_26","name":"W Florence Ave, 300 block, seg 26","len_m":20,"approach":"k_line_downtown_inglewood","degmin":{"15":0.301,"17":0.128,"19":0,"21":0},"degmin_lo":{"15":0.096,"17":0,"19":0,"21":0},"degmin_hi":{"15":0.531,"17":0.359,"19":0.166,"21":0},"wbgt":{"15":33.2,"17":32.5,"19":31.7,"21":29.9},"shade_frac":{"15":0.59,"17":0.65,"19":0.77,"21":1},"fans":9800,"svi":0.66,"canopy_pct":60.7,"treatable":["tree","awning"]}},{"type":"Feature","geometry":{"type":"LineString","coordinates":[[-118.34771217391304,33.95987],[-118.34751260869565,33.9598]]},"properties":{"id":"florence_300_27","name":"W Florence Ave, 300 block, seg 27","len_m":20,"approach":"k_line_downtown_inglewood","degmin":{"15":0.444,"17":0.251,"19":0.018,"21":0},"degmin_lo":{"15":0.239,"17":0.046,"19":0,"21":0},"degmin_hi":{"15":0.674,"17":0.482,"19":0.249,"21":0},"wbgt":{"15":33.7,"17":33,"19":32.1,"21":29.7},"shade_frac":{"15":0.39,"17":0.46,"19":0.57,"21":1},"fans":9800,"svi":0.66,"canopy_pct":41.3,"treatable":["tree","awning"]}},{"type":"Feature","geometry":{"type":"LineString","coordinates":[[-118.34751260869565,33.9598],[-118.34731304347827,33.95973]]},"properties":{"id":"florence_300_28","name":"W Florence Ave, 300 block, seg 28","len_m":20,"approach":"k_line_downtown_inglewood","degmin":{"15":0.539,"17":0.334,"19":0.074,"21":0},"degmin_lo":{"15":0.334,"17":0.129,"19":0,"21":0},"degmin_hi":{"15":0.77,"17":0.564,"19":0.305,"21":0},"wbgt":{"15":34.1,"17":33.3,"19":32.3,"21":29.7},"shade_frac":{"15":0.26,"17":0.33,"19":0.44,"21":1},"fans":9800,"svi":0.66,"canopy_pct":28.5,"treatable":["sail","tree","awning"]}},{"type":"Feature","geometry":{"type":"LineString","coordinates":[[-118.34731304347827,33.95973],[-118.34711347826087,33.95966]]},"properties":{"id":"florence_300_29","name":"W Florence Ave, 300 block, seg 29","len_m":20,"approach":"k_line_downtown_inglewood","degmin":{"15":0.56,"17":0.353,"19":0.092,"21":0},"degmin_lo":{"15":0.355,"17":0.148,"19":0,"21":0},"degmin_hi":{"15":0.79,"17":0.584,"19":0.322,"21":0},"wbgt":{"15":34.2,"17":33.4,"19":32.4,"21":29.7},"shade_frac":{"15":0.25,"17":0.32,"19":0.43,"21":1},"fans":9800,"svi":0.66,"canopy_pct":26.6,"treatable":["sail","tree","awning"]}},{"type":"Feature","geometry":{"type":"LineString","coordinates":[[-118.34711347826087,33.95966],[-118.34691391304348,33.95959]]},"properties":{"id":"florence_300_30","name":"W Florence Ave, 300 block, seg 30","len_m":20,"approach":"k_line_downtown_inglewood","degmin":{"15":0.626,"17":0.411,"19":0.132,"21":0},"degmin_lo":{"15":0.421,"17":0.206,"19":0,"21":0},"degmin_hi":{"15":0.857,"17":0.642,"19":0.363,"21":0},"wbgt":{"15":34.4,"17":33.6,"19":32.5,"21":29.7},"shade_frac":{"15":0.17,"17":0.23,"19":0.35,"21":1},"fans":9800,"svi":0.66,"canopy_pct":17.9,"treatable":["sail","tree","awning"]}},{"type":"Feature","geometry":{"type":"LineString","coordinates":[[-118.34691391304348,33.95959],[-118.3467143478261,33.95952]]},"properties":{"id":"florence_300_31","name":"W Florence Ave, 300 block, seg 31","len_m":20,"approach":"k_line_downtown_inglewood","degmin":{"15":0.653,"17":0.438,"19":0.161,"21":0},"degmin_lo":{"15":0.448,"17":0.233,"19":0,"21":0},"degmin_hi":{"15":0.883,"17":0.669,"19":0.391,"21":0},"wbgt":{"15":34.5,"17":33.7,"19":32.6,"21":29.8},"shade_frac":{"15":0.18,"17":0.24,"19":0.36,"21":1},"fans":9800,"svi":0.66,"canopy_pct":16.7,"treatable":["sail","tree","awning"]}},{"type":"Feature","geometry":{"type":"LineString","coordinates":[[-118.3467143478261,33.95952],[-118.3465147826087,33.95945]]},"properties":{"id":"florence_300_32","name":"W Florence Ave, 300 block, seg 32","len_m":20,"approach":"k_line_downtown_inglewood","degmin":{"15":0.705,"17":0.487,"19":0.201,"21":0},"degmin_lo":{"15":0.5,"17":0.282,"19":0,"21":0},"degmin_hi":{"15":0.936,"17":0.717,"19":0.432,"21":0},"wbgt":{"15":34.8,"17":33.9,"19":32.8,"21":29.8},"shade_frac":{"15":0.14,"17":0.2,"19":0.32,"21":1},"fans":9800,"svi":0.66,"canopy_pct":11.3,"treatable":["sail","tree","awning"]}},{"type":"Feature","geometry":{"type":"LineString","coordinates":[[-118.3465147826087,33.95945],[-118.34631521739131,33.95938]]},"properties":{"id":"florence_300_33","name":"W Florence Ave, 300 block, seg 33","len_m":20,"approach":"k_line_downtown_inglewood","degmin":{"15":0.717,"17":0.491,"19":0.19,"21":0},"degmin_lo":{"15":0.512,"17":0.286,"19":0,"21":0},"degmin_hi":{"15":0.948,"17":0.722,"19":0.42,"21":0},"wbgt":{"15":34.8,"17":33.9,"19":32.7,"21":29.6},"shade_frac":{"15":0.06,"17":0.13,"19":0.24,"21":1},"fans":9800,"svi":0.66,"canopy_pct":6.5,"treatable":["sail","tree","awning"]}},{"type":"Feature","geometry":{"type":"LineString","coordinates":[[-118.34631521739131,33.95938],[-118.3461156521739,33.95931]]},"properties":{"id":"florence_300_34","name":"W Florence Ave, 300 block, seg 34","len_m":20,"approach":"k_line_downtown_inglewood","degmin":{"15":0.736,"17":0.511,"19":0.212,"21":0},"degmin_lo":{"15":0.531,"17":0.306,"19":0.008,"21":0},"degmin_hi":{"15":0.966,"17":0.741,"19":0.443,"21":0},"wbgt":{"15":34.9,"17":34,"19":32.8,"21":29.7},"shade_frac":{"15":0.08,"17":0.14,"19":0.26,"21":1},"fans":9800,"svi":0.66,"canopy_pct":6.1,"treatable":["sail","tree","awning"]}},{"type":"Feature","geometry":{"type":"LineString","coordinates":[[-118.3461156521739,33.95931],[-118.34591608695652,33.95924]]},"properties":{"id":"florence_300_35","name":"W Florence Ave, 300 block, seg 35","len_m":20,"approach":"k_line_downtown_inglewood","degmin":{"15":0.719,"17":0.496,"19":0.203,"21":0},"degmin_lo":{"15":0.514,"17":0.291,"19":0,"21":0},"degmin_hi":{"15":0.95,"17":0.727,"19":0.433,"21":0},"wbgt":{"15":34.8,"17":33.9,"19":32.8,"21":29.8},"shade_frac":{"15":0.1,"17":0.16,"19":0.28,"21":1},"fans":9800,"svi":0.66,"canopy_pct":8.3,"treatable":["sail","tree","awning"]}},{"type":"Feature","geometry":{"type":"LineString","coordinates":[[-118.34591608695652,33.95924],[-118.34571652173913,33.95917]]},"properties":{"id":"florence_300_36","name":"W Florence Ave, 300 block, seg 36","len_m":20,"approach":"k_line_downtown_inglewood","degmin":{"15":0.683,"17":0.462,"19":0.172,"21":0},"degmin_lo":{"15":0.478,"17":0.257,"19":0,"21":0},"degmin_hi":{"15":0.913,"17":0.693,"19":0.403,"21":0},"wbgt":{"15":34.7,"17":33.8,"19":32.7,"21":29.7},"shade_frac":{"15":0.12,"17":0.18,"19":0.3,"21":1},"fans":9800,"svi":0.66,"canopy_pct":11.6,"treatable":["sail","tree","awning"]}},{"type":"Feature","geometry":{"type":"LineString","coordinates":[[-118.34571652173913,33.95917],[-118.34551695652173,33.9591]]},"properties":{"id":"florence_300_37","name":"W Florence Ave, 300 block, seg 37","len_m":20,"approach":"k_line_downtown_inglewood","degmin":{"15":0.59,"17":0.386,"19":0.131,"21":0},"degmin_lo":{"15":0.385,"17":0.181,"19":0,"21":0},"degmin_hi":{"15":0.821,"17":0.617,"19":0.361,"21":0},"wbgt":{"15":34.3,"17":33.5,"19":32.5,"21":29.9},"shade_frac":{"15":0.28,"17":0.35,"19":0.46,"21":1},"fans":9800,"svi":0.66,"canopy_pct":26.4,"treatable":["sail","tree","awning"]}},{"type":"Feature","geometry":{"type":"LineString","coordinates":[[-118.34551695652173,33.9591],[-118.34531739130435,33.95903]]},"properties":{"id":"florence_300_38","name":"W Florence Ave, 300 block, seg 38","len_m":20,"approach":"k_line_downtown_inglewood","degmin":{"15":0.55,"17":0.347,"19":0.093,"21":0},"degmin_lo":{"15":0.345,"17":0.142,"19":0,"21":0},"degmin_hi":{"15":0.781,"17":0.578,"19":0.323,"21":0},"wbgt":{"15":34.1,"17":33.4,"19":32.4,"21":29.8},"shade_frac":{"15":0.29,"17":0.35,"19":0.47,"21":1},"fans":9800,"svi":0.66,"canopy_pct":29.1,"treatable":["sail","tree","awning"]}},{"type":"Feature","geometry":{"type":"LineString","coordinates":[[-118.34531739130435,33.95903],[-118.34511782608696,33.95896]]},"properties":{"id":"florence_300_39","name":"W Florence Ave, 300 block, seg 39","len_m":20,"approach":"k_line_downtown_inglewood","degmin":{"15":0.481,"17":0.285,"19":0.047,"21":0},"degmin_lo":{"15":0.276,"17":0.08,"19":0,"21":0},"degmin_hi":{"15":0.711,"17":0.516,"19":0.277,"21":0},"wbgt":{"15":33.9,"17":33.1,"19":32.2,"21":29.8},"shade_frac":{"15":0.37,"17":0.43,"19":0.55,"21":1},"fans":9800,"svi":0.66,"canopy_pct":37.6,"treatable":["tree","awning"]}},{"type":"Feature","geometry":{"type":"LineString","coordinates":[[-118.34511782608696,33.95896],[-118.34491826086956,33.95889]]},"properties":{"id":"florence_300_40","name":"W Florence Ave, 300 block, seg 40","len_m":20,"approach":"k_line_downtown_inglewood","degmin":{"15":0.321,"17":0.148,"19":0,"21":0},"degmin_lo":{"15":0.116,"17":0,"19":0,"21":0},"degmin_hi":{"15":0.552,"17":0.379,"19":0.184,"21":0},"wbgt":{"15":33.3,"17":32.6,"19":31.8,"21":29.9},"shade_frac":{"15":0.58,"17":0.64,"19":0.76,"21":1},"fans":9800,"svi":0.66,"canopy_pct":59,"treatable":["tree","awning"]}},{"type":"Feature","geometry":{"type":"LineString","coordinates":[[-118.34491826086956,33.95889],[-118.34471869565218,33.95882]]},"properties":{"id":"florence_300_41","name":"W Florence Ave, 300 block, seg 41","len_m":20,"approach":"k_line_downtown_inglewood","degmin":{"15":0.363,"17":0.182,"19":0,"21":0},"degmin_lo":{"15":0.158,"17":0,"19":0,"21":0},"degmin_hi":{"15":0.594,"17":0.413,"19":0.202,"21":0},"wbgt":{"15":33.4,"17":32.7,"19":31.9,"21":29.8},"shade_frac":{"15":0.5,"17":0.57,"19":0.68,"21":1},"fans":9800,"svi":0.66,"canopy_pct":52.2,"treatable":["tree","awning"]}},{"type":"Feature","geometry":{"type":"LineString","coordinates":[[-118.34471869565218,33.95882],[-118.34451913043479,33.95875]]},"properties":{"id":"florence_300_42","name":"W Florence Ave, 300 block, seg 42","len_m":20,"approach":"k_line_downtown_inglewood","degmin":{"15":0.305,"17":0.132,"19":0,"21":0},"degmin_lo":{"15":0.1,"17":0,"19":0,"21":0},"degmin_hi":{"15":0.536,"17":0.363,"19":0.168,"21":0},"wbgt":{"15":33.2,"17":32.5,"19":31.8,"21":29.9},"shade_frac":{"15":0.58,"17":0.65,"19":0.76,"21":1},"fans":9800,"svi":0.66,"canopy_pct":60.1,"treatable":["tree","awning"]}},{"type":"Feature","geometry":{"type":"LineString","coordinates":[[-118.34451913043479,33.95875],[-118.34431956521739,33.95868]]},"properties":{"id":"florence_300_43","name":"W Florence Ave, 300 block, seg 43","len_m":20,"approach":"k_line_downtown_inglewood","degmin":{"15":0.515,"17":0.312,"19":0.057,"21":0},"degmin_lo":{"15":0.31,"17":0.107,"19":0,"21":0},"degmin_hi":{"15":0.746,"17":0.542,"19":0.287,"21":0},"wbgt":{"15":34,"17":33.2,"19":32.2,"21":29.6},"shade_frac":{"15":0.29,"17":0.35,"19":0.47,"21":1},"fans":9800,"svi":0.66,"canopy_pct":31.1,"treatable":["tree","awning"]}},{"type":"Feature","geometry":{"type":"LineString","coordinates":[[-118.34431956521739,33.95868],[-118.34412,33.95861]]},"properties":{"id":"florence_300_44","name":"W Florence Ave, 300 block, seg 44","len_m":20,"approach":"k_line_downtown_inglewood","degmin":{"15":0.328,"17":0.154,"19":0,"21":0},"degmin_lo":{"15":0.123,"17":0,"19":0,"21":0},"degmin_hi":{"15":0.558,"17":0.385,"19":0.189,"21":0},"wbgt":{"15":33.3,"17":32.6,"19":31.8,"21":29.9},"shade_frac":{"15":0.57,"17":0.64,"19":0.75,"21":1},"fans":9800,"svi":0.66,"canopy_pct":58.3,"treatable":["tree","awning"]}},{"type":"Feature","geometry":{"type":"LineString","coordinates":[[-118.34412,33.95861],[-118.34393681818182,33.95851954545454]]},"properties":{"id":"florence_300_45","name":"W Florence Ave, 300 block, seg 45","len_m":19.6,"approach":"k_line_downtown_inglewood","degmin":{"15":0.524,"17":0.324,"19":0.074,"21":0},"degmin_lo":{"15":0.322,"17":0.123,"19":0,"21":0},"degmin_hi":{"15":0.751,"17":0.551,"19":0.301,"21":0},"wbgt":{"15":34.1,"17":33.3,"19":32.3,"21":29.7},"shade_frac":{"15":0.29,"17":0.35,"19":0.47,"21":1},"fans":9800,"svi":0.66,"canopy_pct":30.2,"treatable":["tree","awning"]}},{"type":"Feature","geometry":{"type":"LineString","coordinates":[[-118.34393681818182,33.95851954545454],[-118.34375363636364,33.95842909090909]]},"properties":{"id":"florence_300_46","name":"W Florence Ave, 300 block, seg 46","len_m":19.6,"approach":"k_line_downtown_inglewood","degmin":{"15":0.582,"17":0.376,"19":0.112,"21":0},"degmin_lo":{"15":0.381,"17":0.174,"19":0,"21":0},"degmin_hi":{"15":0.809,"17":0.602,"19":0.339,"21":0},"wbgt":{"15":34.3,"17":33.5,"19":32.4,"21":29.7},"shade_frac":{"15":0.22,"17":0.29,"19":0.4,"21":1},"fans":9800,"svi":0.66,"canopy_pct":22.8,"treatable":["sail","tree","awning"]}},{"type":"Feature","geometry":{"type":"LineString","coordinates":[[-118.34375363636364,33.95842909090909],[-118.34357045454546,33.958338636363635]]},"properties":{"id":"florence_300_47","name":"W Florence Ave, 300 block, seg 47","len_m":19.6,"approach":"k_line_downtown_inglewood","degmin":{"15":0.635,"17":0.422,"19":0.147,"21":0},"degmin_lo":{"15":0.433,"17":0.221,"19":0,"21":0},"degmin_hi":{"15":0.861,"17":0.649,"19":0.373,"21":0},"wbgt":{"15":34.5,"17":33.7,"19":32.6,"21":29.7},"shade_frac":{"15":0.16,"17":0.23,"19":0.34,"21":1},"fans":9800,"svi":0.66,"canopy_pct":16.4,"treatable":["sail","tree","awning"]}},{"type":"Feature","geometry":{"type":"LineString","coordinates":[[-118.34357045454546,33.958338636363635],[-118.34338727272727,33.958248181818185]]},"properties":{"id":"florence_300_48","name":"W Florence Ave, 300 block, seg 48","len_m":19.6,"approach":"k_line_downtown_inglewood","degmin":{"15":0.68,"17":0.46,"19":0.169,"21":0},"degmin_lo":{"15":0.479,"17":0.258,"19":0,"21":0},"degmin_hi":{"15":0.907,"17":0.687,"19":0.395,"21":0},"wbgt":{"15":34.7,"17":33.8,"19":32.7,"21":29.6},"shade_frac":{"15":0.08,"17":0.15,"19":0.26,"21":1},"fans":9800,"svi":0.66,"canopy_pct":9.3,"treatable":["sail","tree","awning"]}},{"type":"Feature","geometry":{"type":"LineString","coordinates":[[-118.34338727272727,33.958248181818185],[-118.3432040909091,33.95815772727273]]},"properties":{"id":"florence_300_49","name":"W Florence Ave, 300 block, seg 49","len_m":19.6,"approach":"k_line_downtown_inglewood","degmin":{"15":0.706,"17":0.485,"19":0.193,"21":0},"degmin_lo":{"15":0.505,"17":0.284,"19":0,"21":0},"degmin_hi":{"15":0.933,"17":0.712,"19":0.419,"21":0},"wbgt":{"15":34.8,"17":33.9,"19":32.8,"21":29.7},"shade_frac":{"15":0.08,"17":0.14,"19":0.26,"21":1},"fans":9800,"svi":0.66,"canopy_pct":7.3,"treatable":["sail","tree","awning"]}},{"type":"Feature","geometry":{"type":"LineString","coordinates":[[-118.3432040909091,33.95815772727273],[-118.34302090909091,33.95806727272727]]},"properties":{"id":"florence_300_50","name":"W Florence Ave, 300 block, seg 50","len_m":19.6,"approach":"k_line_downtown_inglewood","degmin":{"15":0.728,"17":0.507,"19":0.215,"21":0},"degmin_lo":{"15":0.526,"17":0.306,"19":0.013,"21":0},"degmin_hi":{"15":0.955,"17":0.734,"19":0.441,"21":0},"wbgt":{"15":34.9,"17":34,"19":32.9,"21":29.8},"shade_frac":{"15":0.08,"17":0.14,"19":0.26,"21":1},"fans":9800,"svi":0.66,"canopy_pct":6,"treatable":["sail","tree","awning"]}},{"type":"Feature","geometry":{"type":"LineString","coordinates":[[-118.34302090909091,33.95806727272727],[-118.34283772727274,33.95797681818182]]},"properties":{"id":"florence_300_51","name":"W Florence Ave, 300 block, seg 51","len_m":19.6,"approach":"k_line_downtown_inglewood","degmin":{"15":0.709,"17":0.488,"19":0.195,"21":0},"degmin_lo":{"15":0.507,"17":0.286,"19":0,"21":0},"degmin_hi":{"15":0.936,"17":0.715,"19":0.421,"21":0},"wbgt":{"15":34.8,"17":33.9,"19":32.8,"21":29.7},"shade_frac":{"15":0.08,"17":0.14,"19":0.26,"21":1},"fans":9800,"svi":0.66,"canopy_pct":7,"treatable":["sail","tree","awning"]}},{"type":"Feature","geometry":{"type":"LineString","coordinates":[[-118.34283772727274,33.95797681818182],[-118.34265454545455,33.95788636363636]]},"properties":{"id":"florence_300_52","name":"W Florence Ave, 300 block, seg 52","len_m":19.6,"approach":"k_line_downtown_inglewood","degmin":{"15":0.683,"17":0.464,"19":0.176,"21":0},"degmin_lo":{"15":0.482,"17":0.263,"19":0,"21":0},"degmin_hi":{"15":0.91,"17":0.691,"19":0.403,"21":0},"wbgt":{"15":34.7,"17":33.8,"19":32.7,"21":29.7},"shade_frac":{"15":0.1,"17":0.16,"19":0.28,"21":1},"fans":9800,"svi":0.66,"canopy_pct":9.9,"treatable":["sail","tree","awning"]}},{"type":"Feature","geometry":{"type":"LineString","coordinates":[[-118.34265454545455,33.95788636363636],[-118.34247136363636,33.95779590909091]]},"properties":{"id":"florence_300_53","name":"W Florence Ave, 300 block, seg 53","len_m":19.6,"approach":"k_line_downtown_inglewood","degmin":{"15":0.626,"17":0.417,"19":0.149,"21":0},"degmin_lo":{"15":0.424,"17":0.216,"19":0,"21":0},"degmin_hi":{"15":0.853,"17":0.644,"19":0.376,"21":0},"wbgt":{"15":34.5,"17":33.7,"19":32.6,"21":29.8},"shade_frac":{"15":0.2,"17":0.27,"19":0.38,"21":1},"fans":9800,"svi":0.66,"canopy_pct":19,"treatable":["sail","tree","awning"]}},{"type":"Feature","geometry":{"type":"LineString","coordinates":[[-118.34247136363636,33.95779590909091],[-118.34228818181819,33.957705454545454]]},"properties":{"id":"florence_300_54","name":"W Florence Ave, 300 block, seg 54","len_m":19.6,"approach":"k_line_downtown_inglewood","degmin":{"15":0.599,"17":0.389,"19":0.12,"21":0},"degmin_lo":{"15":0.397,"17":0.188,"19":0,"21":0},"degmin_hi":{"15":0.825,"17":0.616,"19":0.347,"21":0},"wbgt":{"15":34.4,"17":33.5,"19":32.5,"21":29.7},"shade_frac":{"15":0.19,"17":0.26,"19":0.37,"21":1},"fans":9800,"svi":0.66,"canopy_pct":20.4,"treatable":["sail","tree","awning"]}},{"type":"Feature","geometry":{"type":"LineString","coordinates":[[-118.34228818181819,33.957705454545454],[-118.342105,33.957615000000004]]},"properties":{"id":"florence_300_55","name":"W Florence Ave, 300 block, seg 55","len_m":19.6,"approach":"k_line_downtown_inglewood","degmin":{"15":0.541,"17":0.339,"19":0.084,"21":0},"degmin_lo":{"15":0.34,"17":0.137,"19":0,"21":0},"degmin_hi":{"15":0.768,"17":0.566,"19":0.31,"21":0},"wbgt":{"15":34.1,"17":33.3,"19":32.3,"21":29.7},"shade_frac":{"15":0.26,"17":0.33,"19":0.44,"21":1},"fans":9800,"svi":0.66,"canopy_pct":27.8,"treatable":["sail","tree","awning"]}},{"type":"Feature","geometry":{"type":"LineString","coordinates":[[-118.342105,33.957615000000004],[-118.34192181818182,33.95752454545455]]},"properties":{"id":"florence_300_56","name":"W Florence Ave, 300 block, seg 56","len_m":19.6,"approach":"k_line_downtown_inglewood","degmin":{"15":0.335,"17":0.162,"19":0,"21":0},"degmin_lo":{"15":0.133,"17":0,"19":0,"21":0},"degmin_hi":{"15":0.561,"17":0.389,"19":0.194,"21":0},"wbgt":{"15":33.3,"17":32.6,"19":31.9,"21":29.9},"shade_frac":{"15":0.56,"17":0.63,"19":0.74,"21":1},"fans":9800,"svi":0.66,"canopy_pct":56.8,"treatable":["tree","awning"]}},{"type":"Feature","geometry":{"type":"LineString","coordinates":[[-118.34192181818182,33.95752454545455],[-118.34173863636364,33.95743409090909]]},"properties":{"id":"florence_300_57","name":"W Florence Ave, 300 block, seg 57","len_m":19.6,"approach":"k_line_downtown_inglewood","degmin":{"15":0.281,"17":0.114,"19":0,"21":0},"degmin_lo":{"15":0.079,"17":0,"19":0,"21":0},"degmin_hi":{"15":0.508,"17":0.341,"19":0.157,"21":0},"wbgt":{"15":33.1,"17":32.5,"19":31.7,"21":29.9},"shade_frac":{"15":0.62,"17":0.68,"19":0.8,"21":1},"fans":9800,"svi":0.66,"canopy_pct":63.2,"treatable":["tree","awning"]}},{"type":"Feature","geometry":{"type":"LineString","coordinates":[[-118.34173863636364,33.95743409090909],[-118.34155545454546,33.95734363636364]]},"properties":{"id":"florence_300_58","name":"W Florence Ave, 300 block, seg 58","len_m":19.6,"approach":"k_line_downtown_inglewood","degmin":{"15":0.521,"17":0.319,"19":0.063,"21":0},"degmin_lo":{"15":0.32,"17":0.117,"19":0,"21":0},"degmin_hi":{"15":0.748,"17":0.546,"19":0.29,"21":0},"wbgt":{"15":34.1,"17":33.3,"19":32.3,"21":29.6},"shade_frac":{"15":0.26,"17":0.33,"19":0.44,"21":1},"fans":9800,"svi":0.66,"canopy_pct":28.9,"treatable":["sail","tree","awning"]}},{"type":"Feature","geometry":{"type":"LineString","coordinates":[[-118.34155545454546,33.95734363636364],[-118.34137227272727,33.95725318181818]]},"properties":{"id":"florence_300_59","name":"W Florence Ave, 300 block, seg 59","len_m":19.6,"approach":"k_line_downtown_inglewood","degmin":{"15":0.477,"17":0.281,"19":0.039,"21":0},"degmin_lo":{"15":0.275,"17":0.08,"19":0,"21":0},"degmin_hi":{"15":0.704,"17":0.508,"19":0.265,"21":0},"wbgt":{"15":33.9,"17":33.1,"19":32.2,"21":29.7},"shade_frac":{"15":0.33,"17":0.39,"19":0.51,"21":1},"fans":9800,"svi":0.66,"canopy_pct":35.2,"treatable":["tree","awning"]}},{"type":"Feature","geometry":{"type":"LineString","coordinates":[[-118.34137227272727,33.95725318181818],[-118.3411890909091,33.95716272727273]]},"properties":{"id":"florence_300_60","name":"W Florence Ave, 300 block, seg 60","len_m":19.6,"approach":"k_line_downtown_inglewood","degmin":{"15":0.411,"17":0.226,"19":0.005,"21":0},"degmin_lo":{"15":0.209,"17":0.024,"19":0,"21":0},"degmin_hi":{"15":0.637,"17":0.452,"19":0.232,"21":0},"wbgt":{"15":33.6,"17":32.9,"19":32,"21":29.8},"shade_frac":{"15":0.43,"17":0.5,"19":0.61,"21":1},"fans":9800,"svi":0.66,"canopy_pct":45.2,"treatable":["tree","awning"]}},{"type":"Feature","geometry":{"type":"LineString","coordinates":[[-118.3411890909091,33.95716272727273],[-118.34100590909091,33.957072272727274]]},"properties":{"id":"florence_300_61","name":"W Florence Ave, 300 block, seg 61","len_m":19.6,"approach":"k_line_downtown_inglewood","degmin":{"15":0.553,"17":0.348,"19":0.087,"21":0},"degmin_lo":{"15":0.351,"17":0.146,"19":0,"21":0},"degmin_hi":{"15":0.78,"17":0.575,"19":0.313,"21":0},"wbgt":{"15":34.2,"17":33.4,"19":32.3,"21":29.6},"shade_frac":{"15":0.23,"17":0.3,"19":0.41,"21":1},"fans":9800,"svi":0.66,"canopy_pct":25.4,"treatable":["sail","tree","awning"]}},{"type":"Feature","geometry":{"type":"LineString","coordinates":[[-118.34100590909091,33.957072272727274],[-118.34082272727274,33.956981818181816]]},"properties":{"id":"florence_300_62","name":"W Florence Ave, 300 block, seg 62","len_m":19.6,"approach":"k_line_downtown_inglewood","degmin":{"15":0.485,"17":0.295,"19":0.064,"21":0},"degmin_lo":{"15":0.284,"17":0.094,"19":0,"21":0},"degmin_hi":{"15":0.712,"17":0.522,"19":0.29,"21":0},"wbgt":{"15":33.9,"17":33.2,"19":32.3,"21":29.9},"shade_frac":{"15":0.38,"17":0.45,"19":0.56,"21":1},"fans":9800,"svi":0.66,"canopy_pct":37.6,"treatable":["tree","awning"]}},{"type":"Feature","geometry":{"type":"LineString","coordinates":[[-118.34082272727274,33.956981818181816],[-118.34063954545455,33.956891363636366]]},"properties":{"id":"florence_300_63","name":"W Florence Ave, 300 block, seg 63","len_m":19.6,"approach":"k_line_downtown_inglewood","degmin":{"15":0.612,"17":0.403,"19":0.134,"21":0},"degmin_lo":{"15":0.41,"17":0.201,"19":0,"21":0},"degmin_hi":{"15":0.838,"17":0.629,"19":0.36,"21":0},"wbgt":{"15":34.4,"17":33.6,"19":32.5,"21":29.7},"shade_frac":{"15":0.19,"17":0.26,"19":0.37,"21":1},"fans":9800,"svi":0.66,"canopy_pct":19.6,"treatable":["sail","tree","awning"]}},{"type":"Feature","geometry":{"type":"LineString","coordinates":[[-118.34063954545455,33.956891363636366],[-118.34045636363636,33.95680090909091]]},"properties":{"id":"florence_300_64","name":"W Florence Ave, 300 block, seg 64","len_m":19.6,"approach":"k_line_downtown_inglewood","degmin":{"15":0.663,"17":0.448,"19":0.168,"21":0},"degmin_lo":{"15":0.462,"17":0.247,"19":0,"21":0},"degmin_hi":{"15":0.89,"17":0.675,"19":0.395,"21":0},"wbgt":{"15":34.6,"17":33.8,"19":32.7,"21":29.7},"shade_frac":{"15":0.14,"17":0.2,"19":0.32,"21":1},"fans":9800,"svi":0.66,"canopy_pct":13.2,"treatable":["sail","tree","awning"]}},{"type":"Feature","geometry":{"type":"LineString","coordinates":[[-118.34045636363636,33.95680090909091],[-118.34027318181819,33.95671045454546]]},"properties":{"id":"florence_300_65","name":"W Florence Ave, 300 block, seg 65","len_m":19.6,"approach":"k_line_downtown_inglewood","degmin":{"15":0.712,"17":0.497,"19":0.216,"21":0},"degmin_lo":{"15":0.51,"17":0.295,"19":0.015,"21":0},"degmin_hi":{"15":0.939,"17":0.724,"19":0.443,"21":0},"wbgt":{"15":34.8,"17":34,"19":32.9,"21":29.9},"shade_frac":{"15":0.14,"17":0.2,"19":0.32,"21":1},"fans":9800,"svi":0.66,"canopy_pct":10.1,"treatable":["sail","tree","awning"]}},{"type":"Feature","geometry":{"type":"LineString","coordinates":[[-118.34027318181819,33.95671045454546],[-118.34009,33.95662]]},"properties":{"id":"florence_300_66","name":"W Florence Ave, 300 block, seg 66","len_m":19.6,"approach":"k_line_downtown_inglewood","degmin":{"15":0.736,"17":0.517,"19":0.227,"21":0},"degmin_lo":{"15":0.534,"17":0.315,"19":0.026,"21":0},"degmin_hi":{"15":0.963,"17":0.743,"19":0.454,"21":0},"wbgt":{"15":34.9,"17":34.1,"19":32.9,"21":29.9},"shade_frac":{"15":0.09,"17":0.16,"19":0.27,"21":1},"fans":9800,"svi":0.66,"canopy_pct":6.3,"treatable":["sail","tree","awning"]}},{"type":"Feature","geometry":{"type":"LineString","coordinates":[[-118.35296,33.96139],[-118.35283090909091,33.961242272727276]]},"properties":{"id":"prairie_3800_01","name":"S Prairie Ave, 3800 block, seg 01","len_m":20.2,"approach":"prairie_ave_gate","degmin":{"15":0.658,"17":0.436,"19":0.146,"21":0},"degmin_lo":{"15":0.451,"17":0.229,"19":0,"21":0},"degmin_hi":{"15":0.891,"17":0.67,"19":0.379,"21":0},"wbgt":{"15":34.5,"17":33.7,"19":32.6,"21":29.6},"shade_frac":{"15":0.13,"17":0.2,"19":0.31,"21":1},"fans":6100,"svi":0.52,"canopy_pct":14.3,"treatable":["sail","tree","awning"]}},{"type":"Feature","geometry":{"type":"LineString","coordinates":[[-118.35283090909091,33.961242272727276],[-118.35270181818181,33.96109454545455]]},"properties":{"id":"prairie_3800_02","name":"S Prairie Ave, 3800 block, seg 02","len_m":20.2,"approach":"prairie_ave_gate","degmin":{"15":0.654,"17":0.442,"19":0.172,"21":0},"degmin_lo":{"15":0.447,"17":0.235,"19":0,"21":0},"degmin_hi":{"15":0.887,"17":0.676,"19":0.405,"21":0},"wbgt":{"15":34.5,"17":33.7,"19":32.7,"21":29.9},"shade_frac":{"15":0.23,"17":0.29,"19":0.41,"21":1},"fans":6100,"svi":0.52,"canopy_pct":19.8,"treatable":["sail","tree","awning"]}},{"type":"Feature","geometry":{"type":"LineString","coordinates":[[-118.35270181818181,33.96109454545455],[-118.35257272727273,33.96094681818182]]},"properties":{"id":"prairie_3800_03","name":"S Prairie Ave, 3800 block, seg 03","len_m":20.2,"approach":"prairie_ave_gate","degmin":{"15":0.593,"17":0.385,"19":0.122,"21":0},"degmin_lo":{"15":0.386,"17":0.178,"19":0,"21":0},"degmin_hi":{"15":0.827,"17":0.619,"19":0.356,"21":0},"wbgt":{"15":34.3,"17":33.5,"19":32.5,"21":29.8},"shade_frac":{"15":0.26,"17":0.33,"19":0.44,"21":1},"fans":6100,"svi":0.52,"canopy_pct":25.4,"treatable":["sail","tree","awning"]}},{"type":"Feature","geometry":{"type":"LineString","coordinates":[[-118.35257272727273,33.96094681818182],[-118.35244363636363,33.96079909090909]]},"properties":{"id":"prairie_3800_04","name":"S Prairie Ave, 3800 block, seg 04","len_m":20.2,"approach":"prairie_ave_gate","degmin":{"15":0.52,"17":0.32,"19":0.074,"21":0},"degmin_lo":{"15":0.313,"17":0.113,"19":0,"21":0},"degmin_hi":{"15":0.754,"17":0.554,"19":0.307,"21":0},"wbgt":{"15":34,"17":33.2,"19":32.3,"21":29.8},"shade_frac":{"15":0.34,"17":0.41,"19":0.52,"21":1},"fans":6100,"svi":0.52,"canopy_pct":34.1,"treatable":["tree","awning"]}},{"type":"Feature","geometry":{"type":"LineString","coordinates":[[-118.35244363636363,33.96079909090909],[-118.35231454545455,33.960651363636366]]},"properties":{"id":"prairie_3800_05","name":"S Prairie Ave, 3800 block, seg 05","len_m":20.2,"approach":"prairie_ave_gate","degmin":{"15":0.394,"17":0.211,"19":0,"21":0},"degmin_lo":{"15":0.187,"17":0.004,"19":0,"21":0},"degmin_hi":{"15":0.627,"17":0.444,"19":0.232,"21":0},"wbgt":{"15":33.5,"17":32.8,"19":32,"21":29.9},"shade_frac":{"15":0.51,"17":0.57,"19":0.69,"21":1},"fans":6100,"svi":0.52,"canopy_pct":50.8,"treatable":["tree","awning"]}},{"type":"Feature","geometry":{"type":"LineString","coordinates":[[-118.35231454545455,33.960651363636366],[-118.35218545454545,33.96050363636364]]},"properties":{"id":"prairie_3800_06","name":"S Prairie Ave, 3800 block, seg 06","len_m":20.2,"approach":"prairie_ave_gate","degmin":{"15":0.343,"17":0.164,"19":0,"21":0},"degmin_lo":{"15":0.136,"17":0,"19":0,"21":0},"degmin_hi":{"15":0.577,"17":0.397,"19":0.193,"21":0},"wbgt":{"15":33.3,"17":32.6,"19":31.8,"21":29.9},"shade_frac":{"15":0.54,"17":0.61,"19":0.72,"21":1},"fans":6100,"svi":0.52,"canopy_pct":55.9,"treatable":["tree","awning"]}},{"type":"Feature","geometry":{"type":"LineString","coordinates":[[-118.35218545454545,33.96050363636364],[-118.35205636363636,33.96035590909091]]},"properties":{"id":"prairie_3800_07","name":"S Prairie Ave, 3800 block, seg 07","len_m":20.2,"approach":"prairie_ave_gate","degmin":{"15":0.449,"17":0.251,"19":0.011,"21":0},"degmin_lo":{"15":0.241,"17":0.044,"19":0,"21":0},"degmin_hi":{"15":0.682,"17":0.485,"19":0.244,"21":0},"wbgt":{"15":33.7,"17":33,"19":32,"21":29.7},"shade_frac":{"15":0.37,"17":0.43,"19":0.55,"21":1},"fans":6100,"svi":0.52,"canopy_pct":40.1,"treatable":["tree","awning"]}},{"type":"Feature","geometry":{"type":"LineString","coordinates":[[-118.35205636363636,33.96035590909091],[-118.35192727272727,33.96020818181818]]},"properties":{"id":"prairie_3800_08","name":"S Prairie Ave, 3800 block, seg 08","len_m":20.2,"approach":"prairie_ave_gate","degmin":{"15":0.231,"17":0.065,"19":0,"21":0},"degmin_lo":{"15":0.024,"17":0,"19":0,"21":0},"degmin_hi":{"15":0.464,"17":0.298,"19":0.12,"21":0},"wbgt":{"15":32.9,"17":32.3,"19":31.6,"21":29.9},"shade_frac":{"15":0.67,"17":0.73,"19":0.85,"21":1},"fans":6100,"svi":0.52,"canopy_pct":69.6,"treatable":["tree","awning"]}},{"type":"Feature","geometry":{"type":"LineString","coordinates":[[-118.35192727272727,33.96020818181818],[-118.35179818181818,33.960060454545456]]},"properties":{"id":"prairie_3800_09","name":"S Prairie Ave, 3800 block, seg 09","len_m":20.2,"approach":"prairie_ave_gate","degmin":{"15":0.334,"17":0.153,"19":0,"21":0},"degmin_lo":{"15":0.127,"17":0,"19":0,"21":0},"degmin_hi":{"15":0.567,"17":0.386,"19":0.178,"21":0},"wbgt":{"15":33.3,"17":32.6,"19":31.8,"21":29.8},"shade_frac":{"15":0.52,"17":0.59,"19":0.7,"21":1},"fans":6100,"svi":0.52,"canopy_pct":55.4,"treatable":["tree","awning"]}},{"type":"Feature","geometry":{"type":"LineString","coordinates":[[-118.35179818181818,33.960060454545456],[-118.35166909090908,33.95991272727273]]},"properties":{"id":"prairie_3800_10","name":"S Prairie Ave, 3800 block, seg 10","len_m":20.2,"approach":"prairie_ave_gate","degmin":{"15":0.435,"17":0.24,"19":0.003,"21":0},"degmin_lo":{"15":0.227,"17":0.032,"19":0,"21":0},"degmin_hi":{"15":0.668,"17":0.473,"19":0.236,"21":0},"wbgt":{"15":33.7,"17":32.9,"19":32,"21":29.7},"shade_frac":{"15":0.39,"17":0.45,"19":0.57,"21":1},"fans":6100,"svi":0.52,"canopy_pct":41.9,"treatable":["tree","awning"]}},{"type":"Feature","geometry":{"type":"LineString","coordinates":[[-118.35166909090908,33.95991272727273],[-118.35154,33.959765000000004]]},"properties":{"id":"prairie_3800_11","name":"S Prairie Ave, 3800 block, seg 11","len_m":20.2,"approach":"prairie_ave_gate","degmin":{"15":0.35,"17":0.169,"19":0,"21":0},"degmin_lo":{"15":0.142,"17":0,"19":0,"21":0},"degmin_hi":{"15":0.583,"17":0.403,"19":0.195,"21":0},"wbgt":{"15":33.3,"17":32.7,"19":31.9,"21":29.9},"shade_frac":{"15":0.53,"17":0.6,"19":0.71,"21":1},"fans":6100,"svi":0.52,"canopy_pct":54.9,"treatable":["tree","awning"]}},{"type":"Feature","geometry":{"type":"LineString","coordinates":[[-118.35154,33.959765000000004],[-118.35141090909092,33.95961727272727]]},"properties":{"id":"prairie_3800_12","name":"S Prairie Ave, 3800 block, seg 12","len_m":20.2,"approach":"prairie_ave_gate","degmin":{"15":0.541,"17":0.332,"19":0.068,"21":0},"degmin_lo":{"15":0.334,"17":0.125,"19":0,"21":0},"degmin_hi":{"15":0.774,"17":0.565,"19":0.302,"21":0},"wbgt":{"15":34.1,"17":33.3,"19":32.3,"21":29.6},"shade_frac":{"15":0.26,"17":0.32,"19":0.44,"21":1},"fans":6100,"svi":0.52,"canopy_pct":28.4,"treatable":["sail","tree","awning"]}},{"type":"Feature","geometry":{"type":"LineString","coordinates":[[-118.35141090909092,33.95961727272727],[-118.35128181818182,33.959469545454546]]},"properties":{"id":"prairie_3800_13","name":"S Prairie Ave, 3800 block, seg 13","len_m":20.2,"approach":"prairie_ave_gate","degmin":{"15":0.506,"17":0.309,"19":0.067,"21":0},"degmin_lo":{"15":0.299,"17":0.101,"19":0,"21":0},"degmin_hi":{"15":0.74,"17":0.542,"19":0.3,"21":0},"wbgt":{"15":34,"17":33.2,"19":32.3,"21":29.9},"shade_frac":{"15":0.36,"17":0.43,"19":0.54,"21":1},"fans":6100,"svi":0.52,"canopy_pct":36.3,"treatable":["tree","awning"]}},{"type":"Feature","geometry":{"type":"LineString","coordinates":[[-118.35128181818182,33.959469545454546],[-118.35115272727273,33.95932181818182]]},"properties":{"id":"prairie_3800_14","name":"S Prairie Ave, 3800 block, seg 14","len_m":20.2,"approach":"prairie_ave_gate","degmin":{"15":0.611,"17":0.395,"19":0.117,"21":0},"degmin_lo":{"15":0.404,"17":0.188,"19":0,"21":0},"degmin_hi":{"15":0.844,"17":0.629,"19":0.35,"21":0},"wbgt":{"15":34.4,"17":33.5,"19":32.5,"21":29.6},"shade_frac":{"15":0.19,"17":0.25,"19":0.37,"21":1},"fans":6100,"svi":0.52,"canopy_pct":20.3,"treatable":["sail","tree","awning"]}},{"type":"Feature","geometry":{"type":"LineString","coordinates":[[-118.35115272727273,33.95932181818182],[-118.35102363636364,33.959174090909094]]},"properties":{"id":"prairie_3800_15","name":"S Prairie Ave, 3800 block, seg 15","len_m":20.2,"approach":"prairie_ave_gate","degmin":{"15":0.642,"17":0.423,"19":0.139,"21":0},"degmin_lo":{"15":0.435,"17":0.216,"19":0,"21":0},"degmin_hi":{"15":0.876,"17":0.657,"19":0.372,"21":0},"wbgt":{"15":34.5,"17":33.6,"19":32.5,"21":29.6},"shade_frac":{"15":0.16,"17":0.22,"19":0.34,"21":1},"fans":6100,"svi":0.52,"canopy_pct":16.8,"treatable":["sail","tree","awning"]}},{"type":"Feature","geometry":{"type":"LineString","coordinates":[[-118.35102363636364,33.959174090909094],[-118.35089454545455,33.95902636363636]]},"properties":{"id":"prairie_3800_16","name":"S Prairie Ave, 3800 block, seg 16","len_m":20.2,"approach":"prairie_ave_gate","degmin":{"15":0.679,"17":0.461,"19":0.177,"21":0},"degmin_lo":{"15":0.472,"17":0.253,"19":0,"21":0},"degmin_hi":{"15":0.912,"17":0.694,"19":0.41,"21":0},"wbgt":{"15":34.6,"17":33.8,"19":32.7,"21":29.8},"shade_frac":{"15":0.16,"17":0.23,"19":0.34,"21":1},"fans":6100,"svi":0.52,"canopy_pct":14.8,"treatable":["sail","tree","awning"]}},{"type":"Feature","geometry":{"type":"LineString","coordinates":[[-118.35089454545455,33.95902636363636],[-118.35076545454545,33.958878636363636]]},"properties":{"id":"prairie_3800_17","name":"S Prairie Ave, 3800 block, seg 17","len_m":20.2,"approach":"prairie_ave_gate","degmin":{"15":0.684,"17":0.465,"19":0.18,"21":0},"degmin_lo":{"15":0.477,"17":0.258,"19":0,"21":0},"degmin_hi":{"15":0.917,"17":0.698,"19":0.413,"21":0},"wbgt":{"15":34.6,"17":33.8,"19":32.7,"21":29.8},"shade_frac":{"15":0.16,"17":0.22,"19":0.34,"21":1},"fans":6100,"svi":0.52,"canopy_pct":14.1,"treatable":["sail","tree","awning"]}},{"type":"Feature","geometry":{"type":"LineString","coordinates":[[-118.35076545454545,33.958878636363636],[-118.35063636363637,33.95873090909091]]},"properties":{"id":"prairie_3800_18","name":"S Prairie Ave, 3800 block, seg 18","len_m":20.2,"approach":"prairie_ave_gate","degmin":{"15":0.672,"17":0.458,"19":0.184,"21":0},"degmin_lo":{"15":0.464,"17":0.251,"19":0,"21":0},"degmin_hi":{"15":0.905,"17":0.691,"19":0.417,"21":0},"wbgt":{"15":34.6,"17":33.8,"19":32.7,"21":29.9},"shade_frac":{"15":0.21,"17":0.27,"19":0.39,"21":1},"fans":6100,"svi":0.52,"canopy_pct":17.7,"treatable":["sail","tree","awning"]}},{"type":"Feature","geometry":{"type":"LineString","coordinates":[[-118.35063636363637,33.95873090909091],[-118.35050727272727,33.958583181818184]]},"properties":{"id":"prairie_3800_19","name":"S Prairie Ave, 3800 block, seg 19","len_m":20.2,"approach":"prairie_ave_gate","degmin":{"15":0.613,"17":0.404,"19":0.138,"21":0},"degmin_lo":{"15":0.406,"17":0.196,"19":0,"21":0},"degmin_hi":{"15":0.847,"17":0.637,"19":0.371,"21":0},"wbgt":{"15":34.4,"17":33.6,"19":32.5,"21":29.9},"shade_frac":{"15":0.25,"17":0.31,"19":0.43,"21":1},"fans":6100,"svi":0.52,"canopy_pct":23.5,"treatable":["sail","tree","awning"]}},{"type":"Feature","geometry":{"type":"LineString","coordinates":[[-118.35050727272727,33.958583181818184],[-118.35037818181819,33.95843545454545]]},"properties":{"id":"prairie_3800_20","name":"S Prairie Ave, 3800 block, seg 20","len_m":20.2,"approach":"prairie_ave_gate","degmin":{"15":0.53,"17":0.331,"19":0.087,"21":0},"degmin_lo":{"15":0.323,"17":0.124,"19":0,"21":0},"degmin_hi":{"15":0.764,"17":0.565,"19":0.32,"21":0},"wbgt":{"15":34,"17":33.3,"19":32.3,"21":29.9},"shade_frac":{"15":0.35,"17":0.42,"19":0.53,"21":1},"fans":6100,"svi":0.52,"canopy_pct":34,"treatable":["tree","awning"]}},{"type":"Feature","geometry":{"type":"LineString","coordinates":[[-118.35037818181819,33.95843545454545],[-118.35024909090909,33.958287727272726]]},"properties":{"id":"prairie_3800_21","name":"S Prairie Ave, 3800 block, seg 21","len_m":20.2,"approach":"prairie_ave_gate","degmin":{"15":0.436,"17":0.248,"19":0.025,"21":0},"degmin_lo":{"15":0.229,"17":0.041,"19":0,"21":0},"degmin_hi":{"15":0.67,"17":0.481,"19":0.258,"21":0},"wbgt":{"15":33.7,"17":33,"19":32.1,"21":29.9},"shade_frac":{"15":0.45,"17":0.52,"19":0.63,"21":1},"fans":6100,"svi":0.52,"canopy_pct":45.4,"treatable":["tree","awning"]}},{"type":"Feature","geometry":{"type":"LineString","coordinates":[[-118.35024909090909,33.958287727272726],[-118.35012,33.95814]]},"properties":{"id":"prairie_3800_22","name":"S Prairie Ave, 3800 block, seg 22","len_m":20.2,"approach":"prairie_ave_gate","degmin":{"15":0.394,"17":0.208,"19":0,"21":0},"degmin_lo":{"15":0.187,"17":0.001,"19":0,"21":0},"degmin_hi":{"15":0.628,"17":0.442,"19":0.223,"21":0},"wbgt":{"15":33.5,"17":32.8,"19":32,"21":29.8},"shade_frac":{"15":0.48,"17":0.54,"19":0.66,"21":1},"fans":6100,"svi":0.52,"canopy_pct":49.1,"treatable":["tree","awning"]}},{"type":"Feature","geometry":{"type":"LineString","coordinates":[[-118.35012,33.95814],[-118.349965,33.9580185]]},"properties":{"id":"prairie_3800_23","name":"S Prairie Ave, 3800 block, seg 23","len_m":19.6,"approach":"prairie_ave_gate","degmin":{"15":0.349,"17":0.171,"19":0,"21":0},"degmin_lo":{"15":0.148,"17":0,"19":0,"21":0},"degmin_hi":{"15":0.575,"17":0.398,"19":0.191,"21":0},"wbgt":{"15":33.4,"17":32.7,"19":31.9,"21":29.8},"shade_frac":{"15":0.5,"17":0.57,"19":0.68,"21":1},"fans":6100,"svi":0.52,"canopy_pct":52.7,"treatable":["tree","awning"]}},{"type":"Feature","geometry":{"type":"LineString","coordinates":[[-118.349965,33.9580185],[-118.34981,33.957897]]},"properties":{"id":"prairie_3800_24","name":"S Prairie Ave, 3800 block, seg 24","len_m":19.6,"approach":"prairie_ave_gate","degmin":{"15":0.293,"17":0.122,"19":0,"21":0},"degmin_lo":{"15":0.091,"17":0,"19":0,"21":0},"degmin_hi":{"15":0.519,"17":0.348,"19":0.155,"21":0},"wbgt":{"15":33.2,"17":32.5,"19":31.7,"21":29.8},"shade_frac":{"15":0.57,"17":0.64,"19":0.75,"21":1},"fans":6100,"svi":0.52,"canopy_pct":60,"treatable":["tree","awning"]}},{"type":"Feature","geometry":{"type":"LineString","coordinates":[[-118.34981,33.957897],[-118.349655,33.957775500000004]]},"properties":{"id":"prairie_3800_25","name":"S Prairie Ave, 3800 block, seg 25","len_m":19.6,"approach":"prairie_ave_gate","degmin":{"15":0.32,"17":0.145,"19":0,"21":0},"degmin_lo":{"15":0.119,"17":0,"19":0,"21":0},"degmin_hi":{"15":0.547,"17":0.372,"19":0.17,"21":0},"wbgt":{"15":33.3,"17":32.6,"19":31.8,"21":29.8},"shade_frac":{"15":0.53,"17":0.59,"19":0.71,"21":1},"fans":6100,"svi":0.52,"canopy_pct":55.9,"treatable":["tree","awning"]}},{"type":"Feature","geometry":{"type":"LineString","coordinates":[[-118.349655,33.957775500000004],[-118.3495,33.957654]]},"properties":{"id":"prairie_3800_26","name":"S Prairie Ave, 3800 block, seg 26","len_m":19.6,"approach":"prairie_ave_gate","degmin":{"15":0.345,"17":0.166,"19":0,"21":0},"degmin_lo":{"15":0.143,"17":0,"19":0,"21":0},"degmin_hi":{"15":0.571,"17":0.393,"19":0.185,"21":0},"wbgt":{"15":33.4,"17":32.7,"19":31.8,"21":29.8},"shade_frac":{"15":0.5,"17":0.56,"19":0.68,"21":1},"fans":6100,"svi":0.52,"canopy_pct":52.8,"treatable":["tree","awning"]}},{"type":"Feature","geometry":{"type":"LineString","coordinates":[[-118.3495,33.957654],[-118.349345,33.9575325]]},"properties":{"id":"prairie_3800_27","name":"S Prairie Ave, 3800 block, seg 27","len_m":19.6,"approach":"prairie_ave_gate","degmin":{"15":0.275,"17":0.109,"19":0,"21":0},"degmin_lo":{"15":0.074,"17":0,"19":0,"21":0},"degmin_hi":{"15":0.502,"17":0.335,"19":0.152,"21":0},"wbgt":{"15":33.1,"17":32.4,"19":31.7,"21":29.9},"shade_frac":{"15":0.62,"17":0.68,"19":0.8,"21":1},"fans":6100,"svi":0.52,"canopy_pct":63.7,"treatable":["tree","awning"]}},{"type":"Feature","geometry":{"type":"LineString","coordinates":[[-118.349345,33.9575325],[-118.34919000000001,33.957411]]},"properties":{"id":"prairie_3800_28","name":"S Prairie Ave, 3800 block, seg 28","len_m":19.6,"approach":"prairie_ave_gate","degmin":{"15":0.377,"17":0.199,"19":0,"21":0},"degmin_lo":{"15":0.176,"17":0,"19":0,"21":0},"degmin_hi":{"15":0.604,"17":0.425,"19":0.216,"21":0},"wbgt":{"15":33.5,"17":32.8,"19":32,"21":29.9},"shade_frac":{"15":0.49,"17":0.56,"19":0.67,"21":1},"fans":6100,"svi":0.52,"canopy_pct":50.5,"treatable":["tree","awning"]}},{"type":"Feature","geometry":{"type":"LineString","coordinates":[[-118.34919000000001,33.957411],[-118.349035,33.9572895]]},"properties":{"id":"prairie_3800_29","name":"S Prairie Ave, 3800 block, seg 29","len_m":19.6,"approach":"prairie_ave_gate","degmin":{"15":0.517,"17":0.318,"19":0.069,"21":0},"degmin_lo":{"15":0.316,"17":0.117,"19":0,"21":0},"degmin_hi":{"15":0.744,"17":0.544,"19":0.295,"21":0},"wbgt":{"15":34.1,"17":33.3,"19":32.3,"21":29.7},"shade_frac":{"15":0.29,"17":0.36,"19":0.47,"21":1},"fans":6100,"svi":0.52,"canopy_pct":30.8,"treatable":["tree","awning"]}},{"type":"Feature","geometry":{"type":"LineString","coordinates":[[-118.349035,33.9572895],[-118.34888000000001,33.957168]]},"properties":{"id":"prairie_3800_30","name":"S Prairie Ave, 3800 block, seg 30","len_m":19.6,"approach":"prairie_ave_gate","degmin":{"15":0.547,"17":0.348,"19":0.1,"21":0},"degmin_lo":{"15":0.345,"17":0.147,"19":0,"21":0},"degmin_hi":{"15":0.773,"17":0.575,"19":0.327,"21":0},"wbgt":{"15":34.2,"17":33.4,"19":32.4,"21":29.8},"shade_frac":{"15":0.3,"17":0.36,"19":0.48,"21":1},"fans":6100,"svi":0.52,"canopy_pct":29.2,"treatable":["sail","tree","awning"]}},{"type":"Feature","geometry":{"type":"LineString","coordinates":[[-118.34888000000001,33.957168],[-118.348725,33.957046500000004]]},"properties":{"id":"prairie_3800_31","name":"S Prairie Ave, 3800 block, seg 31","len_m":19.6,"approach":"prairie_ave_gate","degmin":{"15":0.612,"17":0.404,"19":0.137,"21":0},"degmin_lo":{"15":0.411,"17":0.203,"19":0,"21":0},"degmin_hi":{"15":0.839,"17":0.631,"19":0.364,"21":0},"wbgt":{"15":34.4,"17":33.6,"19":32.5,"21":29.8},"shade_frac":{"15":0.2,"17":0.27,"19":0.38,"21":1},"fans":6100,"svi":0.52,"canopy_pct":19.9,"treatable":["sail","tree","awning"]}},{"type":"Feature","geometry":{"type":"LineString","coordinates":[[-118.348725,33.957046500000004],[-118.34857,33.956925]]},"properties":{"id":"prairie_3800_32","name":"S Prairie Ave, 3800 block, seg 32","len_m":19.6,"approach":"prairie_ave_gate","degmin":{"15":0.656,"17":0.446,"19":0.174,"21":0},"degmin_lo":{"15":0.454,"17":0.244,"19":0,"21":0},"degmin_hi":{"15":0.882,"17":0.672,"19":0.4,"21":0},"wbgt":{"15":34.6,"17":33.8,"19":32.7,"21":29.9},"shade_frac":{"15":0.18,"17":0.25,"19":0.36,"21":1},"fans":6100,"svi":0.52,"canopy_pct":16,"treatable":["sail","tree","awning"]}},{"type":"Feature","geometry":{"type":"LineString","coordinates":[[-118.34857,33.956925],[-118.348415,33.9568035]]},"properties":{"id":"prairie_3800_33","name":"S Prairie Ave, 3800 block, seg 33","len_m":19.6,"approach":"prairie_ave_gate","degmin":{"15":0.653,"17":0.439,"19":0.159,"21":0},"degmin_lo":{"15":0.452,"17":0.238,"19":0,"21":0},"degmin_hi":{"15":0.88,"17":0.665,"19":0.386,"21":0},"wbgt":{"15":34.6,"17":33.7,"19":32.6,"21":29.7},"shade_frac":{"15":0.14,"17":0.21,"19":0.32,"21":1},"fans":6100,"svi":0.52,"canopy_pct":14,"treatable":["sail","tree","awning"]}},{"type":"Feature","geometry":{"type":"LineString","coordinates":[[-118.348415,33.9568035],[-118.34826,33.956682]]},"properties":{"id":"prairie_3800_34","name":"S Prairie Ave, 3800 block, seg 34","len_m":19.6,"approach":"prairie_ave_gate","degmin":{"15":0.659,"17":0.449,"19":0.177,"21":0},"degmin_lo":{"15":0.458,"17":0.248,"19":0,"21":0},"degmin_hi":{"15":0.886,"17":0.675,"19":0.404,"21":0},"wbgt":{"15":34.6,"17":33.8,"19":32.7,"21":29.9},"shade_frac":{"15":0.18,"17":0.25,"19":0.36,"21":1},"fans":6100,"svi":0.52,"canopy_pct":15.8,"treatable":["sail","tree","awning"]}},{"type":"Feature","geometry":{"type":"LineString","coordinates":[[-118.34826,33.956682],[-118.348105,33.9565605]]},"properties":{"id":"prairie_3800_35","name":"S Prairie Ave, 3800 block, seg 35","len_m":19.6,"approach":"prairie_ave_gate","degmin":{"15":0.616,"17":0.409,"19":0.146,"21":0},"degmin_lo":{"15":0.414,"17":0.208,"19":0,"21":0},"degmin_hi":{"15":0.842,"17":0.636,"19":0.372,"21":0},"wbgt":{"15":34.4,"17":33.6,"19":32.6,"21":29.8},"shade_frac":{"15":0.22,"17":0.29,"19":0.4,"21":1},"fans":6100,"svi":0.52,"canopy_pct":20.8,"treatable":["sail","tree","awning"]}},{"type":"Feature","geometry":{"type":"LineString","coordinates":[[-118.348105,33.9565605],[-118.34795,33.956439]]},"properties":{"id":"prairie_3800_36","name":"S Prairie Ave, 3800 block, seg 36","len_m":19.6,"approach":"prairie_ave_gate","degmin":{"15":0.571,"17":0.366,"19":0.106,"21":0},"degmin_lo":{"15":0.37,"17":0.165,"19":0,"21":0},"degmin_hi":{"15":0.798,"17":0.593,"19":0.333,"21":0},"wbgt":{"15":34.3,"17":33.5,"19":32.4,"21":29.7},"shade_frac":{"15":0.24,"17":0.3,"19":0.42,"21":1},"fans":6100,"svi":0.52,"canopy_pct":24.3,"treatable":["sail","tree","awning"]}},{"type":"Feature","geometry":{"type":"LineString","coordinates":[[-118.34795,33.956439],[-118.347795,33.956317500000004]]},"properties":{"id":"prairie_3800_37","name":"S Prairie Ave, 3800 block, seg 37","len_m":19.6,"approach":"prairie_ave_gate","degmin":{"15":0.531,"17":0.33,"19":0.076,"21":0},"degmin_lo":{"15":0.33,"17":0.129,"19":0,"21":0},"degmin_hi":{"15":0.758,"17":0.556,"19":0.302,"21":0},"wbgt":{"15":34.1,"17":33.3,"19":32.3,"21":29.7},"shade_frac":{"15":0.27,"17":0.33,"19":0.45,"21":1},"fans":6100,"svi":0.52,"canopy_pct":28.6,"treatable":["sail","tree","awning"]}},{"type":"Feature","geometry":{"type":"LineString","coordinates":[[-118.347795,33.956317500000004],[-118.34764,33.956196000000006]]},"properties":{"id":"prairie_3800_38","name":"S Prairie Ave, 3800 block, seg 38","len_m":19.6,"approach":"prairie_ave_gate","degmin":{"15":0.356,"17":0.181,"19":0,"21":0},"degmin_lo":{"15":0.155,"17":0,"19":0,"21":0},"degmin_hi":{"15":0.583,"17":0.408,"19":0.207,"21":0},"wbgt":{"15":33.4,"17":32.7,"19":31.9,"21":29.9},"shade_frac":{"15":0.53,"17":0.6,"19":0.71,"21":1},"fans":6100,"svi":0.52,"canopy_pct":53.8,"treatable":["tree","awning"]}},{"type":"Feature","geometry":{"type":"LineString","coordinates":[[-118.34764,33.956196000000006],[-118.347485,33.9560745]]},"properties":{"id":"prairie_3800_39","name":"S Prairie Ave, 3800 block, seg 39","len_m":19.6,"approach":"prairie_ave_gate","degmin":{"15":0.33,"17":0.156,"19":0,"21":0},"degmin_lo":{"15":0.129,"17":0,"19":0,"21":0},"degmin_hi":{"15":0.556,"17":0.382,"19":0.182,"21":0},"wbgt":{"15":33.3,"17":32.6,"19":31.8,"21":29.8},"shade_frac":{"15":0.54,"17":0.6,"19":0.72,"21":1},"fans":6100,"svi":0.52,"canopy_pct":55.9,"treatable":["tree","awning"]}},{"type":"Feature","geometry":{"type":"LineString","coordinates":[[-118.347485,33.9560745],[-118.34733,33.955953]]},"properties":{"id":"prairie_3800_40","name":"S Prairie Ave, 3800 block, seg 40","len_m":19.6,"approach":"prairie_ave_gate","degmin":{"15":0.432,"17":0.241,"19":0.008,"21":0},"degmin_lo":{"15":0.231,"17":0.04,"19":0,"21":0},"degmin_hi":{"15":0.659,"17":0.468,"19":0.234,"21":0},"wbgt":{"15":33.7,"17":33,"19":32,"21":29.7},"shade_frac":{"15":0.37,"17":0.44,"19":0.55,"21":1},"fans":6100,"svi":0.52,"canopy_pct":40.3,"treatable":["tree","awning"]}},{"type":"Feature","geometry":{"type":"LineString","coordinates":[[-118.34733,33.955953],[-118.34717500000001,33.9558315]]},"properties":{"id":"prairie_3800_41","name":"S Prairie Ave, 3800 block, seg 41","len_m":19.6,"approach":"prairie_ave_gate","degmin":{"15":0.368,"17":0.186,"19":0,"21":0},"degmin_lo":{"15":0.167,"17":0,"19":0,"21":0},"degmin_hi":{"15":0.595,"17":0.413,"19":0.197,"21":0},"wbgt":{"15":33.5,"17":32.7,"19":31.9,"21":29.7},"shade_frac":{"15":0.46,"17":0.52,"19":0.64,"21":1},"fans":6100,"svi":0.52,"canopy_pct":49.2,"treatable":["tree","awning"]}},{"type":"Feature","geometry":{"type":"LineString","coordinates":[[-118.34717500000001,33.9558315],[-118.34702,33.95571]]},"properties":{"id":"prairie_3800_42","name":"S Prairie Ave, 3800 block, seg 42","len_m":19.6,"approach":"prairie_ave_gate","degmin":{"15":0.254,"17":0.089,"19":0,"21":0},"degmin_lo":{"15":0.053,"17":0,"19":0,"21":0},"degmin_hi":{"15":0.48,"17":0.315,"19":0.134,"21":0},"wbgt":{"15":33,"17":32.4,"19":31.6,"21":29.9},"shade_frac":{"15":0.63,"17":0.69,"19":0.81,"21":1},"fans":6100,"svi":0.52,"canopy_pct":65.5,"treatable":["tree","awning"]}},{"type":"Feature","geometry":{"type":"LineString","coordinates":[[-118.34702,33.95571],[-118.34682285714285,33.955641904761904]]},"properties":{"id":"prairie_3800_43","name":"S Prairie Ave, 3800 block, seg 43","len_m":19.7,"approach":"prairie_ave_gate","degmin":{"15":0.312,"17":0.139,"19":0,"21":0},"degmin_lo":{"15":0.11,"17":0,"19":0,"21":0},"degmin_hi":{"15":0.539,"17":0.366,"19":0.17,"21":0},"wbgt":{"15":33.2,"17":32.6,"19":31.8,"21":29.8},"shade_frac":{"15":0.56,"17":0.62,"19":0.74,"21":1},"fans":6100,"svi":0.52,"canopy_pct":58.1,"treatable":["tree","awning"]}},{"type":"Feature","geometry":{"type":"LineString","coordinates":[[-118.34682285714285,33.955641904761904],[-118.34662571428571,33.95557380952381]]},"properties":{"id":"prairie_3800_44","name":"S Prairie Ave, 3800 block, seg 44","len_m":19.7,"approach":"prairie_ave_gate","degmin":{"15":0.511,"17":0.309,"19":0.055,"21":0},"degmin_lo":{"15":0.309,"17":0.107,"19":0,"21":0},"degmin_hi":{"15":0.738,"17":0.536,"19":0.282,"21":0},"wbgt":{"15":34,"17":33.2,"19":32.2,"21":29.6},"shade_frac":{"15":0.27,"17":0.34,"19":0.45,"21":1},"fans":6100,"svi":0.52,"canopy_pct":30.2,"treatable":["tree","awning"]}},{"type":"Feature","geometry":{"type":"LineString","coordinates":[[-118.34662571428571,33.95557380952381],[-118.34642857142858,33.955505714285714]]},"properties":{"id":"prairie_3800_45","name":"S Prairie Ave, 3800 block, seg 45","len_m":19.7,"approach":"prairie_ave_gate","degmin":{"15":0.417,"17":0.234,"19":0.019,"21":0},"degmin_lo":{"15":0.215,"17":0.032,"19":0,"21":0},"degmin_hi":{"15":0.644,"17":0.462,"19":0.246,"21":0},"wbgt":{"15":33.7,"17":32.9,"19":32.1,"21":29.9},"shade_frac":{"15":0.46,"17":0.53,"19":0.64,"21":1},"fans":6100,"svi":0.52,"canopy_pct":46.4,"treatable":["tree","awning"]}},{"type":"Feature","geometry":{"type":"LineString","coordinates":[[-118.34642857142858,33.955505714285714],[-118.34623142857143,33.95543761904762]]},"properties":{"id":"prairie_3800_46","name":"S Prairie Ave, 3800 block, seg 46","len_m":19.7,"approach":"prairie_ave_gate","degmin":{"15":0.546,"17":0.344,"19":0.09,"21":0},"degmin_lo":{"15":0.343,"17":0.142,"19":0,"21":0},"degmin_hi":{"15":0.773,"17":0.571,"19":0.318,"21":0},"wbgt":{"15":34.2,"17":33.4,"19":32.4,"21":29.7},"shade_frac":{"15":0.27,"17":0.34,"19":0.45,"21":1},"fans":6100,"svi":0.52,"canopy_pct":28.1,"treatable":["sail","tree","awning"]}},{"type":"Feature","geometry":{"type":"LineString","coordinates":[[-118.34623142857143,33.95543761904762],[-118.34603428571428,33.95536952380952]]},"properties":{"id":"prairie_3800_47","name":"S Prairie Ave, 3800 block, seg 47","len_m":19.7,"approach":"prairie_ave_gate","degmin":{"15":0.602,"17":0.393,"19":0.124,"21":0},"degmin_lo":{"15":0.4,"17":0.191,"19":0,"21":0},"degmin_hi":{"15":0.83,"17":0.62,"19":0.352,"21":0},"wbgt":{"15":34.4,"17":33.6,"19":32.5,"21":29.7},"shade_frac":{"15":0.2,"17":0.26,"19":0.38,"21":1},"fans":6100,"svi":0.52,"canopy_pct":20.5,"treatable":["sail","tree","awning"]}},{"type":"Feature","geometry":{"type":"LineString","coordinates":[[-118.34603428571428,33.95536952380952],[-118.34583714285714,33.95530142857143]]},"properties":{"id":"prairie_3800_48","name":"S Prairie Ave, 3800 block, seg 48","len_m":19.7,"approach":"prairie_ave_gate","degmin":{"15":0.634,"17":0.421,"19":0.142,"21":0},"degmin_lo":{"15":0.432,"17":0.218,"19":0,"21":0},"degmin_hi":{"15":0.862,"17":0.648,"19":0.369,"21":0},"wbgt":{"15":34.5,"17":33.7,"19":32.6,"21":29.7},"shade_frac":{"15":0.15,"17":0.22,"19":0.33,"21":1},"fans":6100,"svi":0.52,"canopy_pct":16,"treatable":["sail","tree","awning"]}},{"type":"Feature","geometry":{"type":"LineString","coordinates":[[-118.34583714285714,33.95530142857143],[-118.34564,33.95523333333333]]},"properties":{"id":"prairie_3800_49","name":"S Prairie Ave, 3800 block, seg 49","len_m":19.7,"approach":"prairie_ave_gate","degmin":{"15":0.665,"17":0.451,"19":0.173,"21":0},"degmin_lo":{"15":0.463,"17":0.249,"19":0,"21":0},"degmin_hi":{"15":0.892,"17":0.678,"19":0.4,"21":0},"wbgt":{"15":34.6,"17":33.8,"19":32.7,"21":29.8},"shade_frac":{"15":0.16,"17":0.22,"19":0.34,"21":1},"fans":6100,"svi":0.52,"canopy_pct":14.2,"treatable":["sail","tree","awning"]}},{"type":"Feature","geometry":{"type":"LineString","coordinates":[[-118.34564,33.95523333333333],[-118.34544285714286,33.95516523809524]]},"properties":{"id":"prairie_3800_50","name":"S Prairie Ave, 3800 block, seg 50","len_m":19.7,"approach":"prairie_ave_gate","degmin":{"15":0.663,"17":0.45,"19":0.173,"21":0},"degmin_lo":{"15":0.461,"17":0.248,"19":0,"21":0},"degmin_hi":{"15":0.89,"17":0.677,"19":0.401,"21":0},"wbgt":{"15":34.6,"17":33.8,"19":32.7,"21":29.8},"shade_frac":{"15":0.16,"17":0.23,"19":0.34,"21":1},"fans":6100,"svi":0.52,"canopy_pct":14.7,"treatable":["sail","tree","awning"]}},{"type":"Feature","geometry":{"type":"LineString","coordinates":[[-118.34544285714286,33.95516523809524],[-118.34524571428571,33.95509714285714]]},"properties":{"id":"prairie_3800_51","name":"S Prairie Ave, 3800 block, seg 51","len_m":19.7,"approach":"prairie_ave_gate","degmin":{"15":0.63,"17":0.417,"19":0.142,"21":0},"degmin_lo":{"15":0.428,"17":0.215,"19":0,"21":0},"degmin_hi":{"15":0.857,"17":0.645,"19":0.37,"21":0},"wbgt":{"15":34.5,"17":33.7,"19":32.6,"21":29.7},"shade_frac":{"15":0.17,"17":0.23,"19":0.35,"21":1},"fans":6100,"svi":0.52,"canopy_pct":17.1,"treatable":["sail","tree","awning"]}},{"type":"Feature","geometry":{"type":"LineString","coordinates":[[-118.34524571428571,33.95509714285714],[-118.34504857142856,33.95502904761905]]},"properties":{"id":"prairie_3800_52","name":"S Prairie Ave, 3800 block, seg 52","len_m":19.7,"approach":"prairie_ave_gate","degmin":{"15":0.583,"17":0.379,"19":0.119,"21":0},"degmin_lo":{"15":0.381,"17":0.176,"19":0,"21":0},"degmin_hi":{"15":0.81,"17":0.606,"19":0.346,"21":0},"wbgt":{"15":34.3,"17":33.5,"19":32.5,"21":29.8},"shade_frac":{"15":0.24,"17":0.31,"19":0.42,"21":1},"fans":6100,"svi":0.52,"canopy_pct":24.1,"treatable":["sail","tree","awning"]}},{"type":"Feature","geometry":{"type":"LineString","coordinates":[[-118.34504857142856,33.95502904761905],[-118.34485142857143,33.95496095238095]]},"properties":{"id":"prairie_3800_53","name":"S Prairie Ave, 3800 block, seg 53","len_m":19.7,"approach":"prairie_ave_gate","degmin":{"15":0.497,"17":0.304,"19":0.069,"21":0},"degmin_lo":{"15":0.295,"17":0.102,"19":0,"21":0},"degmin_hi":{"15":0.724,"17":0.532,"19":0.296,"21":0},"wbgt":{"15":34,"17":33.2,"19":32.3,"21":29.9},"shade_frac":{"15":0.36,"17":0.43,"19":0.54,"21":1},"fans":6100,"svi":0.52,"canopy_pct":36,"treatable":["tree","awning"]}},{"type":"Feature","geometry":{"type":"LineString","coordinates":[[-118.34485142857143,33.95496095238095],[-118.34465428571428,33.95489285714286]]},"properties":{"id":"prairie_3800_54","name":"S Prairie Ave, 3800 block, seg 54","len_m":19.7,"approach":"prairie_ave_gate","degmin":{"15":0.445,"17":0.256,"19":0.028,"21":0},"degmin_lo":{"15":0.243,"17":0.054,"19":0,"21":0},"degmin_hi":{"15":0.673,"17":0.484,"19":0.255,"21":0},"wbgt":{"15":33.8,"17":33,"19":32.1,"21":29.8},"shade_frac":{"15":0.4,"17":0.47,"19":0.58,"21":1},"fans":6100,"svi":0.52,"canopy_pct":41.2,"treatable":["tree","awning"]}},{"type":"Feature","geometry":{"type":"LineString","coordinates":[[-118.34465428571428,33.95489285714286],[-118.34445714285714,33.95482476190476]]},"properties":{"id":"prairie_3800_55","name":"S Prairie Ave, 3800 block, seg 55","len_m":19.7,"approach":"prairie_ave_gate","degmin":{"15":0.435,"17":0.244,"19":0.013,"21":0},"degmin_lo":{"15":0.232,"17":0.042,"19":0,"21":0},"degmin_hi":{"15":0.662,"17":0.472,"19":0.241,"21":0},"wbgt":{"15":33.7,"17":33,"19":32.1,"21":29.7},"shade_frac":{"15":0.39,"17":0.45,"19":0.57,"21":1},"fans":6100,"svi":0.52,"canopy_pct":41.2,"treatable":["tree","awning"]}},{"type":"Feature","geometry":{"type":"LineString","coordinates":[[-118.34445714285714,33.95482476190476],[-118.34425999999999,33.95475666666667]]},"properties":{"id":"prairie_3800_56","name":"S Prairie Ave, 3800 block, seg 56","len_m":19.7,"approach":"prairie_ave_gate","degmin":{"15":0.466,"17":0.27,"19":0.026,"21":0},"degmin_lo":{"15":0.264,"17":0.068,"19":0,"21":0},"degmin_hi":{"15":0.693,"17":0.497,"19":0.254,"21":0},"wbgt":{"15":33.8,"17":33.1,"19":32.1,"21":29.6},"shade_frac":{"15":0.33,"17":0.39,"19":0.51,"21":1},"fans":6100,"svi":0.52,"canopy_pct":36,"treatable":["tree","awning"]}},{"type":"Feature","geometry":{"type":"LineString","coordinates":[[-118.34425999999999,33.95475666666667],[-118.34406285714286,33.95468857142857]]},"properties":{"id":"prairie_3800_57","name":"S Prairie Ave, 3800 block, seg 57","len_m":19.7,"approach":"prairie_ave_gate","degmin":{"15":0.26,"17":0.093,"19":0,"21":0},"degmin_lo":{"15":0.058,"17":0,"19":0,"21":0},"degmin_hi":{"15":0.487,"17":0.321,"19":0.136,"21":0},"wbgt":{"15":33,"17":32.4,"19":31.6,"21":29.9},"shade_frac":{"15":0.62,"17":0.68,"19":0.8,"21":1},"fans":6100,"svi":0.52,"canopy_pct":64.7,"treatable":["tree","awning"]}},{"type":"Feature","geometry":{"type":"LineString","coordinates":[[-118.34406285714286,33.95468857142857],[-118.34386571428571,33.95462047619048]]},"properties":{"id":"prairie_3800_58","name":"S Prairie Ave, 3800 block, seg 58","len_m":19.7,"approach":"prairie_ave_gate","degmin":{"15":0.432,"17":0.24,"19":0.006,"21":0},"degmin_lo":{"15":0.23,"17":0.038,"19":0,"21":0},"degmin_hi":{"15":0.659,"17":0.467,"19":0.233,"21":0},"wbgt":{"15":33.7,"17":33,"19":32,"21":29.6},"shade_frac":{"15":0.37,"17":0.44,"19":0.55,"21":1},"fans":6100,"svi":0.52,"canopy_pct":40.5,"treatable":["tree","awning"]}},{"type":"Feature","geometry":{"type":"LineString","coordinates":[[-118.34386571428571,33.95462047619048],[-118.34366857142857,33.95455238095238]]},"properties":{"id":"prairie_3800_59","name":"S Prairie Ave, 3800 block, seg 59","len_m":19.7,"approach":"prairie_ave_gate","degmin":{"15":0.22,"17":0.06,"19":0,"21":0},"degmin_lo":{"15":0.018,"17":0,"19":0,"21":0},"degmin_hi":{"15":0.447,"17":0.287,"19":0.117,"21":0},"wbgt":{"15":32.9,"17":32.2,"19":31.6,"21":29.9},"shade_frac":{"15":0.69,"17":0.75,"19":0.87,"21":1},"fans":6100,"svi":0.52,"canopy_pct":70.9,"treatable":["tree","awning"]}},{"type":"Feature","geometry":{"type":"LineString","coordinates":[[-118.34366857142857,33.95455238095238],[-118.34347142857142,33.95448428571429]]},"properties":{"id":"prairie_3800_60","name":"S Prairie Ave, 3800 block, seg 60","len_m":19.7,"approach":"prairie_ave_gate","degmin":{"15":0.344,"17":0.168,"19":0,"21":0},"degmin_lo":{"15":0.142,"17":0,"19":0,"21":0},"degmin_hi":{"15":0.571,"17":0.395,"19":0.192,"21":0},"wbgt":{"15":33.4,"17":32.7,"19":31.9,"21":29.9},"shade_frac":{"15":0.53,"17":0.59,"19":0.71,"21":1},"fans":6100,"svi":0.52,"canopy_pct":54.4,"treatable":["tree","awning"]}},{"type":"Feature","geometry":{"type":"LineString","coordinates":[[-118.34347142857142,33.95448428571429],[-118.34327428571429,33.95441619047619]]},"properties":{"id":"prairie_3800_61","name":"S Prairie Ave, 3800 block, seg 61","len_m":19.7,"approach":"prairie_ave_gate","degmin":{"15":0.507,"17":0.307,"19":0.057,"21":0},"degmin_lo":{"15":0.305,"17":0.105,"19":0,"21":0},"degmin_hi":{"15":0.734,"17":0.535,"19":0.284,"21":0},"wbgt":{"15":34,"17":33.2,"19":32.2,"21":29.7},"shade_frac":{"15":0.29,"17":0.36,"19":0.47,"21":1},"fans":6100,"svi":0.52,"canopy_pct":31.5,"treatable":["tree","awning"]}},{"type":"Feature","geometry":{"type":"LineString","coordinates":[[-118.34327428571429,33.95441619047619],[-118.34307714285714,33.954348095238096]]},"properties":{"id":"prairie_3800_62","name":"S Prairie Ave, 3800 block, seg 62","len_m":19.7,"approach":"prairie_ave_gate","degmin":{"15":0.535,"17":0.334,"19":0.08,"21":0},"degmin_lo":{"15":0.333,"17":0.132,"19":0,"21":0},"degmin_hi":{"15":0.762,"17":0.561,"19":0.308,"21":0},"wbgt":{"15":34.1,"17":33.3,"19":32.3,"21":29.7},"shade_frac":{"15":0.28,"17":0.34,"19":0.46,"21":1},"fans":6100,"svi":0.52,"canopy_pct":28.9,"treatable":["sail","tree","awning"]}},{"type":"Feature","geometry":{"type":"LineString","coordinates":[[-118.34307714285714,33.954348095238096],[-118.34288,33.95428]]},"properties":{"id":"prairie_3800_63","name":"S Prairie Ave, 3800 block, seg 63","len_m":19.7,"approach":"prairie_ave_gate","degmin":{"15":0.582,"17":0.376,"19":0.115,"21":0},"degmin_lo":{"15":0.38,"17":0.174,"19":0,"21":0},"degmin_hi":{"15":0.809,"17":0.604,"19":0.342,"21":0},"wbgt":{"15":34.3,"17":33.5,"19":32.5,"21":29.8},"shade_frac":{"15":0.24,"17":0.3,"19":0.42,"21":1},"fans":6100,"svi":0.52,"canopy_pct":23.9,"treatable":["sail","tree","awning"]}},{"type":"Feature","geometry":{"type":"LineString","coordinates":[[-118.34288,33.95428],[-118.34266142857142,33.954253571428566]]},"properties":{"id":"prairie_3800_64","name":"S Prairie Ave, 3800 block, seg 64","len_m":20.4,"approach":"prairie_ave_gate","degmin":{"15":0.648,"17":0.427,"19":0.141,"21":0},"degmin_lo":{"15":0.439,"17":0.218,"19":0,"21":0},"degmin_hi":{"15":0.883,"17":0.663,"19":0.376,"21":0},"wbgt":{"15":34.5,"17":33.6,"19":32.5,"21":29.7},"shade_frac":{"15":0.16,"17":0.23,"19":0.34,"21":1},"fans":6100,"svi":0.52,"canopy_pct":17,"treatable":["sail","tree","awning"]}},{"type":"Feature","geometry":{"type":"LineString","coordinates":[[-118.34266142857142,33.954253571428566],[-118.34244285714286,33.95422714285714]]},"properties":{"id":"prairie_3800_65","name":"S Prairie Ave, 3800 block, seg 65","len_m":20.4,"approach":"prairie_ave_gate","degmin":{"15":0.671,"17":0.448,"19":0.158,"21":0},"degmin_lo":{"15":0.462,"17":0.239,"19":0,"21":0},"degmin_hi":{"15":0.906,"17":0.684,"19":0.393,"21":0},"wbgt":{"15":34.6,"17":33.7,"19":32.6,"21":29.7},"shade_frac":{"15":0.14,"17":0.21,"19":0.32,"21":1},"fans":6100,"svi":0.52,"canopy_pct":14.6,"treatable":["sail","tree","awning"]}},{"type":"Feature","geometry":{"type":"LineString","coordinates":[[-118.34244285714286,33.95422714285714],[-118.34222428571428,33.95420071428571]]},"properties":{"id":"prairie_3800_66","name":"S Prairie Ave, 3800 block, seg 66","len_m":20.4,"approach":"prairie_ave_gate","degmin":{"15":0.698,"17":0.478,"19":0.192,"21":0},"degmin_lo":{"15":0.489,"17":0.268,"19":0,"21":0},"degmin_hi":{"15":0.933,"17":0.713,"19":0.427,"21":0},"wbgt":{"15":34.7,"17":33.8,"19":32.7,"21":29.9},"shade_frac":{"15":0.16,"17":0.23,"19":0.34,"21":1},"fans":6100,"svi":0.52,"canopy_pct":14.2,"treatable":["sail","tree","awning"]}},{"type":"Feature","geometry":{"type":"LineString","coordinates":[[-118.34222428571428,33.95420071428571],[-118.3420057142857,33.95417428571428]]},"properties":{"id":"prairie_3800_67","name":"S Prairie Ave, 3800 block, seg 67","len_m":20.4,"approach":"prairie_ave_gate","degmin":{"15":0.662,"17":0.442,"19":0.156,"21":0},"degmin_lo":{"15":0.453,"17":0.233,"19":0,"21":0},"degmin_hi":{"15":0.898,"17":0.677,"19":0.391,"21":0},"wbgt":{"15":34.5,"17":33.7,"19":32.6,"21":29.7},"shade_frac":{"15":0.16,"17":0.23,"19":0.34,"21":1},"fans":6100,"svi":0.52,"canopy_pct":16.1,"treatable":["sail","tree","awning"]}},{"type":"Feature","geometry":{"type":"LineString","coordinates":[[-118.3420057142857,33.95417428571428],[-118.34178714285714,33.95414785714286]]},"properties":{"id":"prairie_3800_68","name":"S Prairie Ave, 3800 block, seg 68","len_m":20.4,"approach":"prairie_ave_gate","degmin":{"15":0.631,"17":0.411,"19":0.127,"21":0},"degmin_lo":{"15":0.422,"17":0.202,"19":0,"21":0},"degmin_hi":{"15":0.866,"17":0.647,"19":0.363,"21":0},"wbgt":{"15":34.4,"17":33.6,"19":32.5,"21":29.6},"shade_frac":{"15":0.17,"17":0.24,"19":0.35,"21":1},"fans":6100,"svi":0.52,"canopy_pct":18.6,"treatable":["sail","tree","awning"]}},{"type":"Feature","geometry":{"type":"LineString","coordinates":[[-118.34178714285714,33.95414785714286],[-118.34156857142857,33.954121428571426]]},"properties":{"id":"prairie_3800_69","name":"S Prairie Ave, 3800 block, seg 69","len_m":20.4,"approach":"prairie_ave_gate","degmin":{"15":0.546,"17":0.342,"19":0.091,"21":0},"degmin_lo":{"15":0.336,"17":0.133,"19":0,"21":0},"degmin_hi":{"15":0.781,"17":0.578,"19":0.326,"21":0},"wbgt":{"15":34.1,"17":33.3,"19":32.3,"21":29.9},"shade_frac":{"15":0.33,"17":0.39,"19":0.51,"21":1},"fans":6100,"svi":0.52,"canopy_pct":32.1,"treatable":["tree","awning"]}},{"type":"Feature","geometry":{"type":"LineString","coordinates":[[-118.34156857142857,33.954121428571426],[-118.34135,33.954094999999995]]},"properties":{"id":"prairie_3800_70","name":"S Prairie Ave, 3800 block, seg 70","len_m":20.4,"approach":"prairie_ave_gate","degmin":{"15":0.479,"17":0.282,"19":0.043,"21":0},"degmin_lo":{"15":0.27,"17":0.073,"19":0,"21":0},"degmin_hi":{"15":0.715,"17":0.518,"19":0.278,"21":0},"wbgt":{"15":33.8,"17":33.1,"19":32.2,"21":29.8},"shade_frac":{"15":0.38,"17":0.45,"19":0.56,"21":1},"fans":6100,"svi":0.52,"canopy_pct":39.3,"treatable":["tree","awning"]}},{"type":"Feature","geometry":{"type":"LineString","coordinates":[[-118.34135,33.954094999999995],[-118.34113142857143,33.95406857142857]]},"properties":{"id":"prairie_3800_71","name":"S Prairie Ave, 3800 block, seg 71","len_m":20.4,"approach":"prairie_ave_gate","degmin":{"15":0.419,"17":0.228,"19":0.001,"21":0},"degmin_lo":{"15":0.21,"17":0.019,"19":0,"21":0},"degmin_hi":{"15":0.654,"17":0.463,"19":0.236,"21":0},"wbgt":{"15":33.6,"17":32.9,"19":32,"21":29.8},"shade_frac":{"15":0.44,"17":0.51,"19":0.62,"21":1},"fans":6100,"svi":0.52,"canopy_pct":46.1,"treatable":["tree","awning"]}},{"type":"Feature","geometry":{"type":"LineString","coordinates":[[-118.34113142857143,33.95406857142857],[-118.34091285714285,33.95404214285714]]},"properties":{"id":"prairie_3800_72","name":"S Prairie Ave, 3800 block, seg 72","len_m":20.4,"approach":"prairie_ave_gate","degmin":{"15":0.267,"17":0.097,"19":0,"21":0},"degmin_lo":{"15":0.058,"17":0,"19":0,"21":0},"degmin_hi":{"15":0.503,"17":0.332,"19":0.146,"21":0},"wbgt":{"15":33,"17":32.4,"19":31.7,"21":29.9},"shade_frac":{"15":0.64,"17":0.71,"19":0.82,"21":1},"fans":6100,"svi":0.52,"canopy_pct":66,"treatable":["tree","awning"]}},{"type":"Feature","geometry":{"type":"LineString","coordinates":[[-118.34091285714285,33.95404214285714],[-118.34069428571429,33.95401571428572]]},"properties":{"id":"prairie_3800_73","name":"S Prairie Ave, 3800 block, seg 73","len_m":20.4,"approach":"prairie_ave_gate","degmin":{"15":0.38,"17":0.192,"19":0,"21":0},"degmin_lo":{"15":0.171,"17":0,"19":0,"21":0},"degmin_hi":{"15":0.616,"17":0.427,"19":0.204,"21":0},"wbgt":{"15":33.5,"17":32.7,"19":31.9,"21":29.7},"shade_frac":{"15":0.47,"17":0.53,"19":0.65,"21":1},"fans":6100,"svi":0.52,"canopy_pct":49.6,"treatable":["tree","awning"]}},{"type":"Feature","geometry":{"type":"LineString","coordinates":[[-118.34069428571429,33.95401571428572],[-118.34047571428572,33.953989285714286]]},"properties":{"id":"prairie_3800_74","name":"S Prairie Ave, 3800 block, seg 74","len_m":20.4,"approach":"prairie_ave_gate","degmin":{"15":0.471,"17":0.268,"19":0.019,"21":0},"degmin_lo":{"15":0.261,"17":0.059,"19":0,"21":0},"degmin_hi":{"15":0.706,"17":0.504,"19":0.254,"21":0},"wbgt":{"15":33.8,"17":33,"19":32.1,"21":29.6},"shade_frac":{"15":0.34,"17":0.4,"19":0.52,"21":1},"fans":6100,"svi":0.52,"canopy_pct":37.2,"treatable":["tree","awning"]}},{"type":"Feature","geometry":{"type":"LineString","coordinates":[[-118.34047571428572,33.953989285714286],[-118.34025714285714,33.953962857142855]]},"properties":{"id":"prairie_3800_75","name":"S Prairie Ave, 3800 block, seg 75","len_m":20.4,"approach":"prairie_ave_gate","degmin":{"15":0.221,"17":0.056,"19":0,"21":0},"degmin_lo":{"15":0.011,"17":0,"19":0,"21":0},"degmin_hi":{"15":0.456,"17":0.291,"19":0.116,"21":0},"wbgt":{"15":32.8,"17":32.2,"19":31.5,"21":29.9},"shade_frac":{"15":0.69,"17":0.76,"19":0.87,"21":1},"fans":6100,"svi":0.52,"canopy_pct":71.6,"treatable":["tree","awning"]}},{"type":"Feature","geometry":{"type":"LineString","coordinates":[[-118.34025714285714,33.953962857142855],[-118.34003857142858,33.95393642857143]]},"properties":{"id":"prairie_3800_76","name":"S Prairie Ave, 3800 block, seg 76","len_m":20.4,"approach":"prairie_ave_gate","degmin":{"15":0.344,"17":0.162,"19":0,"21":0},"degmin_lo":{"15":0.134,"17":0,"19":0,"21":0},"degmin_hi":{"15":0.579,"17":0.397,"19":0.189,"21":0},"wbgt":{"15":33.3,"17":32.6,"19":31.8,"21":29.8},"shade_frac":{"15":0.54,"17":0.6,"19":0.72,"21":1},"fans":6100,"svi":0.52,"canopy_pct":55.6,"treatable":["tree","awning"]}},{"type":"Feature","geometry":{"type":"LineString","coordinates":[[-118.34003857142858,33.95393642857143],[-118.33982,33.95391]]},"properties":{"id":"prairie_3800_77","name":"S Prairie Ave, 3800 block, seg 77","len_m":20.4,"approach":"prairie_ave_gate","degmin":{"15":0.449,"17":0.254,"19":0.018,"21":0},"degmin_lo":{"15":0.24,"17":0.045,"19":0,"21":0},"degmin_hi":{"15":0.684,"17":0.489,"19":0.254,"21":0},"wbgt":{"15":33.7,"17":33,"19":32.1,"21":29.8},"shade_frac":{"15":0.4,"17":0.47,"19":0.58,"21":1},"fans":6100,"svi":0.52,"canopy_pct":42.1,"treatable":["tree","awning"]}}]}