{"type":"FeatureCollection","features":[{"type":"Feature","geometry":{"type":"LineString","coordinates":[[-95.40737,29.68337],[-95.40757444444445,29.683402222222224]]},"properties":{"id":"murworth_8300_01","name":"Murworth Dr, 8300 block, seg 01","len_m":20.1,"approach":"metrorail_stadium_park","degmin":{"15":0.636,"17":0.421,"19":0.145,"21":0},"degmin_lo":{"15":0.43,"17":0.215,"19":0,"21":0},"degmin_hi":{"15":0.868,"17":0.653,"19":0.377,"21":0},"wbgt":{"15":34.5,"17":33.6,"19":32.6,"21":29.7},"shade_frac":{"15":0.19,"17":0.25,"19":0.37,"21":1},"fans":11200,"svi":0.78,"canopy_pct":18.6,"treatable":["sail","tree","awning"]}},{"type":"Feature","geometry":{"type":"LineString","coordinates":[[-95.40757444444445,29.683402222222224],[-95.40777888888888,29.683434444444444]]},"properties":{"id":"murworth_8300_02","name":"Murworth Dr, 8300 block, seg 02","len_m":20.1,"approach":"metrorail_stadium_park","degmin":{"15":0.539,"17":0.338,"19":0.087,"21":0},"degmin_lo":{"15":0.333,"17":0.131,"19":0,"21":0},"degmin_hi":{"15":0.771,"17":0.569,"19":0.318,"21":0},"wbgt":{"15":34.1,"17":33.3,"19":32.3,"21":29.8},"shade_frac":{"15":0.31,"17":0.38,"19":0.49,"21":1},"fans":11200,"svi":0.78,"canopy_pct":31.3,"treatable":["tree","awning"]}},{"type":"Feature","geometry":{"type":"LineString","coordinates":[[-95.40777888888888,29.683434444444444],[-95.40798333333333,29.683466666666668]]},"properties":{"id":"murworth_8300_03","name":"Murworth Dr, 8300 block, seg 03","len_m":20.1,"approach":"metrorail_stadium_park","degmin":{"15":0.517,"17":0.316,"19":0.066,"21":0},"degmin_lo":{"15":0.311,"17":0.11,"19":0,"21":0},"degmin_hi":{"15":0.749,"17":0.548,"19":0.298,"21":0},"wbgt":{"15":34,"17":33.2,"19":32.3,"21":29.8},"shade_frac":{"15":0.32,"17":0.38,"19":0.5,"21":1},"fans":11200,"svi":0.78,"canopy_pct":32.9,"treatable":["tree","awning"]}},{"type":"Feature","geometry":{"type":"LineString","coordinates":[[-95.40798333333333,29.683466666666668],[-95.40818777777778,29.683498888888888]]},"properties":{"id":"murworth_8300_04","name":"Murworth Dr, 8300 block, seg 04","len_m":20.1,"approach":"metrorail_stadium_park","degmin":{"15":0.372,"17":0.191,"19":0,"21":0},"degmin_lo":{"15":0.166,"17":0,"19":0,"21":0},"degmin_hi":{"15":0.604,"17":0.423,"19":0.213,"21":0},"wbgt":{"15":33.4,"17":32.7,"19":31.9,"21":29.9},"shade_frac":{"15":0.51,"17":0.58,"19":0.69,"21":1},"fans":11200,"svi":0.78,"canopy_pct":52.3,"treatable":["tree","awning"]}},{"type":"Feature","geometry":{"type":"LineString","coordinates":[[-95.40818777777778,29.683498888888888],[-95.40839222222222,29.68353111111111]]},"properties":{"id":"murworth_8300_05","name":"Murworth Dr, 8300 block, seg 05","len_m":20.1,"approach":"metrorail_stadium_park","degmin":{"15":0.306,"17":0.133,"19":0,"21":0},"degmin_lo":{"15":0.1,"17":0,"19":0,"21":0},"degmin_hi":{"15":0.538,"17":0.365,"19":0.173,"21":0},"wbgt":{"15":33.2,"17":32.5,"19":31.8,"21":29.9},"shade_frac":{"15":0.6,"17":0.66,"19":0.78,"21":1},"fans":11200,"svi":0.78,"canopy_pct":61,"treatable":["tree","awning"]}},{"type":"Feature","geometry":{"type":"LineString","coordinates":[[-95.40839222222222,29.68353111111111],[-95.40859666666667,29.683563333333332]]},"properties":{"id":"murworth_8300_06","name":"Murworth Dr, 8300 block, seg 06","len_m":20.1,"approach":"metrorail_stadium_park","degmin":{"15":0.336,"17":0.159,"19":0,"21":0},"degmin_lo":{"15":0.13,"17":0,"19":0,"21":0},"degmin_hi":{"15":0.568,"17":0.391,"19":0.19,"21":0},"wbgt":{"15":33.3,"17":32.6,"19":31.8,"21":29.9},"shade_frac":{"15":0.56,"17":0.62,"19":0.74,"21":1},"fans":11200,"svi":0.78,"canopy_pct":56.9,"treatable":["tree","awning"]}},{"type":"Feature","geometry":{"type":"LineString","coordinates":[[-95.40859666666667,29.683563333333332],[-95.40880111111112,29.683595555555556]]},"properties":{"id":"murworth_8300_07","name":"Murworth Dr, 8300 block, seg 07","len_m":20.1,"approach":"metrorail_stadium_park","degmin":{"15":0.441,"17":0.25,"19":0.021,"21":0},"degmin_lo":{"15":0.235,"17":0.044,"19":0,"21":0},"degmin_hi":{"15":0.672,"17":0.482,"19":0.253,"21":0},"wbgt":{"15":33.7,"17":33,"19":32.1,"21":29.8},"shade_frac":{"15":0.42,"17":0.48,"19":0.6,"21":1},"fans":11200,"svi":0.78,"canopy_pct":43.1,"treatable":["tree","awning"]}},{"type":"Feature","geometry":{"type":"LineString","coordinates":[[-95.40880111111112,29.683595555555556],[-95.40900555555555,29.683627777777776]]},"properties":{"id":"murworth_8300_08","name":"Murworth Dr, 8300 block, seg 08","len_m":20.1,"approach":"metrorail_stadium_park","degmin":{"15":0.469,"17":0.277,"19":0.044,"21":0},"degmin_lo":{"15":0.263,"17":0.071,"19":0,"21":0},"degmin_hi":{"15":0.701,"17":0.509,"19":0.276,"21":0},"wbgt":{"15":33.8,"17":33.1,"19":32.2,"21":29.9},"shade_frac":{"15":0.4,"17":0.47,"19":0.58,"21":1},"fans":11200,"svi":0.78,"canopy_pct":40.3,"treatable":["tree","awning"]}},{"type":"Feature","geometry":{"type":"LineString","coordinates":[[-95.40900555555555,29.683627777777776],[-95.40921,29.68366]]},"properties":{"id":"murworth_8300_09","name":"Murworth Dr, 8300 block, seg 09","len_m":20.1,"approach":"metrorail_stadium_park","degmin":{"15":0.593,"17":0.383,"19":0.117,"21":0},"degmin_lo":{"15":0.387,"17":0.177,"19":0,"21":0},"degmin_hi":{"15":0.824,"17":0.615,"19":0.349,"21":0},"wbgt":{"15":34.3,"17":33.5,"19":32.5,"21":29.8},"shade_frac":{"15":0.24,"17":0.3,"19":0.42,"21":1},"fans":11200,"svi":0.78,"canopy_pct":23.9,"treatable":["sail","tree","awning"]}},{"type":"Feature","geometry":{"type":"LineString","coordinates":[[-95.40921,29.68366],[-95.40941166666667,29.683715]]},"properties":{"id":"murworth_8300_10","name":"Murworth Dr, 8300 block, seg 10","len_m":20.4,"approach":"metrorail_stadium_park","degmin":{"15":0.621,"17":0.411,"19":0.147,"21":0},"degmin_lo":{"15":0.411,"17":0.202,"19":0,"21":0},"degmin_hi":{"15":0.857,"17":0.647,"19":0.383,"21":0},"wbgt":{"15":34.4,"17":33.6,"19":32.6,"21":29.9},"shade_frac":{"15":0.27,"17":0.34,"19":0.45,"21":1},"fans":11200,"svi":0.78,"canopy_pct":24.6,"treatable":["sail","tree","awning"]}},{"type":"Feature","geometry":{"type":"LineString","coordinates":[[-95.40941166666667,29.683715],[-95.40961333333334,29.68377]]},"properties":{"id":"murworth_8300_11","name":"Murworth Dr, 8300 block, seg 11","len_m":20.4,"approach":"metrorail_stadium_park","degmin":{"15":0.717,"17":0.495,"19":0.205,"21":0},"degmin_lo":{"15":0.507,"17":0.285,"19":0,"21":0},"degmin_hi":{"15":0.952,"17":0.73,"19":0.441,"21":0},"wbgt":{"15":34.7,"17":33.9,"19":32.8,"21":29.9},"shade_frac":{"15":0.15,"17":0.22,"19":0.33,"21":1},"fans":11200,"svi":0.78,"canopy_pct":12.3,"treatable":["sail","tree","awning"]}},{"type":"Feature","geometry":{"type":"LineString","coordinates":[[-95.40961333333334,29.68377],[-95.40981500000001,29.683825]]},"properties":{"id":"murworth_8300_12","name":"Murworth Dr, 8300 block, seg 12","len_m":20.4,"approach":"metrorail_stadium_park","degmin":{"15":0.766,"17":0.532,"19":0.219,"21":0},"degmin_lo":{"15":0.556,"17":0.322,"19":0.01,"21":0},"degmin_hi":{"15":1.001,"17":0.768,"19":0.455,"21":0},"wbgt":{"15":34.9,"17":34,"19":32.8,"21":29.7},"shade_frac":{"15":0.04,"17":0.1,"19":0.22,"21":1},"fans":11200,"svi":0.78,"canopy_pct":3.3,"treatable":["sail","tree","awning"]}},{"type":"Feature","geometry":{"type":"LineString","coordinates":[[-95.40981500000001,29.683825],[-95.41001666666666,29.683880000000002]]},"properties":{"id":"murworth_8300_13","name":"Murworth Dr, 8300 block, seg 13","len_m":20.4,"approach":"metrorail_stadium_park","degmin":{"15":0.805,"17":0.572,"19":0.262,"21":0},"degmin_lo":{"15":0.595,"17":0.363,"19":0.052,"21":0},"degmin_hi":{"15":1.041,"17":0.808,"19":0.497,"21":0},"wbgt":{"15":35.1,"17":34.2,"19":33,"21":29.8},"shade_frac":{"15":0.05,"17":0.11,"19":0.23,"21":1},"fans":11200,"svi":0.78,"canopy_pct":1.4,"treatable":["sail","tree","awning"]}},{"type":"Feature","geometry":{"type":"LineString","coordinates":[[-95.41001666666666,29.683880000000002],[-95.41021833333333,29.683935]]},"properties":{"id":"murworth_8300_14","name":"Murworth Dr, 8300 block, seg 14","len_m":20.4,"approach":"metrorail_stadium_park","degmin":{"15":0.784,"17":0.549,"19":0.233,"21":0},"degmin_lo":{"15":0.575,"17":0.339,"19":0.023,"21":0},"degmin_hi":{"15":1.02,"17":0.784,"19":0.469,"21":0},"wbgt":{"15":35,"17":34.1,"19":32.9,"21":29.7},"shade_frac":{"15":0.02,"17":0.09,"19":0.2,"21":1},"fans":11200,"svi":0.78,"canopy_pct":1.3,"treatable":["sail","tree","awning"]}},{"type":"Feature","geometry":{"type":"LineString","coordinates":[[-95.41021833333333,29.683935],[-95.41042,29.68399]]},"properties":{"id":"murworth_8300_15","name":"Murworth Dr, 8300 block, seg 15","len_m":20.4,"approach":"metrorail_stadium_park","degmin":{"15":0.766,"17":0.534,"19":0.223,"21":0},"degmin_lo":{"15":0.557,"17":0.324,"19":0.014,"21":0},"degmin_hi":{"15":1.002,"17":0.769,"19":0.459,"21":0},"wbgt":{"15":34.9,"17":34,"19":32.9,"21":29.7},"shade_frac":{"15":0.05,"17":0.11,"19":0.23,"21":1},"fans":11200,"svi":0.78,"canopy_pct":3.7,"treatable":["sail","tree","awning"]}},{"type":"Feature","geometry":{"type":"LineString","coordinates":[[-95.41042,29.68399],[-95.410572,29.684096]]},"properties":{"id":"murworth_8300_16","name":"Murworth Dr, 8300 block, seg 16","len_m":18.8,"approach":"metrorail_stadium_park","degmin":{"15":0.671,"17":0.46,"19":0.182,"21":0},"degmin_lo":{"15":0.478,"17":0.267,"19":0,"21":0},"degmin_hi":{"15":0.887,"17":0.677,"19":0.399,"21":0},"wbgt":{"15":34.8,"17":33.9,"19":32.8,"21":29.7},"shade_frac":{"15":0.09,"17":0.15,"19":0.27,"21":1},"fans":11200,"svi":0.78,"canopy_pct":8.2,"treatable":["sail","tree","awning"]}},{"type":"Feature","geometry":{"type":"LineString","coordinates":[[-95.410572,29.684096],[-95.410724,29.684202]]},"properties":{"id":"murworth_8300_17","name":"Murworth Dr, 8300 block, seg 17","len_m":18.8,"approach":"metrorail_stadium_park","degmin":{"15":0.593,"17":0.395,"19":0.142,"21":0},"degmin_lo":{"15":0.4,"17":0.202,"19":0,"21":0},"degmin_hi":{"15":0.81,"17":0.612,"19":0.358,"21":0},"wbgt":{"15":34.5,"17":33.6,"19":32.6,"21":29.8},"shade_frac":{"15":0.22,"17":0.28,"19":0.4,"21":1},"fans":11200,"svi":0.78,"canopy_pct":20.2,"treatable":["sail","tree","awning"]}},{"type":"Feature","geometry":{"type":"LineString","coordinates":[[-95.410724,29.684202],[-95.410876,29.684308]]},"properties":{"id":"murworth_8300_18","name":"Murworth Dr, 8300 block, seg 18","len_m":18.8,"approach":"metrorail_stadium_park","degmin":{"15":0.496,"17":0.31,"19":0.081,"21":0},"degmin_lo":{"15":0.303,"17":0.117,"19":0,"21":0},"degmin_hi":{"15":0.713,"17":0.527,"19":0.298,"21":0},"wbgt":{"15":34.1,"17":33.3,"19":32.3,"21":29.9},"shade_frac":{"15":0.34,"17":0.41,"19":0.52,"21":1},"fans":11200,"svi":0.78,"canopy_pct":33.5,"treatable":["tree","awning"]}},{"type":"Feature","geometry":{"type":"LineString","coordinates":[[-95.410876,29.684308],[-95.411028,29.684414]]},"properties":{"id":"murworth_8300_19","name":"Murworth Dr, 8300 block, seg 19","len_m":18.8,"approach":"metrorail_stadium_park","degmin":{"15":0.417,"17":0.24,"19":0.029,"21":0},"degmin_lo":{"15":0.225,"17":0.048,"19":0,"21":0},"degmin_hi":{"15":0.634,"17":0.457,"19":0.246,"21":0},"wbgt":{"15":33.7,"17":33,"19":32.1,"21":29.9},"shade_frac":{"15":0.43,"17":0.5,"19":0.61,"21":1},"fans":11200,"svi":0.78,"canopy_pct":43.6,"treatable":["tree","awning"]}},{"type":"Feature","geometry":{"type":"LineString","coordinates":[[-95.411028,29.684414],[-95.41118,29.68452]]},"properties":{"id":"murworth_8300_20","name":"Murworth Dr, 8300 block, seg 20","len_m":18.8,"approach":"metrorail_stadium_park","degmin":{"15":0.449,"17":0.265,"19":0.039,"21":0},"degmin_lo":{"15":0.256,"17":0.072,"19":0,"21":0},"degmin_hi":{"15":0.666,"17":0.482,"19":0.256,"21":0},"wbgt":{"15":33.9,"17":33.1,"19":32.2,"21":29.8},"shade_frac":{"15":0.36,"17":0.43,"19":0.54,"21":1},"fans":11200,"svi":0.78,"canopy_pct":37.6,"treatable":["tree","awning"]}},{"type":"Feature","geometry":{"type":"LineString","coordinates":[[-95.40737,29.68337],[-95.40733333333333,29.683197777777778]]},"properties":{"id":"kirby_8500_01","name":"Kirby Dr, 8500 block, seg 01","len_m":19.4,"approach":"kirby_north_lot","degmin":{"15":0.781,"17":0.56,"19":0.265,"21":0},"degmin_lo":{"15":0.583,"17":0.361,"19":0.066,"21":0},"degmin_hi":{"15":1.005,"17":0.784,"19":0.488,"21":0},"wbgt":{"15":35.1,"17":34.3,"19":33.1,"21":29.9},"shade_frac":{"15":0.04,"17":0.11,"19":0.22,"21":1},"fans":7400,"svi":0.61,"canopy_pct":0,"treatable":["sail","tree","awning"]}},{"type":"Feature","geometry":{"type":"LineString","coordinates":[[-95.40733333333333,29.683197777777778],[-95.40729666666667,29.683025555555556]]},"properties":{"id":"kirby_8500_02","name":"Kirby Dr, 8500 block, seg 02","len_m":19.4,"approach":"kirby_north_lot","degmin":{"15":0.739,"17":0.518,"19":0.222,"21":0},"degmin_lo":{"15":0.541,"17":0.319,"19":0.024,"21":0},"degmin_hi":{"15":0.963,"17":0.741,"19":0.446,"21":0},"wbgt":{"15":35,"17":34.1,"19":32.9,"21":29.7},"shade_frac":{"15":0.04,"17":0.11,"19":0.22,"21":1},"fans":7400,"svi":0.61,"canopy_pct":2.6,"treatable":["sail","tree","awning"]}},{"type":"Feature","geometry":{"type":"LineString","coordinates":[[-95.40729666666667,29.683025555555556],[-95.40726,29.682853333333334]]},"properties":{"id":"kirby_8500_03","name":"Kirby Dr, 8500 block, seg 03","len_m":19.4,"approach":"kirby_north_lot","degmin":{"15":0.671,"17":0.461,"19":0.187,"21":0},"degmin_lo":{"15":0.472,"17":0.262,"19":0,"21":0},"degmin_hi":{"15":0.894,"17":0.684,"19":0.411,"21":0},"wbgt":{"15":34.7,"17":33.9,"19":32.8,"21":29.9},"shade_frac":{"15":0.15,"17":0.22,"19":0.33,"21":1},"fans":7400,"svi":0.61,"canopy_pct":13,"treatable":["sail","tree","awning"]}},{"type":"Feature","geometry":{"type":"LineString","coordinates":[[-95.40726,29.682853333333334],[-95.40722333333333,29.682681111111112]]},"properties":{"id":"kirby_8500_04","name":"Kirby Dr, 8500 block, seg 04","len_m":19.4,"approach":"kirby_north_lot","degmin":{"15":0.658,"17":0.444,"19":0.163,"21":0},"degmin_lo":{"15":0.459,"17":0.245,"19":0,"21":0},"degmin_hi":{"15":0.881,"17":0.668,"19":0.387,"21":0},"wbgt":{"15":34.7,"17":33.8,"19":32.7,"21":29.7},"shade_frac":{"15":0.12,"17":0.18,"19":0.3,"21":1},"fans":7400,"svi":0.61,"canopy_pct":11.8,"treatable":["sail","tree","awning"]}},{"type":"Feature","geometry":{"type":"LineString","coordinates":[[-95.40722333333333,29.682681111111112],[-95.40718666666666,29.682508888888886]]},"properties":{"id":"kirby_8500_05","name":"Kirby Dr, 8500 block, seg 05","len_m":19.4,"approach":"kirby_north_lot","degmin":{"15":0.547,"17":0.349,"19":0.1,"21":0},"degmin_lo":{"15":0.348,"17":0.15,"19":0,"21":0},"degmin_hi":{"15":0.77,"17":0.572,"19":0.323,"21":0},"wbgt":{"15":34.2,"17":33.4,"19":32.4,"21":29.8},"shade_frac":{"15":0.28,"17":0.34,"19":0.46,"21":1},"fans":7400,"svi":0.61,"canopy_pct":27.5,"treatable":["sail","tree","awning"]}},{"type":"Feature","geometry":{"type":"LineString","coordinates":[[-95.40718666666666,29.682508888888886],[-95.40715,29.682336666666664]]},"properties":{"id":"kirby_8500_06","name":"Kirby Dr, 8500 block, seg 06","len_m":19.4,"approach":"kirby_north_lot","degmin":{"15":0.424,"17":0.243,"19":0.026,"21":0},"degmin_lo":{"15":0.226,"17":0.044,"19":0,"21":0},"degmin_hi":{"15":0.648,"17":0.466,"19":0.25,"21":0},"wbgt":{"15":33.7,"17":33,"19":32.1,"21":29.9},"shade_frac":{"15":0.44,"17":0.51,"19":0.62,"21":1},"fans":7400,"svi":0.61,"canopy_pct":44.3,"treatable":["tree","awning"]}},{"type":"Feature","geometry":{"type":"LineString","coordinates":[[-95.40715,29.682336666666664],[-95.40711333333333,29.682164444444442]]},"properties":{"id":"kirby_8500_07","name":"Kirby Dr, 8500 block, seg 07","len_m":19.4,"approach":"kirby_north_lot","degmin":{"15":0.384,"17":0.206,"19":0,"21":0},"degmin_lo":{"15":0.185,"17":0.007,"19":0,"21":0},"degmin_hi":{"15":0.607,"17":0.43,"19":0.222,"21":0},"wbgt":{"15":33.5,"17":32.8,"19":32,"21":29.9},"shade_frac":{"15":0.48,"17":0.55,"19":0.66,"21":1},"fans":7400,"svi":0.61,"canopy_pct":49.2,"treatable":["tree","awning"]}},{"type":"Feature","geometry":{"type":"LineString","coordinates":[[-95.40711333333333,29.682164444444442],[-95.40707666666667,29.68199222222222]]},"properties":{"id":"kirby_8500_08","name":"Kirby Dr, 8500 block, seg 08","len_m":19.4,"approach":"kirby_north_lot","degmin":{"15":0.57,"17":0.365,"19":0.102,"21":0},"degmin_lo":{"15":0.372,"17":0.166,"19":0,"21":0},"degmin_hi":{"15":0.794,"17":0.588,"19":0.325,"21":0},"wbgt":{"15":34.3,"17":33.5,"19":32.4,"21":29.6},"shade_frac":{"15":0.2,"17":0.27,"19":0.38,"21":1},"fans":7400,"svi":0.61,"canopy_pct":22.2,"treatable":["sail","tree","awning"]}},{"type":"Feature","geometry":{"type":"LineString","coordinates":[[-95.40707666666667,29.68199222222222],[-95.40704,29.68182]]},"properties":{"id":"kirby_8500_09","name":"Kirby Dr, 8500 block, seg 09","len_m":19.4,"approach":"kirby_north_lot","degmin":{"15":0.355,"17":0.182,"19":0,"21":0},"degmin_lo":{"15":0.156,"17":0,"19":0,"21":0},"degmin_hi":{"15":0.579,"17":0.405,"19":0.205,"21":0},"wbgt":{"15":33.4,"17":32.7,"19":31.9,"21":29.9},"shade_frac":{"15":0.52,"17":0.59,"19":0.7,"21":1},"fans":7400,"svi":0.61,"canopy_pct":53.2,"treatable":["tree","awning"]}},{"type":"Feature","geometry":{"type":"LineString","coordinates":[[-95.40704,29.68182],[-95.40722799999999,29.681756]]},"properties":{"id":"kirby_8500_10","name":"Kirby Dr, 8500 block, seg 10","len_m":19.5,"approach":"kirby_north_lot","degmin":{"15":0.403,"17":0.224,"19":0.012,"21":0},"degmin_lo":{"15":0.203,"17":0.023,"19":0,"21":0},"degmin_hi":{"15":0.628,"17":0.449,"19":0.237,"21":0},"wbgt":{"15":33.6,"17":32.9,"19":32,"21":29.9},"shade_frac":{"15":0.47,"17":0.54,"19":0.65,"21":1},"fans":7400,"svi":0.61,"canopy_pct":47.6,"treatable":["tree","awning"]}},{"type":"Feature","geometry":{"type":"LineString","coordinates":[[-95.40722799999999,29.681756],[-95.407416,29.681691999999998]]},"properties":{"id":"kirby_8500_11","name":"Kirby Dr, 8500 block, seg 11","len_m":19.5,"approach":"kirby_north_lot","degmin":{"15":0.552,"17":0.352,"19":0.1,"21":0},"degmin_lo":{"15":0.352,"17":0.152,"19":0,"21":0},"degmin_hi":{"15":0.777,"17":0.577,"19":0.325,"21":0},"wbgt":{"15":34.2,"17":33.4,"19":32.4,"21":29.8},"shade_frac":{"15":0.27,"17":0.33,"19":0.45,"21":1},"fans":7400,"svi":0.61,"canopy_pct":27.2,"treatable":["sail","tree","awning"]}},{"type":"Feature","geometry":{"type":"LineString","coordinates":[[-95.407416,29.681691999999998],[-95.40760399999999,29.681628]]},"properties":{"id":"kirby_8500_12","name":"Kirby Dr, 8500 block, seg 12","len_m":19.5,"approach":"kirby_north_lot","degmin":{"15":0.588,"17":0.386,"19":0.13,"21":0},"degmin_lo":{"15":0.388,"17":0.186,"19":0,"21":0},"degmin_hi":{"15":0.813,"17":0.611,"19":0.355,"21":0},"wbgt":{"15":34.4,"17":33.5,"19":32.5,"21":29.9},"shade_frac":{"15":0.25,"17":0.32,"19":0.43,"21":1},"fans":7400,"svi":0.61,"canopy_pct":23.8,"treatable":["sail","tree","awning"]}},{"type":"Feature","geometry":{"type":"LineString","coordinates":[[-95.40760399999999,29.681628],[-95.407792,29.681563999999998]]},"properties":{"id":"kirby_8500_13","name":"Kirby Dr, 8500 block, seg 13","len_m":19.5,"approach":"kirby_north_lot","degmin":{"15":0.656,"17":0.448,"19":0.179,"21":0},"degmin_lo":{"15":0.456,"17":0.248,"19":0,"21":0},"degmin_hi":{"15":0.881,"17":0.673,"19":0.404,"21":0},"wbgt":{"15":34.6,"17":33.8,"19":32.7,"21":29.9},"shade_frac":{"15":0.19,"17":0.25,"19":0.37,"21":1},"fans":7400,"svi":0.61,"canopy_pct":16.1,"treatable":["sail","tree","awning"]}},{"type":"Feature","geometry":{"type":"LineString","coordinates":[[-95.407792,29.681563999999998],[-95.40798,29.6815]]},"properties":{"id":"kirby_8500_14","name":"Kirby Dr, 8500 block, seg 14","len_m":19.5,"approach":"kirby_north_lot","degmin":{"15":0.742,"17":0.517,"19":0.216,"21":0},"degmin_lo":{"15":0.541,"17":0.317,"19":0.016,"21":0},"degmin_hi":{"15":0.967,"17":0.742,"19":0.441,"21":0},"wbgt":{"15":35,"17":34.1,"19":32.9,"21":29.7},"shade_frac":{"15":0.03,"17":0.09,"19":0.21,"21":1},"fans":7400,"svi":0.61,"canopy_pct":2,"treatable":["sail","tree","awning"]}},{"type":"Feature","geometry":{"type":"LineString","coordinates":[[-95.40798,29.6815],[-95.40816799999999,29.681436]]},"properties":{"id":"kirby_8500_15","name":"Kirby Dr, 8500 block, seg 15","len_m":19.5,"approach":"kirby_north_lot","degmin":{"15":0.776,"17":0.552,"19":0.252,"21":0},"degmin_lo":{"15":0.576,"17":0.352,"19":0.052,"21":0},"degmin_hi":{"15":1.001,"17":0.777,"19":0.477,"21":0},"wbgt":{"15":35.1,"17":34.2,"19":33,"21":29.8},"shade_frac":{"15":0.03,"17":0.1,"19":0.21,"21":1},"fans":7400,"svi":0.61,"canopy_pct":0,"treatable":["sail","tree","awning"]}},{"type":"Feature","geometry":{"type":"LineString","coordinates":[[-95.40816799999999,29.681436],[-95.408356,29.681372]]},"properties":{"id":"kirby_8500_16","name":"Kirby Dr, 8500 block, seg 16","len_m":19.5,"approach":"kirby_north_lot","degmin":{"15":0.763,"17":0.538,"19":0.235,"21":0},"degmin_lo":{"15":0.563,"17":0.338,"19":0.035,"21":0},"degmin_hi":{"15":0.989,"17":0.763,"19":0.46,"21":0},"wbgt":{"15":35.1,"17":34.2,"19":32.9,"21":29.7},"shade_frac":{"15":0.02,"17":0.08,"19":0.2,"21":1},"fans":7400,"svi":0.61,"canopy_pct":0,"treatable":["sail","tree","awning"]}},{"type":"Feature","geometry":{"type":"LineString","coordinates":[[-95.408356,29.681372],[-95.40854399999999,29.681308]]},"properties":{"id":"kirby_8500_17","name":"Kirby Dr, 8500 block, seg 17","len_m":19.5,"approach":"kirby_north_lot","degmin":{"15":0.787,"17":0.564,"19":0.266,"21":0},"degmin_lo":{"15":0.587,"17":0.364,"19":0.066,"21":0},"degmin_hi":{"15":1.012,"17":0.789,"19":0.491,"21":0},"wbgt":{"15":35.1,"17":34.3,"19":33.1,"21":29.9},"shade_frac":{"15":0.04,"17":0.11,"19":0.22,"21":1},"fans":7400,"svi":0.61,"canopy_pct":0,"treatable":["sail","tree","awning"]}},{"type":"Feature","geometry":{"type":"LineString","coordinates":[[-95.40854399999999,29.681308],[-95.408732,29.681244]]},"properties":{"id":"kirby_8500_18","name":"Kirby Dr, 8500 block, seg 18","len_m":19.5,"approach":"kirby_north_lot","degmin":{"15":0.759,"17":0.536,"19":0.238,"21":0},"degmin_lo":{"15":0.559,"17":0.336,"19":0.038,"21":0},"degmin_hi":{"15":0.984,"17":0.761,"19":0.463,"21":0},"wbgt":{"15":35,"17":34.1,"19":33,"21":29.8},"shade_frac":{"15":0.04,"17":0.11,"19":0.22,"21":1},"fans":7400,"svi":0.61,"canopy_pct":1.7,"treatable":["sail","tree","awning"]}},{"type":"Feature","geometry":{"type":"LineString","coordinates":[[-95.408732,29.681244],[-95.40892,29.68118]]},"properties":{"id":"kirby_8500_19","name":"Kirby Dr, 8500 block, seg 19","len_m":19.5,"approach":"kirby_north_lot","degmin":{"15":0.723,"17":0.5,"19":0.204,"21":0},"degmin_lo":{"15":0.522,"17":0.3,"19":0.004,"21":0},"degmin_hi":{"15":0.948,"17":0.725,"19":0.429,"21":0},"wbgt":{"15":34.9,"17":34,"19":32.8,"21":29.7},"shade_frac":{"15":0.05,"17":0.11,"19":0.23,"21":1},"fans":7400,"svi":0.61,"canopy_pct":4.3,"treatable":["sail","tree","awning"]}},{"type":"Feature","geometry":{"type":"LineString","coordinates":[[-95.40892,29.68118],[-95.40911444444444,29.68126666666667]]},"properties":{"id":"kirby_8500_20","name":"Kirby Dr, 8500 block, seg 20","len_m":21.1,"approach":"kirby_north_lot","degmin":{"15":0.727,"17":0.493,"19":0.186,"21":0},"degmin_lo":{"15":0.51,"17":0.277,"19":0,"21":0},"degmin_hi":{"15":0.97,"17":0.737,"19":0.43,"21":0},"wbgt":{"15":34.7,"17":33.8,"19":32.7,"21":29.7},"shade_frac":{"15":0.11,"17":0.18,"19":0.29,"21":1},"fans":7400,"svi":0.61,"canopy_pct":11.1,"treatable":["sail","tree","awning"]}},{"type":"Feature","geometry":{"type":"LineString","coordinates":[[-95.40911444444444,29.68126666666667],[-95.40930888888889,29.681353333333334]]},"properties":{"id":"kirby_8500_21","name":"Kirby Dr, 8500 block, seg 21","len_m":21.1,"approach":"kirby_north_lot","degmin":{"15":0.618,"17":0.4,"19":0.124,"21":0},"degmin_lo":{"15":0.401,"17":0.183,"19":0,"21":0},"degmin_hi":{"15":0.861,"17":0.643,"19":0.367,"21":0},"wbgt":{"15":34.3,"17":33.5,"19":32.5,"21":29.8},"shade_frac":{"15":0.25,"17":0.32,"19":0.43,"21":1},"fans":7400,"svi":0.61,"canopy_pct":25.1,"treatable":["sail","tree","awning"]}},{"type":"Feature","geometry":{"type":"LineString","coordinates":[[-95.40930888888889,29.681353333333334],[-95.40950333333333,29.681440000000002]]},"properties":{"id":"kirby_8500_22","name":"Kirby Dr, 8500 block, seg 22","len_m":21.1,"approach":"kirby_north_lot","degmin":{"15":0.642,"17":0.417,"19":0.128,"21":0},"degmin_lo":{"15":0.426,"17":0.201,"19":0,"21":0},"degmin_hi":{"15":0.886,"17":0.661,"19":0.371,"21":0},"wbgt":{"15":34.4,"17":33.5,"19":32.5,"21":29.7},"shade_frac":{"15":0.19,"17":0.26,"19":0.37,"21":1},"fans":7400,"svi":0.61,"canopy_pct":20.3,"treatable":["sail","tree","awning"]}},{"type":"Feature","geometry":{"type":"LineString","coordinates":[[-95.40950333333333,29.681440000000002],[-95.40969777777778,29.681526666666667]]},"properties":{"id":"kirby_8500_23","name":"Kirby Dr, 8500 block, seg 23","len_m":21.1,"approach":"kirby_north_lot","degmin":{"15":0.438,"17":0.242,"19":0.011,"21":0},"degmin_lo":{"15":0.222,"17":0.026,"19":0,"21":0},"degmin_hi":{"15":0.682,"17":0.486,"19":0.254,"21":0},"wbgt":{"15":33.6,"17":32.9,"19":32,"21":29.9},"shade_frac":{"15":0.46,"17":0.53,"19":0.64,"21":1},"fans":7400,"svi":0.61,"canopy_pct":46.8,"treatable":["tree","awning"]}},{"type":"Feature","geometry":{"type":"LineString","coordinates":[[-95.40969777777778,29.681526666666667],[-95.40989222222221,29.681613333333335]]},"properties":{"id":"kirby_8500_24","name":"Kirby Dr, 8500 block, seg 24","len_m":21.1,"approach":"kirby_north_lot","degmin":{"15":0.457,"17":0.257,"19":0.018,"21":0},"degmin_lo":{"15":0.24,"17":0.04,"19":0,"21":0},"degmin_hi":{"15":0.7,"17":0.5,"19":0.261,"21":0},"wbgt":{"15":33.7,"17":32.9,"19":32.1,"21":29.8},"shade_frac":{"15":0.43,"17":0.49,"19":0.61,"21":1},"fans":7400,"svi":0.61,"canopy_pct":43.8,"treatable":["tree","awning"]}},{"type":"Feature","geometry":{"type":"LineString","coordinates":[[-95.40989222222221,29.681613333333335],[-95.41008666666666,29.6817]]},"properties":{"id":"kirby_8500_25","name":"Kirby Dr, 8500 block, seg 25","len_m":21.1,"approach":"kirby_north_lot","degmin":{"15":0.439,"17":0.242,"19":0.008,"21":0},"degmin_lo":{"15":0.222,"17":0.025,"19":0,"21":0},"degmin_hi":{"15":0.682,"17":0.485,"19":0.252,"21":0},"wbgt":{"15":33.6,"17":32.9,"19":32,"21":29.8},"shade_frac":{"15":0.45,"17":0.52,"19":0.63,"21":1},"fans":7400,"svi":0.61,"canopy_pct":46.2,"treatable":["tree","awning"]}},{"type":"Feature","geometry":{"type":"LineString","coordinates":[[-95.41008666666666,29.6817],[-95.4102811111111,29.681786666666667]]},"properties":{"id":"kirby_8500_26","name":"Kirby Dr, 8500 block, seg 26","len_m":21.1,"approach":"kirby_north_lot","degmin":{"15":0.454,"17":0.256,"19":0.02,"21":0},"degmin_lo":{"15":0.237,"17":0.039,"19":0,"21":0},"degmin_hi":{"15":0.697,"17":0.499,"19":0.264,"21":0},"wbgt":{"15":33.7,"17":32.9,"19":32.1,"21":29.9},"shade_frac":{"15":0.44,"17":0.51,"19":0.62,"21":1},"fans":7400,"svi":0.61,"canopy_pct":44.9,"treatable":["tree","awning"]}},{"type":"Feature","geometry":{"type":"LineString","coordinates":[[-95.4102811111111,29.681786666666667],[-95.41047555555555,29.681873333333332]]},"properties":{"id":"kirby_8500_27","name":"Kirby Dr, 8500 block, seg 27","len_m":21.1,"approach":"kirby_north_lot","degmin":{"15":0.487,"17":0.287,"19":0.047,"21":0},"degmin_lo":{"15":0.271,"17":0.071,"19":0,"21":0},"degmin_hi":{"15":0.731,"17":0.531,"19":0.29,"21":0},"wbgt":{"15":33.8,"17":33.1,"19":32.2,"21":29.9},"shade_frac":{"15":0.42,"17":0.49,"19":0.6,"21":1},"fans":7400,"svi":0.61,"canopy_pct":41.7,"treatable":["tree","awning"]}},{"type":"Feature","geometry":{"type":"LineString","coordinates":[[-95.41047555555555,29.681873333333332],[-95.41067,29.68196]]},"properties":{"id":"kirby_8500_28","name":"Kirby Dr, 8500 block, seg 28","len_m":21.1,"approach":"kirby_north_lot","degmin":{"15":0.666,"17":0.441,"19":0.149,"21":0},"degmin_lo":{"15":0.45,"17":0.224,"19":0,"21":0},"degmin_hi":{"15":0.91,"17":0.684,"19":0.393,"21":0},"wbgt":{"15":34.5,"17":33.6,"19":32.6,"21":29.7},"shade_frac":{"15":0.18,"17":0.25,"19":0.36,"21":1},"fans":7400,"svi":0.61,"canopy_pct":18.4,"treatable":["sail","tree","awning"]}},{"type":"Feature","geometry":{"type":"LineString","coordinates":[[-95.41067,29.68196],[-95.41074714285713,29.68213857142857]]},"properties":{"id":"kirby_8500_29","name":"Kirby Dr, 8500 block, seg 29","len_m":21.1,"approach":"kirby_north_lot","degmin":{"15":0.756,"17":0.517,"19":0.2,"21":0},"degmin_lo":{"15":0.54,"17":0.301,"19":0,"21":0},"degmin_hi":{"15":1,"17":0.761,"19":0.443,"21":0},"wbgt":{"15":34.8,"17":33.9,"19":32.7,"21":29.6},"shade_frac":{"15":0.06,"17":0.13,"19":0.24,"21":1},"fans":7400,"svi":0.61,"canopy_pct":6.6,"treatable":["sail","tree","awning"]}},{"type":"Feature","geometry":{"type":"LineString","coordinates":[[-95.41074714285713,29.68213857142857],[-95.41082428571428,29.682317142857144]]},"properties":{"id":"kirby_8500_30","name":"Kirby Dr, 8500 block, seg 30","len_m":21.1,"approach":"kirby_north_lot","degmin":{"15":0.768,"17":0.536,"19":0.231,"21":0},"degmin_lo":{"15":0.552,"17":0.319,"19":0.014,"21":0},"degmin_hi":{"15":1.012,"17":0.779,"19":0.474,"21":0},"wbgt":{"15":34.8,"17":34,"19":32.9,"21":29.9},"shade_frac":{"15":0.12,"17":0.19,"19":0.3,"21":1},"fans":7400,"svi":0.61,"canopy_pct":9,"treatable":["sail","tree","awning"]}},{"type":"Feature","geometry":{"type":"LineString","coordinates":[[-95.41082428571428,29.682317142857144],[-95.41090142857142,29.682495714285714]]},"properties":{"id":"kirby_8500_31","name":"Kirby Dr, 8500 block, seg 31","len_m":21.1,"approach":"kirby_north_lot","degmin":{"15":0.834,"17":0.596,"19":0.279,"21":0},"degmin_lo":{"15":0.618,"17":0.379,"19":0.062,"21":0},"degmin_hi":{"15":1.078,"17":0.839,"19":0.522,"21":0},"wbgt":{"15":35.1,"17":34.2,"19":33,"21":29.9},"shade_frac":{"15":0.07,"17":0.13,"19":0.25,"21":1},"fans":7400,"svi":0.61,"canopy_pct":2.2,"treatable":["sail","tree","awning"]}},{"type":"Feature","geometry":{"type":"LineString","coordinates":[[-95.41090142857142,29.682495714285714],[-95.41097857142857,29.682674285714285]]},"properties":{"id":"kirby_8500_32","name":"Kirby Dr, 8500 block, seg 32","len_m":21.1,"approach":"kirby_north_lot","degmin":{"15":0.818,"17":0.573,"19":0.243,"21":0},"degmin_lo":{"15":0.601,"17":0.357,"19":0.027,"21":0},"degmin_hi":{"15":1.061,"17":0.816,"19":0.487,"21":0},"wbgt":{"15":35,"17":34.1,"19":32.9,"21":29.6},"shade_frac":{"15":0.01,"17":0.07,"19":0.19,"21":1},"fans":7400,"svi":0.61,"canopy_pct":0,"treatable":["sail","tree","awning"]}},{"type":"Feature","geometry":{"type":"LineString","coordinates":[[-95.41097857142857,29.682674285714285],[-95.41105571428571,29.682852857142855]]},"properties":{"id":"kirby_8500_33","name":"Kirby Dr, 8500 block, seg 33","len_m":21.1,"approach":"kirby_north_lot","degmin":{"15":0.857,"17":0.616,"19":0.296,"21":0},"degmin_lo":{"15":0.64,"17":0.4,"19":0.08,"21":0},"degmin_hi":{"15":1.1,"17":0.86,"19":0.539,"21":0},"wbgt":{"15":35.2,"17":34.3,"19":33.1,"21":29.9},"shade_frac":{"15":0.05,"17":0.11,"19":0.23,"21":1},"fans":7400,"svi":0.61,"canopy_pct":0,"treatable":["sail","tree","awning"]}},{"type":"Feature","geometry":{"type":"LineString","coordinates":[[-95.41105571428571,29.682852857142855],[-95.41113285714286,29.68303142857143]]},"properties":{"id":"kirby_8500_34","name":"Kirby Dr, 8500 block, seg 34","len_m":21.1,"approach":"kirby_north_lot","degmin":{"15":0.818,"17":0.573,"19":0.243,"21":0},"degmin_lo":{"15":0.601,"17":0.356,"19":0.027,"21":0},"degmin_hi":{"15":1.061,"17":0.816,"19":0.487,"21":0},"wbgt":{"15":35,"17":34.1,"19":32.9,"21":29.6},"shade_frac":{"15":0.01,"17":0.07,"19":0.19,"21":1},"fans":7400,"svi":0.61,"canopy_pct":0,"treatable":["sail","tree","awning"]}},{"type":"Feature","geometry":{"type":"LineString","coordinates":[[-95.41113285714286,29.68303142857143],[-95.41121,29.68321]]},"properties":{"id":"kirby_8500_35","name":"Kirby Dr, 8500 block, seg 35","len_m":21.1,"approach":"kirby_north_lot","degmin":{"15":0.776,"17":0.544,"19":0.24,"21":0},"degmin_lo":{"15":0.56,"17":0.328,"19":0.024,"21":0},"degmin_hi":{"15":1.02,"17":0.788,"19":0.484,"21":0},"wbgt":{"15":34.9,"17":34,"19":32.9,"21":29.9},"shade_frac":{"15":0.13,"17":0.19,"19":0.31,"21":1},"fans":7400,"svi":0.61,"canopy_pct":8.9,"treatable":["sail","tree","awning"]}},{"type":"Feature","geometry":{"type":"LineString","coordinates":[[-95.40737,29.68337],[-95.4073475,29.68355]]},"properties":{"id":"westridge_2100_01","name":"Westridge St, 2100 block, seg 01","len_m":20,"approach":"westridge_plaza","degmin":{"15":0.438,"17":0.244,"19":0.009,"21":0},"degmin_lo":{"15":0.233,"17":0.039,"19":0,"21":0},"degmin_hi":{"15":0.669,"17":0.475,"19":0.24,"21":0},"wbgt":{"15":33.7,"17":33,"19":32,"21":29.7},"shade_frac":{"15":0.39,"17":0.45,"19":0.57,"21":1},"fans":4300,"svi":0.44,"canopy_pct":41.3,"treatable":["tree","awning"]}},{"type":"Feature","geometry":{"type":"LineString","coordinates":[[-95.4073475,29.68355],[-95.407325,29.68373]]},"properties":{"id":"westridge_2100_02","name":"Westridge St, 2100 block, seg 02","len_m":20,"approach":"westridge_plaza","degmin":{"15":0.481,"17":0.281,"19":0.034,"21":0},"degmin_lo":{"15":0.276,"17":0.076,"19":0,"21":0},"degmin_hi":{"15":0.712,"17":0.512,"19":0.265,"21":0},"wbgt":{"15":33.9,"17":33.1,"19":32.1,"21":29.6},"shade_frac":{"15":0.33,"17":0.39,"19":0.51,"21":1},"fans":4300,"svi":0.44,"canopy_pct":35.4,"treatable":["tree","awning"]}},{"type":"Feature","geometry":{"type":"LineString","coordinates":[[-95.407325,29.68373],[-95.4073025,29.68391]]},"properties":{"id":"westridge_2100_03","name":"Westridge St, 2100 block, seg 03","len_m":20,"approach":"westridge_plaza","degmin":{"15":0.403,"17":0.216,"19":0,"21":0},"degmin_lo":{"15":0.198,"17":0.011,"19":0,"21":0},"degmin_hi":{"15":0.634,"17":0.447,"19":0.224,"21":0},"wbgt":{"15":33.6,"17":32.8,"19":32,"21":29.8},"shade_frac":{"15":0.44,"17":0.51,"19":0.62,"21":1},"fans":4300,"svi":0.44,"canopy_pct":46.7,"treatable":["tree","awning"]}},{"type":"Feature","geometry":{"type":"LineString","coordinates":[[-95.4073025,29.68391],[-95.40728,29.684089999999998]]},"properties":{"id":"westridge_2100_04","name":"Westridge St, 2100 block, seg 04","len_m":20,"approach":"westridge_plaza","degmin":{"15":0.536,"17":0.33,"19":0.069,"21":0},"degmin_lo":{"15":0.33,"17":0.124,"19":0,"21":0},"degmin_hi":{"15":0.766,"17":0.56,"19":0.3,"21":0},"wbgt":{"15":34.1,"17":33.3,"19":32.3,"21":29.6},"shade_frac":{"15":0.26,"17":0.33,"19":0.44,"21":1},"fans":4300,"svi":0.44,"canopy_pct":28.7,"treatable":["sail","tree","awning"]}},{"type":"Feature","geometry":{"type":"LineString","coordinates":[[-95.40728,29.684089999999998],[-95.4072575,29.684269999999998]]},"properties":{"id":"westridge_2100_05","name":"Westridge St, 2100 block, seg 05","len_m":20,"approach":"westridge_plaza","degmin":{"15":0.455,"17":0.265,"19":0.038,"21":0},"degmin_lo":{"15":0.249,"17":0.06,"19":0,"21":0},"degmin_hi":{"15":0.686,"17":0.496,"19":0.269,"21":0},"wbgt":{"15":33.8,"17":33,"19":32.1,"21":29.9},"shade_frac":{"15":0.42,"17":0.49,"19":0.6,"21":1},"fans":4300,"svi":0.44,"canopy_pct":42.4,"treatable":["tree","awning"]}},{"type":"Feature","geometry":{"type":"LineString","coordinates":[[-95.4072575,29.684269999999998],[-95.407235,29.68445]]},"properties":{"id":"westridge_2100_06","name":"Westridge St, 2100 block, seg 06","len_m":20,"approach":"westridge_plaza","degmin":{"15":0.538,"17":0.34,"19":0.096,"21":0},"degmin_lo":{"15":0.333,"17":0.135,"19":0,"21":0},"degmin_hi":{"15":0.769,"17":0.571,"19":0.327,"21":0},"wbgt":{"15":34.1,"17":33.3,"19":32.4,"21":29.9},"shade_frac":{"15":0.34,"17":0.41,"19":0.52,"21":1},"fans":4300,"svi":0.44,"canopy_pct":32.7,"treatable":["tree","awning"]}},{"type":"Feature","geometry":{"type":"LineString","coordinates":[[-95.407235,29.68445],[-95.4072125,29.68463]]},"properties":{"id":"westridge_2100_07","name":"Westridge St, 2100 block, seg 07","len_m":20,"approach":"westridge_plaza","degmin":{"15":0.651,"17":0.432,"19":0.147,"21":0},"degmin_lo":{"15":0.446,"17":0.227,"19":0,"21":0},"degmin_hi":{"15":0.882,"17":0.663,"19":0.378,"21":0},"wbgt":{"15":34.5,"17":33.7,"19":32.6,"21":29.6},"shade_frac":{"15":0.14,"17":0.2,"19":0.32,"21":1},"fans":4300,"svi":0.44,"canopy_pct":14.8,"treatable":["sail","tree","awning"]}},{"type":"Feature","geometry":{"type":"LineString","coordinates":[[-95.4072125,29.68463],[-95.40719,29.68481]]},"properties":{"id":"westridge_2100_08","name":"Westridge St, 2100 block, seg 08","len_m":20,"approach":"westridge_plaza","degmin":{"15":0.691,"17":0.475,"19":0.196,"21":0},"degmin_lo":{"15":0.486,"17":0.27,"19":0,"21":0},"degmin_hi":{"15":0.922,"17":0.706,"19":0.427,"21":0},"wbgt":{"15":34.7,"17":33.9,"19":32.8,"21":29.9},"shade_frac":{"15":0.17,"17":0.23,"19":0.35,"21":1},"fans":4300,"svi":0.44,"canopy_pct":14,"treatable":["sail","tree","awning"]}},{"type":"Feature","geometry":{"type":"LineString","coordinates":[[-95.40719,29.68481],[-95.4074,29.684855555555554]]},"properties":{"id":"westridge_2100_09","name":"Westridge St, 2100 block, seg 09","len_m":20.9,"approach":"westridge_plaza","degmin":{"15":0.751,"17":0.521,"19":0.218,"21":0},"degmin_lo":{"15":0.537,"17":0.306,"19":0.003,"21":0},"degmin_hi":{"15":0.993,"17":0.762,"19":0.459,"21":0},"wbgt":{"15":34.8,"17":33.9,"19":32.8,"21":29.8},"shade_frac":{"15":0.12,"17":0.18,"19":0.3,"21":1},"fans":4300,"svi":0.44,"canopy_pct":9.6,"treatable":["sail","tree","awning"]}},{"type":"Feature","geometry":{"type":"LineString","coordinates":[[-95.4074,29.684855555555554],[-95.40761,29.68490111111111]]},"properties":{"id":"westridge_2100_10","name":"Westridge St, 2100 block, seg 10","len_m":20.9,"approach":"westridge_plaza","degmin":{"15":0.732,"17":0.498,"19":0.189,"21":0},"degmin_lo":{"15":0.517,"17":0.283,"19":0,"21":0},"degmin_hi":{"15":0.973,"17":0.74,"19":0.431,"21":0},"wbgt":{"15":34.7,"17":33.9,"19":32.7,"21":29.7},"shade_frac":{"15":0.09,"17":0.16,"19":0.27,"21":1},"fans":4300,"svi":0.44,"canopy_pct":9.2,"treatable":["sail","tree","awning"]}},{"type":"Feature","geometry":{"type":"LineString","coordinates":[[-95.40761,29.68490111111111],[-95.40782,29.684946666666665]]},"properties":{"id":"westridge_2100_11","name":"Westridge St, 2100 block, seg 11","len_m":20.9,"approach":"westridge_plaza","degmin":{"15":0.718,"17":0.486,"19":0.183,"21":0},"degmin_lo":{"15":0.503,"17":0.272,"19":0,"21":0},"degmin_hi":{"15":0.959,"17":0.728,"19":0.424,"21":0},"wbgt":{"15":34.7,"17":33.8,"19":32.7,"21":29.7},"shade_frac":{"15":0.12,"17":0.18,"19":0.3,"21":1},"fans":4300,"svi":0.44,"canopy_pct":11.4,"treatable":["sail","tree","awning"]}},{"type":"Feature","geometry":{"type":"LineString","coordinates":[[-95.40782,29.684946666666665],[-95.40803,29.68499222222222]]},"properties":{"id":"westridge_2100_12","name":"Westridge St, 2100 block, seg 12","len_m":20.9,"approach":"westridge_plaza","degmin":{"15":0.685,"17":0.456,"19":0.157,"21":0},"degmin_lo":{"15":0.471,"17":0.242,"19":0,"21":0},"degmin_hi":{"15":0.927,"17":0.698,"19":0.398,"21":0},"wbgt":{"15":34.6,"17":33.7,"19":32.6,"21":29.6},"shade_frac":{"15":0.13,"17":0.2,"19":0.31,"21":1},"fans":4300,"svi":0.44,"canopy_pct":14.3,"treatable":["sail","tree","awning"]}},{"type":"Feature","geometry":{"type":"LineString","coordinates":[[-95.40803,29.68499222222222],[-95.40824,29.68503777777778]]},"properties":{"id":"westridge_2100_13","name":"Westridge St, 2100 block, seg 13","len_m":20.9,"approach":"westridge_plaza","degmin":{"15":0.638,"17":0.415,"19":0.128,"21":0},"degmin_lo":{"15":0.423,"17":0.2,"19":0,"21":0},"degmin_hi":{"15":0.879,"17":0.657,"19":0.37,"21":0},"wbgt":{"15":34.4,"17":33.5,"19":32.5,"21":29.7},"shade_frac":{"15":0.19,"17":0.26,"19":0.37,"21":1},"fans":4300,"svi":0.44,"canopy_pct":20.3,"treatable":["sail","tree","awning"]}},{"type":"Feature","geometry":{"type":"LineString","coordinates":[[-95.40824,29.68503777777778],[-95.40845,29.685083333333335]]},"properties":{"id":"westridge_2100_14","name":"Westridge St, 2100 block, seg 14","len_m":20.9,"approach":"westridge_plaza","degmin":{"15":0.508,"17":0.305,"19":0.058,"21":0},"degmin_lo":{"15":0.293,"17":0.09,"19":0,"21":0},"degmin_hi":{"15":0.749,"17":0.546,"19":0.299,"21":0},"wbgt":{"15":33.9,"17":33.1,"19":32.2,"21":29.9},"shade_frac":{"15":0.38,"17":0.44,"19":0.56,"21":1},"fans":4300,"svi":0.44,"canopy_pct":38,"treatable":["tree","awning"]}},{"type":"Feature","geometry":{"type":"LineString","coordinates":[[-95.40845,29.685083333333335],[-95.40866,29.68512888888889]]},"properties":{"id":"westridge_2100_15","name":"Westridge St, 2100 block, seg 15","len_m":20.9,"approach":"westridge_plaza","degmin":{"15":0.502,"17":0.296,"19":0.043,"21":0},"degmin_lo":{"15":0.288,"17":0.082,"19":0,"21":0},"degmin_hi":{"15":0.744,"17":0.538,"19":0.285,"21":0},"wbgt":{"15":33.9,"17":33.1,"19":32.2,"21":29.7},"shade_frac":{"15":0.35,"17":0.42,"19":0.53,"21":1},"fans":4300,"svi":0.44,"canopy_pct":36.8,"treatable":["tree","awning"]}},{"type":"Feature","geometry":{"type":"LineString","coordinates":[[-95.40866,29.68512888888889],[-95.40887000000001,29.685174444444446]]},"properties":{"id":"westridge_2100_16","name":"Westridge St, 2100 block, seg 16","len_m":20.9,"approach":"westridge_plaza","degmin":{"15":0.405,"17":0.212,"19":0,"21":0},"degmin_lo":{"15":0.19,"17":0,"19":0,"21":0},"degmin_hi":{"15":0.646,"17":0.453,"19":0.226,"21":0},"wbgt":{"15":33.5,"17":32.8,"19":31.9,"21":29.8},"shade_frac":{"15":0.47,"17":0.54,"19":0.65,"21":1},"fans":4300,"svi":0.44,"canopy_pct":49.1,"treatable":["tree","awning"]}},{"type":"Feature","geometry":{"type":"LineString","coordinates":[[-95.40887000000001,29.685174444444446],[-95.40908,29.68522]]},"properties":{"id":"westridge_2100_17","name":"Westridge St, 2100 block, seg 17","len_m":20.9,"approach":"westridge_plaza","degmin":{"15":0.32,"17":0.138,"19":0,"21":0},"degmin_lo":{"15":0.105,"17":0,"19":0,"21":0},"degmin_hi":{"15":0.561,"17":0.379,"19":0.174,"21":0},"wbgt":{"15":33.2,"17":32.5,"19":31.7,"21":29.9},"shade_frac":{"15":0.57,"17":0.64,"19":0.75,"21":1},"fans":4300,"svi":0.44,"canopy_pct":59.7,"treatable":["tree","awning"]}},{"type":"Feature","geometry":{"type":"LineString","coordinates":[[-95.40908,29.68522],[-95.40927125,29.685268750000002]]},"properties":{"id":"westridge_2100_18","name":"Westridge St, 2100 block, seg 18","len_m":19.3,"approach":"westridge_plaza","degmin":{"15":0.321,"17":0.149,"19":0,"21":0},"degmin_lo":{"15":0.123,"17":0,"19":0,"21":0},"degmin_hi":{"15":0.543,"17":0.371,"19":0.174,"21":0},"wbgt":{"15":33.3,"17":32.6,"19":31.8,"21":29.8},"shade_frac":{"15":0.53,"17":0.6,"19":0.71,"21":1},"fans":4300,"svi":0.44,"canopy_pct":55.8,"treatable":["tree","awning"]}},{"type":"Feature","geometry":{"type":"LineString","coordinates":[[-95.40927125,29.685268750000002],[-95.4094625,29.6853175]]},"properties":{"id":"westridge_2100_19","name":"Westridge St, 2100 block, seg 19","len_m":19.3,"approach":"westridge_plaza","degmin":{"15":0.423,"17":0.237,"19":0.012,"21":0},"degmin_lo":{"15":0.226,"17":0.04,"19":0,"21":0},"degmin_hi":{"15":0.646,"17":0.46,"19":0.234,"21":0},"wbgt":{"15":33.7,"17":33,"19":32,"21":29.7},"shade_frac":{"15":0.39,"17":0.45,"19":0.57,"21":1},"fans":4300,"svi":0.44,"canopy_pct":41.3,"treatable":["tree","awning"]}},{"type":"Feature","geometry":{"type":"LineString","coordinates":[[-95.4094625,29.6853175],[-95.40965375,29.68536625]]},"properties":{"id":"westridge_2100_20","name":"Westridge St, 2100 block, seg 20","len_m":19.3,"approach":"westridge_plaza","degmin":{"15":0.505,"17":0.308,"19":0.06,"21":0},"degmin_lo":{"15":0.308,"17":0.111,"19":0,"21":0},"degmin_hi":{"15":0.728,"17":0.53,"19":0.282,"21":0},"wbgt":{"15":34,"17":33.2,"19":32.2,"21":29.6},"shade_frac":{"15":0.27,"17":0.34,"19":0.45,"21":1},"fans":4300,"svi":0.44,"canopy_pct":29.9,"treatable":["sail","tree","awning"]}},{"type":"Feature","geometry":{"type":"LineString","coordinates":[[-95.40965375,29.68536625],[-95.409845,29.685415]]},"properties":{"id":"westridge_2100_21","name":"Westridge St, 2100 block, seg 21","len_m":19.3,"approach":"westridge_plaza","degmin":{"15":0.421,"17":0.24,"19":0.024,"21":0},"degmin_lo":{"15":0.223,"17":0.042,"19":0,"21":0},"degmin_hi":{"15":0.643,"17":0.462,"19":0.246,"21":0},"wbgt":{"15":33.7,"17":33,"19":32.1,"21":29.9},"shade_frac":{"15":0.44,"17":0.5,"19":0.62,"21":1},"fans":4300,"svi":0.44,"canopy_pct":44.2,"treatable":["tree","awning"]}},{"type":"Feature","geometry":{"type":"LineString","coordinates":[[-95.409845,29.685415],[-95.41003625,29.68546375]]},"properties":{"id":"westridge_2100_22","name":"Westridge St, 2100 block, seg 22","len_m":19.3,"approach":"westridge_plaza","degmin":{"15":0.538,"17":0.341,"19":0.092,"21":0},"degmin_lo":{"15":0.34,"17":0.143,"19":0,"21":0},"degmin_hi":{"15":0.76,"17":0.563,"19":0.315,"21":0},"wbgt":{"15":34.2,"17":33.4,"19":32.4,"21":29.8},"shade_frac":{"15":0.27,"17":0.34,"19":0.45,"21":1},"fans":4300,"svi":0.44,"canopy_pct":27.8,"treatable":["sail","tree","awning"]}},{"type":"Feature","geometry":{"type":"LineString","coordinates":[[-95.41003625,29.68546375],[-95.4102275,29.6855125]]},"properties":{"id":"westridge_2100_23","name":"Westridge St, 2100 block, seg 23","len_m":19.3,"approach":"westridge_plaza","degmin":{"15":0.595,"17":0.392,"19":0.132,"21":0},"degmin_lo":{"15":0.397,"17":0.194,"19":0,"21":0},"degmin_hi":{"15":0.817,"17":0.614,"19":0.354,"21":0},"wbgt":{"15":34.4,"17":33.6,"19":32.5,"21":29.8},"shade_frac":{"15":0.22,"17":0.28,"19":0.4,"21":1},"fans":4300,"svi":0.44,"canopy_pct":21,"treatable":["sail","tree","awning"]}},{"type":"Feature","geometry":{"type":"LineString","coordinates":[[-95.4102275,29.6855125],[-95.41041875,29.68556125]]},"properties":{"id":"westridge_2100_24","name":"Westridge St, 2100 block, seg 24","len_m":19.3,"approach":"westridge_plaza","degmin":{"15":0.647,"17":0.434,"19":0.155,"21":0},"degmin_lo":{"15":0.449,"17":0.237,"19":0,"21":0},"degmin_hi":{"15":0.869,"17":0.656,"19":0.378,"21":0},"wbgt":{"15":34.6,"17":33.8,"19":32.6,"21":29.6},"shade_frac":{"15":0.12,"17":0.18,"19":0.3,"21":1},"fans":4300,"svi":0.44,"canopy_pct":12.5,"treatable":["sail","tree","awning"]}},{"type":"Feature","geometry":{"type":"LineString","coordinates":[[-95.41041875,29.68556125],[-95.41061,29.68561]]},"properties":{"id":"westridge_2100_25","name":"Westridge St, 2100 block, seg 25","len_m":19.3,"approach":"westridge_plaza","degmin":{"15":0.683,"17":0.471,"19":0.194,"21":0},"degmin_lo":{"15":0.486,"17":0.274,"19":0,"21":0},"degmin_hi":{"15":0.906,"17":0.694,"19":0.416,"21":0},"wbgt":{"15":34.8,"17":33.9,"19":32.8,"21":29.8},"shade_frac":{"15":0.12,"17":0.19,"19":0.3,"21":1},"fans":4300,"svi":0.44,"canopy_pct":10.4,"treatable":["sail","tree","awning"]}},{"type":"Feature","geometry":{"type":"LineString","coordinates":[[-95.41061,29.68561],[-95.410756,29.685502]]},"properties":{"id":"westridge_2100_26","name":"Westridge St, 2100 block, seg 26","len_m":18.5,"approach":"westridge_plaza","degmin":{"15":0.658,"17":0.452,"19":0.181,"21":0},"degmin_lo":{"15":0.468,"17":0.263,"19":0,"21":0},"degmin_hi":{"15":0.871,"17":0.666,"19":0.395,"21":0},"wbgt":{"15":34.8,"17":33.9,"19":32.8,"21":29.7},"shade_frac":{"15":0.1,"17":0.17,"19":0.28,"21":1},"fans":4300,"svi":0.44,"canopy_pct":9,"treatable":["sail","tree","awning"]}},{"type":"Feature","geometry":{"type":"LineString","coordinates":[[-95.410756,29.685502],[-95.41090200000001,29.685394]]},"properties":{"id":"westridge_2100_27","name":"Westridge St, 2100 block, seg 27","len_m":18.5,"approach":"westridge_plaza","degmin":{"15":0.659,"17":0.458,"19":0.196,"21":0},"degmin_lo":{"15":0.469,"17":0.268,"19":0.007,"21":0},"degmin_hi":{"15":0.872,"17":0.671,"19":0.409,"21":0},"wbgt":{"15":34.8,"17":33.9,"19":32.8,"21":29.9},"shade_frac":{"15":0.15,"17":0.21,"19":0.33,"21":1},"fans":4300,"svi":0.44,"canopy_pct":11.5,"treatable":["sail","tree","awning"]}},{"type":"Feature","geometry":{"type":"LineString","coordinates":[[-95.41090200000001,29.685394],[-95.411048,29.685286]]},"properties":{"id":"westridge_2100_28","name":"Westridge St, 2100 block, seg 28","len_m":18.5,"approach":"westridge_plaza","degmin":{"15":0.611,"17":0.414,"19":0.159,"21":0},"degmin_lo":{"15":0.421,"17":0.224,"19":0,"21":0},"degmin_hi":{"15":0.824,"17":0.627,"19":0.373,"21":0},"wbgt":{"15":34.6,"17":33.7,"19":32.7,"21":29.9},"shade_frac":{"15":0.19,"17":0.25,"19":0.37,"21":1},"fans":4300,"svi":0.44,"canopy_pct":16.9,"treatable":["sail","tree","awning"]}},{"type":"Feature","geometry":{"type":"LineString","coordinates":[[-95.411048,29.685286],[-95.411194,29.685178]]},"properties":{"id":"westridge_2100_29","name":"Westridge St, 2100 block, seg 29","len_m":18.5,"approach":"westridge_plaza","degmin":{"15":0.553,"17":0.361,"19":0.118,"21":0},"degmin_lo":{"15":0.363,"17":0.171,"19":0,"21":0},"degmin_hi":{"15":0.766,"17":0.574,"19":0.331,"21":0},"wbgt":{"15":34.3,"17":33.5,"19":32.5,"21":29.8},"shade_frac":{"15":0.25,"17":0.31,"19":0.43,"21":1},"fans":4300,"svi":0.44,"canopy_pct":24.1,"treatable":["sail","tree","awning"]}},{"type":"Feature","geometry":{"type":"LineString","coordinates":[[-95.411194,29.685178],[-95.41134,29.68507]]},"properties":{"id":"westridge_2100_30","name":"Westridge St, 2100 block, seg 30","len_m":18.5,"approach":"westridge_plaza","degmin":{"15":0.483,"17":0.299,"19":0.072,"21":0},"degmin_lo":{"15":0.293,"17":0.109,"19":0,"21":0},"degmin_hi":{"15":0.696,"17":0.512,"19":0.285,"21":0},"wbgt":{"15":34,"17":33.3,"19":32.3,"21":29.8},"shade_frac":{"15":0.33,"17":0.4,"19":0.51,"21":1},"fans":4300,"svi":0.44,"canopy_pct":33.2,"treatable":["tree","awning"]}}]}