{"type":"FeatureCollection","features":[{"type":"Feature","geometry":{"type":"Polygon","coordinates":[[[-95.406098,29.686846],[-95.406102,29.686818],[-95.406037,29.686801],[-95.405874,29.686761],[-95.40553,29.686733],[-95.405509,29.686712],[-95.405481,29.686694],[-95.405442,29.686692],[-95.40541,29.686697],[-95.405383,29.686714],[-95.40536,29.686735],[-95.405037,29.686768],[-95.40485,29.686812],[-95.404786,29.686828],[-95.404789,29.686862],[-95.404449,29.68687],[-95.404221,29.686875],[-95.404221,29.686837],[-95.403915,29.68684],[-95.403915,29.687157],[-95.403922,29.687155],[-95.403939,29.688483],[-95.408774,29.688456],[-95.40876,29.686936],[-95.408767,29.686936],[-95.408766,29.686864],[-95.408766,29.686834],[-95.408607,29.686838],[-95.40853,29.686681],[-95.408464,29.6867],[-95.408387,29.686723],[-95.408169,29.68677],[-95.407889,29.686797],[-95.40776,29.686803],[-95.407585,29.686794],[-95.407327,29.686765],[-95.407008,29.686696],[-95.40683,29.686632],[-95.40676,29.686607],[-95.406623,29.686827],[-95.406098,29.686846]]]},"properties":{"id":"way/43055135","name":"NRG Center","height":20,"height_source":"tagged","kind":"building"}},{"type":"Feature","geometry":{"type":"Polygon","coordinates":[[[-95.407547,29.689806],[-95.403633,29.689861],[-95.403627,29.689524],[-95.407541,29.689468],[-95.407547,29.689806]]]},"properties":{"id":"way/43055191","name":"NRG Park Warehouse","height":3.5,"height_source":"default","kind":"building"}},{"type":"Feature","geometry":{"type":"Polygon","coordinates":[[[-95.405472,29.682661],[-95.405298,29.68257],[-95.405316,29.682543],[-95.40515,29.682461],[-95.405171,29.682433],[-95.405005,29.682352],[-95.405024,29.682323],[-95.404857,29.682243],[-95.404878,29.682212],[-95.404714,29.682132],[-95.404733,29.682103],[-95.404569,29.682024],[-95.405107,29.681192],[-95.405024,29.681154],[-95.405375,29.680621],[-95.405455,29.680662],[-95.40606,29.679717],[-95.406971,29.680175],[-95.406882,29.680318],[-95.406964,29.680363],[-95.40687,29.680503],[-95.406955,29.680549],[-95.406861,29.680689],[-95.407022,29.68077],[-95.406926,29.680912],[-95.407013,29.680956],[-95.406197,29.682214],[-95.405869,29.68205],[-95.405472,29.682661]]]},"properties":{"id":"way/43055529","name":"NRG Arena","height":13,"height_source":"tagged","kind":"building"}},{"type":"Feature","geometry":{"type":"Polygon","coordinates":[[[-95.403986,29.69181],[-95.40389,29.69181],[-95.403706,29.691808],[-95.403512,29.691631],[-95.403452,29.691634],[-95.403391,29.691627],[-95.40319,29.691801],[-95.402899,29.691789],[-95.402909,29.691558],[-95.403209,29.691306],[-95.403327,29.691291],[-95.403444,29.691281],[-95.403567,29.691288],[-95.403712,29.691311],[-95.403988,29.69156],[-95.403986,29.69181]]]},"properties":{"id":"way/45850511","name":null,"height":3.5,"height_source":"default","kind":"building"}},{"type":"Feature","geometry":{"type":"Polygon","coordinates":[[[-95.404415,29.692892],[-95.403547,29.692875],[-95.403564,29.692191],[-95.404432,29.692207],[-95.404415,29.692892]]]},"properties":{"id":"way/45850513","name":null,"height":3.5,"height_source":"default","kind":"building"}},{"type":"Feature","geometry":{"type":"Polygon","coordinates":[[[-95.404815,29.691178],[-95.404541,29.691339],[-95.404152,29.690841],[-95.404375,29.690709],[-95.404542,29.690921],[-95.404591,29.690892],[-95.404815,29.691178]]]},"properties":{"id":"way/51821978","name":null,"height":3.5,"height_source":"default","kind":"building"}},{"type":"Feature","geometry":{"type":"Polygon","coordinates":[[[-95.415915,29.69025],[-95.41581,29.690384],[-95.415876,29.690423],[-95.415831,29.69048],[-95.415769,29.690443],[-95.415494,29.690793],[-95.412969,29.689299],[-95.413233,29.688963],[-95.413592,29.689175],[-95.413707,29.68912],[-95.414262,29.689449],[-95.414134,29.689611],[-95.414569,29.689868],[-95.41466,29.689754],[-95.414777,29.689823],[-95.41491,29.689654],[-95.415915,29.69025]]]},"properties":{"id":"way/51904002","name":null,"height":3.5,"height_source":"default","kind":"building"}},{"type":"Feature","geometry":{"type":"Polygon","coordinates":[[[-95.416533,29.690839],[-95.416267,29.69068],[-95.416362,29.69056],[-95.416628,29.690718],[-95.416533,29.690839]]]},"properties":{"id":"way/51904008","name":"Uno Mas Liquor","height":3.5,"height_source":"default","kind":"building"}},{"type":"Feature","geometry":{"type":"Polygon","coordinates":[[[-95.408499,29.684138],[-95.408418,29.684086],[-95.408338,29.684038],[-95.408256,29.683995],[-95.408166,29.683958],[-95.408075,29.683931],[-95.407978,29.683911],[-95.407883,29.683896],[-95.407787,29.683889],[-95.407689,29.68389],[-95.407593,29.683899],[-95.407491,29.683912],[-95.4074,29.683934],[-95.40731,29.683965],[-95.407222,29.684001],[-95.407135,29.684047],[-95.407054,29.684101],[-95.406984,29.684152],[-95.406914,29.684213],[-95.406852,29.684278],[-95.406792,29.684349],[-95.406746,29.68442],[-95.406701,29.6845],[-95.406666,29.684589],[-95.406643,29.68467],[-95.406636,29.684703],[-95.406626,29.684754],[-95.406622,29.684837],[-95.406624,29.684922],[-95.40663,29.685005],[-95.40664,29.685052],[-95.406652,29.685098],[-95.406673,29.685183],[-95.406702,29.685267],[-95.406743,29.685353],[-95.406763,29.685379],[-95.406799,29.685428],[-95.406851,29.685485],[-95.406914,29.685549],[-95.406989,29.685608],[-95.407062,29.685656],[-95.407147,29.685701],[-95.407232,29.685744],[-95.407322,29.685781],[-95.407413,29.685809],[-95.407511,29.68583],[-95.407604,29.685844],[-95.4077,29.685851],[-95.407801,29.685848],[-95.407897,29.685837],[-95.407996,29.685822],[-95.40809,29.685795],[-95.408183,29.685764],[-95.408275,29.685728],[-95.408354,29.685687],[-95.408439,29.685639],[-95.408509,29.685593],[-95.40858,29.685538],[-95.408643,29.685479],[-95.408698,29.685408],[-95.408747,29.685332],[-95.408785,29.685255],[-95.408817,29.685167],[-95.408841,29.685077],[-95.408857,29.684986],[-95.408864,29.684904],[-95.408864,29.68482],[-95.408854,29.684734],[-95.408834,29.684647],[-95.408833,29.684643],[-95.408812,29.684568],[-95.408777,29.684492],[-95.408735,29.684407],[-95.408687,29.684338],[-95.408627,29.684268],[-95.408566,29.6842],[-95.408499,29.684138]]]},"properties":{"id":"way/119420928","name":"NRG Astrodome","height":66.4,"height_source":"tagged","kind":"venue"}},{"type":"Feature","geometry":{"type":"Polygon","coordinates":[[[-95.409584,29.684364],[-95.409712,29.684395],[-95.409692,29.684453],[-95.409669,29.68454],[-95.409649,29.684651],[-95.409639,29.684769],[-95.409636,29.684874],[-95.409644,29.684986],[-95.409662,29.685096],[-95.409685,29.685199],[-95.40971,29.685279],[-95.40974,29.685352],[-95.409597,29.685391],[-95.409763,29.685875],[-95.409985,29.685819],[-95.410043,29.685928],[-95.409991,29.685929],[-95.409992,29.686057],[-95.410163,29.686055],[-95.410169,29.686223],[-95.410286,29.68622],[-95.410284,29.686056],[-95.411373,29.686032],[-95.411377,29.6862],[-95.411496,29.686198],[-95.411496,29.686029],[-95.41167,29.686026],[-95.411667,29.685898],[-95.411608,29.685899],[-95.411662,29.685791],[-95.411891,29.685836],[-95.412015,29.685337],[-95.41189,29.685311],[-95.4119,29.685276],[-95.411925,29.685188],[-95.411941,29.685117],[-95.411954,29.68505],[-95.411965,29.684935],[-95.411966,29.684842],[-95.411962,29.684758],[-95.411952,29.684671],[-95.411937,29.684593],[-95.411917,29.684514],[-95.411896,29.684451],[-95.411865,29.684368],[-95.412005,29.684331],[-95.411846,29.683834],[-95.411612,29.683889],[-95.411558,29.683781],[-95.411616,29.683779],[-95.411616,29.683662],[-95.411445,29.683663],[-95.411444,29.683491],[-95.411319,29.683493],[-95.411319,29.683664],[-95.410223,29.683685],[-95.410221,29.683514],[-95.410102,29.683516],[-95.410104,29.683686],[-95.409937,29.683691],[-95.409941,29.683811],[-95.409991,29.68381],[-95.409936,29.683921],[-95.409727,29.683878],[-95.409584,29.684364]]]},"properties":{"id":"way/119422708","name":"NRG Stadium","height":79.3,"height_source":"tagged","kind":"venue"}},{"type":"Feature","geometry":{"type":"Polygon","coordinates":[[[-95.415126,29.686335],[-95.415089,29.685228],[-95.414365,29.685245],[-95.414398,29.686347],[-95.414602,29.686343],[-95.414604,29.686377],[-95.414667,29.686429],[-95.414771,29.686428],[-95.41483,29.686373],[-95.414827,29.686338],[-95.415126,29.686335]]]},"properties":{"id":"way/119424696","name":"Houston Methodist Training Center","height":25,"height_source":"tagged","kind":"building"}},{"type":"Feature","geometry":{"type":"Polygon","coordinates":[[[-95.413862,29.676632],[-95.413844,29.676305],[-95.41378,29.676308],[-95.413767,29.676065],[-95.413764,29.676022],[-95.413825,29.676019],[-95.413818,29.675893],[-95.413792,29.675894],[-95.413778,29.675649],[-95.413494,29.675661],[-95.413496,29.675708],[-95.413257,29.675718],[-95.413276,29.676074],[-95.413279,29.676114],[-95.413168,29.676119],[-95.412982,29.676127],[-95.412986,29.676195],[-95.412797,29.676203],[-95.412802,29.676295],[-95.413172,29.676279],[-95.413433,29.676268],[-95.41344,29.676393],[-95.413364,29.676396],[-95.413378,29.676652],[-95.413862,29.676632]]]},"properties":{"id":"way/119428957","name":"Mike Calvert Toyota","height":3.5,"height_source":"default","kind":"building"}},{"type":"Feature","geometry":{"type":"Polygon","coordinates":[[[-95.411523,29.676975],[-95.411528,29.676704],[-95.411451,29.676702],[-95.411449,29.676666],[-95.411448,29.676585],[-95.411448,29.676551],[-95.411507,29.676551],[-95.411503,29.67617],[-95.411443,29.676168],[-95.411443,29.676047],[-95.411184,29.676047],[-95.411169,29.676047],[-95.411167,29.675979],[-95.410999,29.675979],[-95.411003,29.676532],[-95.411174,29.676533],[-95.411282,29.676532],[-95.411282,29.676587],[-95.411282,29.676667],[-95.411282,29.676718],[-95.411216,29.676717],[-95.411212,29.676975],[-95.411523,29.676975]]]},"properties":{"id":"way/119428958","name":"Davis Chevrolet","height":3.5,"height_source":"default","kind":"building"}},{"type":"Feature","geometry":{"type":"Polygon","coordinates":[[[-95.414791,29.678822],[-95.414743,29.678811],[-95.414755,29.67877],[-95.41464,29.678744],[-95.414627,29.678787],[-95.414575,29.678775],[-95.414459,29.679158],[-95.414564,29.679182],[-95.414675,29.679207],[-95.414791,29.678822]]]},"properties":{"id":"way/119430788","name":null,"height":3.5,"height_source":"default","kind":"building"}},{"type":"Feature","geometry":{"type":"Polygon","coordinates":[[[-95.413903,29.678885],[-95.413888,29.678677],[-95.413371,29.678711],[-95.413359,29.678711],[-95.413184,29.678718],[-95.413174,29.678719],[-95.412962,29.678731],[-95.412977,29.678936],[-95.413181,29.678925],[-95.413903,29.678885]]]},"properties":{"id":"way/119430790","name":"Wyndham","height":3.5,"height_source":"default","kind":"building"}},{"type":"Feature","geometry":{"type":"Polygon","coordinates":[[[-95.413292,29.679748],[-95.413108,29.679398],[-95.413107,29.679381],[-95.413202,29.679143],[-95.41315,29.679126],[-95.413169,29.679082],[-95.413125,29.679066],[-95.413181,29.678925],[-95.412977,29.678936],[-95.412791,29.6794],[-95.413035,29.679774],[-95.413073,29.67984],[-95.413292,29.679748]]]},"properties":{"id":"way/119430791","name":null,"height":3.5,"height_source":"default","kind":"building"}},{"type":"Feature","geometry":{"type":"Polygon","coordinates":[[[-95.41455,29.678717],[-95.414542,29.678528],[-95.414249,29.678537],[-95.414257,29.678726],[-95.41455,29.678717]]]},"properties":{"id":"way/119430796","name":"El Tiempo Cantina","height":3.5,"height_source":"levels","kind":"building"}},{"type":"Feature","geometry":{"type":"Polygon","coordinates":[[[-95.413492,29.680603],[-95.413577,29.680386],[-95.41349,29.680361],[-95.413599,29.680102],[-95.413451,29.680054],[-95.413465,29.680022],[-95.413404,29.680003],[-95.413323,29.679975],[-95.413143,29.679915],[-95.4131,29.67989],[-95.413073,29.67984],[-95.413035,29.679774],[-95.412947,29.679816],[-95.412758,29.680263],[-95.412798,29.680273],[-95.412773,29.680346],[-95.412808,29.68036],[-95.412814,29.680515],[-95.413081,29.68051],[-95.413102,29.680517],[-95.413431,29.680622],[-95.413446,29.68059],[-95.413492,29.680603]]]},"properties":{"id":"way/119430797","name":"Heritage Center","height":3.5,"height_source":"default","kind":"building"}},{"type":"Feature","geometry":{"type":"Polygon","coordinates":[[[-95.41435,29.679657],[-95.414459,29.679275],[-95.4144,29.679262],[-95.414414,29.679216],[-95.414306,29.679193],[-95.414293,29.679237],[-95.414282,29.679235],[-95.414229,29.679223],[-95.414119,29.679607],[-95.414229,29.67963],[-95.41435,29.679657]]]},"properties":{"id":"way/119430803","name":null,"height":3.5,"height_source":"default","kind":"building"}},{"type":"Feature","geometry":{"type":"Polygon","coordinates":[[[-95.414163,29.679897],[-95.414178,29.679844],[-95.414127,29.679833],[-95.414155,29.679735],[-95.414199,29.679744],[-95.414205,29.679746],[-95.414221,29.679691],[-95.415002,29.679861],[-95.414989,29.679906],[-95.414988,29.67991],[-95.415028,29.679918],[-95.414998,29.680022],[-95.414954,29.680012],[-95.414938,29.680065],[-95.414163,29.679897]]]},"properties":{"id":"way/119430804","name":null,"height":3.5,"height_source":"default","kind":"building"}},{"type":"Feature","geometry":{"type":"Polygon","coordinates":[[[-95.414219,29.692067],[-95.414169,29.691948],[-95.414285,29.691911],[-95.414336,29.69203],[-95.414219,29.692067]]]},"properties":{"id":"way/218802088","name":null,"height":3.5,"height_source":"default","kind":"building"}},{"type":"Feature","geometry":{"type":"Polygon","coordinates":[[[-95.413508,29.692331],[-95.413441,29.692151],[-95.413367,29.692172],[-95.413341,29.692101],[-95.413316,29.692031],[-95.413247,29.69205],[-95.413273,29.692122],[-95.413297,29.692187],[-95.413231,29.692205],[-95.413299,29.692389],[-95.413508,29.692331]]]},"properties":{"id":"way/218802089","name":null,"height":3.5,"height_source":"default","kind":"building"}},{"type":"Feature","geometry":{"type":"Polygon","coordinates":[[[-95.414104,29.692071],[-95.413985,29.691818],[-95.413839,29.69187],[-95.41396,29.692124],[-95.413999,29.692111],[-95.414022,29.692159],[-95.414086,29.692136],[-95.414062,29.692086],[-95.414104,29.692071]]]},"properties":{"id":"way/218802091","name":null,"height":3.5,"height_source":"default","kind":"building"}},{"type":"Feature","geometry":{"type":"Polygon","coordinates":[[[-95.414288,29.691525],[-95.414044,29.691592],[-95.414055,29.691634],[-95.413733,29.691727],[-95.413722,29.691683],[-95.413113,29.691858],[-95.413025,29.691455],[-95.413188,29.691401],[-95.413199,29.691422],[-95.413279,29.691396],[-95.413271,29.691373],[-95.413548,29.691289],[-95.413556,29.691313],[-95.413725,29.691264],[-95.413717,29.69124],[-95.41399,29.691156],[-95.413998,29.691187],[-95.414081,29.691159],[-95.414162,29.691189],[-95.414288,29.691525]]]},"properties":{"id":"way/218802092","name":null,"height":3.5,"height_source":"default","kind":"building"}},{"type":"Feature","geometry":{"type":"Polygon","coordinates":[[[-95.413664,29.690684],[-95.41357,29.69063],[-95.413691,29.690472],[-95.413806,29.690538],[-95.413744,29.69062],[-95.413721,29.690607],[-95.413664,29.690684]]]},"properties":{"id":"way/218802093","name":"Catfish Station","height":3.5,"height_source":"default","kind":"building"}},{"type":"Feature","geometry":{"type":"Polygon","coordinates":[[[-95.415086,29.691681],[-95.414841,29.691783],[-95.414693,29.691515],[-95.414938,29.691413],[-95.415086,29.691681]]]},"properties":{"id":"way/218802094","name":"Olive Garden","height":3.5,"height_source":"default","kind":"building"}},{"type":"Feature","geometry":{"type":"Polygon","coordinates":[[[-95.415756,29.691194],[-95.415592,29.691021],[-95.415978,29.690746],[-95.416208,29.690872],[-95.415756,29.691194]]]},"properties":{"id":"way/218802095","name":null,"height":3.5,"height_source":"default","kind":"building"}},{"type":"Feature","geometry":{"type":"Polygon","coordinates":[[[-95.415529,29.691492],[-95.415445,29.691352],[-95.415499,29.691328],[-95.415465,29.691271],[-95.415384,29.691308],[-95.415298,29.691166],[-95.415513,29.691068],[-95.415579,29.691178],[-95.415515,29.691207],[-95.415577,29.691309],[-95.415646,29.691278],[-95.415722,29.691404],[-95.415529,29.691492]]]},"properties":{"id":"way/218802096","name":"Bank of America","height":3.5,"height_source":"default","kind":"building"}},{"type":"Feature","geometry":{"type":"Polygon","coordinates":[[[-95.41209,29.692129],[-95.411954,29.692177],[-95.411966,29.692201],[-95.411664,29.692308],[-95.411654,29.692286],[-95.411504,29.692339],[-95.411248,29.691795],[-95.411835,29.691587],[-95.41209,29.692129]]]},"properties":{"id":"way/218802499","name":null,"height":3.5,"height_source":"default","kind":"building"}},{"type":"Feature","geometry":{"type":"Polygon","coordinates":[[[-95.411964,29.691596],[-95.412182,29.692061],[-95.41224,29.692041],[-95.412243,29.692046],[-95.412344,29.692011],[-95.41212,29.691532],[-95.412003,29.691573],[-95.412006,29.691581],[-95.411964,29.691596]]]},"properties":{"id":"way/218802510","name":null,"height":3.5,"height_source":"default","kind":"building"}},{"type":"Feature","geometry":{"type":"Polygon","coordinates":[[[-95.407306,29.69235],[-95.407306,29.69152],[-95.405343,29.691525],[-95.405338,29.691604],[-95.405,29.691604],[-95.40501,29.692368],[-95.407306,29.69235]]]},"properties":{"id":"way/218895502","name":null,"height":3.5,"height_source":"default","kind":"building"}},{"type":"Feature","geometry":{"type":"Polygon","coordinates":[[[-95.416895,29.690562],[-95.416717,29.690447],[-95.416783,29.690369],[-95.41688,29.690432],[-95.416922,29.690382],[-95.417004,29.690434],[-95.416895,29.690562]]]},"properties":{"id":"way/218950884","name":"Jack in the Box","height":3.5,"height_source":"default","kind":"building"}},{"type":"Feature","geometry":{"type":"Polygon","coordinates":[[[-95.416663,29.689938],[-95.416873,29.68967],[-95.416672,29.68955],[-95.416461,29.689819],[-95.416663,29.689938]]]},"properties":{"id":"way/218950885","name":"Comfort Suites near Texas Medical Center","height":3.5,"height_source":"default","kind":"building"}},{"type":"Feature","geometry":{"type":"Polygon","coordinates":[[[-95.416929,29.690106],[-95.417112,29.690226],[-95.417289,29.690024],[-95.417107,29.689903],[-95.416929,29.690106]]]},"properties":{"id":"way/218950888","name":"Pappas Bar-B-Q","height":3.5,"height_source":"default","kind":"building"}},{"type":"Feature","geometry":{"type":"Polygon","coordinates":[[[-95.40902,29.693299],[-95.408786,29.692765],[-95.409029,29.692684],[-95.409263,29.693218],[-95.40902,29.693299]]]},"properties":{"id":"way/218950931","name":"SpringHill Suites Houston Medical Center/NRG Park","height":3.5,"height_source":"default","kind":"building"}},{"type":"Feature","geometry":{"type":"Polygon","coordinates":[[[-95.411703,29.690509],[-95.411702,29.690345],[-95.411886,29.690345],[-95.411886,29.690182],[-95.41184,29.690182],[-95.41184,29.690112],[-95.41171,29.690113],[-95.411709,29.690073],[-95.411669,29.690074],[-95.411669,29.690146],[-95.411407,29.690147],[-95.411408,29.690259],[-95.41123,29.69026],[-95.41123,29.690285],[-95.411075,29.690285],[-95.411076,29.690511],[-95.411703,29.690509]]]},"properties":{"id":"way/219056348","name":"Holiday Inn Houston - NRG/Medical Center Area","height":3.5,"height_source":"default","kind":"building"}},{"type":"Feature","geometry":{"type":"Polygon","coordinates":[[[-95.415454,29.692627],[-95.415335,29.69256],[-95.415496,29.692346],[-95.415615,29.692413],[-95.415454,29.692627]]]},"properties":{"id":"way/219056589","name":null,"height":3.5,"height_source":"default","kind":"building"}},{"type":"Feature","geometry":{"type":"Polygon","coordinates":[[[-95.413233,29.688963],[-95.413277,29.688913],[-95.413272,29.68864],[-95.413132,29.688544],[-95.413103,29.688591],[-95.413108,29.68891],[-95.412915,29.689152],[-95.412918,29.689259],[-95.412969,29.689299],[-95.413233,29.688963]]]},"properties":{"id":"way/231771959","name":null,"height":3.5,"height_source":"default","kind":"building"}},{"type":"Feature","geometry":{"type":"Polygon","coordinates":[[[-95.416609,29.692657],[-95.416414,29.692539],[-95.416102,29.692926],[-95.416297,29.693044],[-95.416609,29.692657]]]},"properties":{"id":"way/255737656","name":null,"height":3.5,"height_source":"default","kind":"building"}},{"type":"Feature","geometry":{"type":"Polygon","coordinates":[[[-95.416668,29.692452],[-95.416887,29.692166],[-95.416755,29.69209],[-95.416537,29.692377],[-95.416668,29.692452]]]},"properties":{"id":"way/255737657","name":null,"height":3.5,"height_source":"default","kind":"building"}},{"type":"Feature","geometry":{"type":"Polygon","coordinates":[[[-95.417505,29.691362],[-95.417703,29.691108],[-95.417644,29.691073],[-95.417623,29.691099],[-95.417582,29.691075],[-95.417419,29.691283],[-95.417473,29.691315],[-95.417457,29.691334],[-95.417505,29.691362]]]},"properties":{"id":"way/255737661","name":"Sonic","height":3.5,"height_source":"default","kind":"building"}},{"type":"Feature","geometry":{"type":"Polygon","coordinates":[[[-95.417218,29.691922],[-95.417012,29.691795],[-95.417142,29.691636],[-95.417348,29.691763],[-95.417218,29.691922]]]},"properties":{"id":"way/289003693","name":null,"height":3.5,"height_source":"levels","kind":"building"}},{"type":"Feature","geometry":{"type":"Polygon","coordinates":[[[-95.412152,29.691237],[-95.41126,29.691257],[-95.411255,29.691085],[-95.412147,29.691065],[-95.412152,29.691237]]]},"properties":{"id":"way/312888729","name":"Extended Stay America - Houston - Med. Ctr. - NRG Park - Kirby","height":3.5,"height_source":"default","kind":"building"}},{"type":"Feature","geometry":{"type":"Polygon","coordinates":[[[-95.41088,29.691257],[-95.410696,29.691386],[-95.41054,29.691006],[-95.410838,29.691012],[-95.410884,29.691113],[-95.410824,29.691133],[-95.41088,29.691257]]]},"properties":{"id":"way/312888731","name":null,"height":3.5,"height_source":"default","kind":"building"}},{"type":"Feature","geometry":{"type":"Polygon","coordinates":[[[-95.410398,29.691457],[-95.410165,29.691524],[-95.410027,29.691162],[-95.41026,29.691095],[-95.410398,29.691457]]]},"properties":{"id":"way/312888732","name":null,"height":3.5,"height_source":"default","kind":"building"}},{"type":"Feature","geometry":{"type":"Polygon","coordinates":[[[-95.409957,29.691659],[-95.409784,29.691709],[-95.409617,29.691275],[-95.40979,29.691225],[-95.409957,29.691659]]]},"properties":{"id":"way/312888733","name":null,"height":3.5,"height_source":"default","kind":"building"}},{"type":"Feature","geometry":{"type":"Polygon","coordinates":[[[-95.409554,29.691677],[-95.409336,29.69174],[-95.409205,29.691399],[-95.409288,29.691375],[-95.409294,29.691389],[-95.409389,29.691361],[-95.409396,29.691379],[-95.409436,29.691368],[-95.409554,29.691677]]]},"properties":{"id":"way/312888734","name":null,"height":3.5,"height_source":"default","kind":"building"}},{"type":"Feature","geometry":{"type":"Polygon","coordinates":[[[-95.408664,29.691689],[-95.408237,29.691693],[-95.408237,29.691913],[-95.407989,29.691913],[-95.407996,29.691477],[-95.40867,29.691479],[-95.408664,29.691689]]]},"properties":{"id":"way/312888735","name":null,"height":3.5,"height_source":"default","kind":"building"}},{"type":"Feature","geometry":{"type":"Polygon","coordinates":[[[-95.410057,29.689762],[-95.409546,29.689773],[-95.409537,29.68945],[-95.410047,29.689439],[-95.410057,29.689762]]]},"properties":{"id":"way/312888848","name":null,"height":3.5,"height_source":"default","kind":"building"}},{"type":"Feature","geometry":{"type":"Polygon","coordinates":[[[-95.410039,29.68939],[-95.409566,29.689396],[-95.409565,29.689297],[-95.410037,29.689291],[-95.410039,29.68939]]]},"properties":{"id":"way/312888849","name":null,"height":3.5,"height_source":"default","kind":"building"}},{"type":"Feature","geometry":{"type":"Polygon","coordinates":[[[-95.417759,29.678745],[-95.417606,29.678752],[-95.417582,29.678366],[-95.417735,29.678366],[-95.417759,29.678745]]]},"properties":{"id":"way/439452761","name":null,"height":3.5,"height_source":"default","kind":"building"}},{"type":"Feature","geometry":{"type":"Polygon","coordinates":[[[-95.417751,29.690908],[-95.417577,29.690797],[-95.417705,29.690644],[-95.417826,29.690721],[-95.417766,29.690792],[-95.41782,29.690827],[-95.417751,29.690908]]]},"properties":{"id":"way/586637987","name":"Captain Benny's Seafood","height":3.5,"height_source":"default","kind":"building"}},{"type":"Feature","geometry":{"type":"Polygon","coordinates":[[[-95.408929,29.685097],[-95.408841,29.685077],[-95.408857,29.684986],[-95.408864,29.684904],[-95.408864,29.68482],[-95.408854,29.684734],[-95.408834,29.684647],[-95.408928,29.684637],[-95.408944,29.684731],[-95.40903,29.684725],[-95.409028,29.68501],[-95.408948,29.684995],[-95.408929,29.685097]]]},"properties":{"id":"way/626284515","name":null,"height":3.5,"height_source":"default","kind":"building"}},{"type":"Feature","geometry":{"type":"Polygon","coordinates":[[[-95.407491,29.683912],[-95.407474,29.68385],[-95.407582,29.683835],[-95.407684,29.683827],[-95.407792,29.683827],[-95.407894,29.683835],[-95.407994,29.683848],[-95.407978,29.683911],[-95.407883,29.683896],[-95.407787,29.683889],[-95.407689,29.68389],[-95.407593,29.683899],[-95.407491,29.683912]]]},"properties":{"id":"way/626284522","name":null,"height":3.5,"height_source":"default","kind":"building"}},{"type":"Feature","geometry":{"type":"Polygon","coordinates":[[[-95.407494,29.685901],[-95.407511,29.68583],[-95.407604,29.685844],[-95.4077,29.685851],[-95.407801,29.685848],[-95.407897,29.685837],[-95.407996,29.685822],[-95.408014,29.685892],[-95.40791,29.685908],[-95.407809,29.685921],[-95.407698,29.685924],[-95.407593,29.685915],[-95.407494,29.685901]]]},"properties":{"id":"way/626284543","name":null,"height":3.5,"height_source":"default","kind":"building"}},{"type":"Feature","geometry":{"type":"Polygon","coordinates":[[[-95.40683,29.686632],[-95.406847,29.686601],[-95.406866,29.686565],[-95.406934,29.686587],[-95.407018,29.686614],[-95.407189,29.686659],[-95.407358,29.686692],[-95.407525,29.686714],[-95.407701,29.686727],[-95.407869,29.686725],[-95.408046,29.686707],[-95.408177,29.686688],[-95.40831,29.686659],[-95.408434,29.686628],[-95.408443,29.686648],[-95.408451,29.686669],[-95.408464,29.6867],[-95.408387,29.686723],[-95.408169,29.68677],[-95.407889,29.686797],[-95.40776,29.686803],[-95.407585,29.686794],[-95.407327,29.686765],[-95.407008,29.686696],[-95.40683,29.686632]]]},"properties":{"id":"way/626665025","name":null,"height":3.5,"height_source":"default","kind":"building"}},{"type":"Feature","geometry":{"type":"Polygon","coordinates":[[[-95.40485,29.686812],[-95.404835,29.68677],[-95.404829,29.686753],[-95.404824,29.68674],[-95.404963,29.686706],[-95.405108,29.68668],[-95.405241,29.686667],[-95.405389,29.686664],[-95.4054,29.686682],[-95.405425,29.686674],[-95.405456,29.686673],[-95.405484,29.686679],[-95.405493,29.68666],[-95.405643,29.686664],[-95.40578,29.686675],[-95.405934,29.6867],[-95.406061,29.686734],[-95.406057,29.686743],[-95.406045,29.686779],[-95.406037,29.686801],[-95.405874,29.686761],[-95.40553,29.686733],[-95.405509,29.686712],[-95.405481,29.686694],[-95.405442,29.686692],[-95.40541,29.686697],[-95.405383,29.686714],[-95.40536,29.686735],[-95.405037,29.686768],[-95.40485,29.686812]]]},"properties":{"id":"way/626665026","name":null,"height":3.5,"height_source":"default","kind":"building"}},{"type":"Feature","geometry":{"type":"Polygon","coordinates":[[[-95.404449,29.686836],[-95.404449,29.68687],[-95.404221,29.686875],[-95.404221,29.686837],[-95.404449,29.686836]]]},"properties":{"id":"way/626665028","name":null,"height":3.5,"height_source":"default","kind":"building"}},{"type":"Feature","geometry":{"type":"Polygon","coordinates":[[[-95.417065,29.679066],[-95.417046,29.678327],[-95.416721,29.678344],[-95.416727,29.678446],[-95.416802,29.678446],[-95.416807,29.678472],[-95.416938,29.678469],[-95.416952,29.67894],[-95.41692,29.678938],[-95.41692,29.678959],[-95.416772,29.678968],[-95.41678,29.67908],[-95.417065,29.679066]]]},"properties":{"id":"way/923284049","name":"Sterling Inn and Suites at Reliant and Medical Center Houston","height":3.5,"height_source":"default","kind":"building"}},{"type":"Feature","geometry":{"type":"Polygon","coordinates":[[[-95.406167,29.683368],[-95.406232,29.683335],[-95.40629,29.683418],[-95.406468,29.683325],[-95.406303,29.683087],[-95.406017,29.683236],[-95.406167,29.683368]]]},"properties":{"id":"way/979686744","name":null,"height":3.5,"height_source":"default","kind":"building"}},{"type":"Feature","geometry":{"type":"Polygon","coordinates":[[[-95.406657,29.690066],[-95.406735,29.690066],[-95.406735,29.690026],[-95.406657,29.690026],[-95.406657,29.690066]]]},"properties":{"id":"way/979686784","name":null,"height":3.5,"height_source":"default","kind":"building"}},{"type":"Feature","geometry":{"type":"Polygon","coordinates":[[[-95.407073,29.690041],[-95.407074,29.690189],[-95.40751,29.690187],[-95.407509,29.69014],[-95.407584,29.69014],[-95.407584,29.690039],[-95.407073,29.690041]]]},"properties":{"id":"way/979686808","name":null,"height":3.5,"height_source":"default","kind":"building"}},{"type":"Feature","geometry":{"type":"Polygon","coordinates":[[[-95.408304,29.689351],[-95.408208,29.689351],[-95.408208,29.689404],[-95.408304,29.689404],[-95.408304,29.689351]]]},"properties":{"id":"way/979686811","name":null,"height":3.5,"height_source":"default","kind":"building"}},{"type":"Feature","geometry":{"type":"Polygon","coordinates":[[[-95.404222,29.690219],[-95.404136,29.690135],[-95.403692,29.690476],[-95.403777,29.69056],[-95.404222,29.690219]]]},"properties":{"id":"way/979686821","name":null,"height":3.5,"height_source":"default","kind":"building"}},{"type":"Feature","geometry":{"type":"Polygon","coordinates":[[[-95.404688,29.689329],[-95.404119,29.68934],[-95.404123,29.689497],[-95.404692,29.689486],[-95.404688,29.689329]]]},"properties":{"id":"way/979686829","name":null,"height":3.5,"height_source":"default","kind":"building"}},{"type":"Feature","geometry":{"type":"Polygon","coordinates":[[[-95.408925,29.690244],[-95.408925,29.690118],[-95.408763,29.690118],[-95.408763,29.690243],[-95.408925,29.690244]]]},"properties":{"id":"way/979686837","name":null,"height":3.5,"height_source":"default","kind":"building"}},{"type":"Feature","geometry":{"type":"Polygon","coordinates":[[[-95.414876,29.688453],[-95.414842,29.688503],[-95.414911,29.688539],[-95.414985,29.688577],[-95.415019,29.688527],[-95.414948,29.68849],[-95.414876,29.688453]]]},"properties":{"id":"way/1073734144","name":null,"height":3.5,"height_source":"default","kind":"building"}},{"type":"Feature","geometry":{"type":"Polygon","coordinates":[[[-95.415359,29.68182],[-95.415504,29.681822],[-95.415515,29.681349],[-95.41537,29.681346],[-95.415359,29.68182]]]},"properties":{"id":"way/1073734207","name":null,"height":3.5,"height_source":"default","kind":"building"}},{"type":"Feature","geometry":{"type":"Polygon","coordinates":[[[-95.417244,29.679806],[-95.417414,29.679807],[-95.417416,29.679707],[-95.417215,29.679705],[-95.417214,29.679754],[-95.417245,29.679754],[-95.417244,29.679806]]]},"properties":{"id":"way/1073734216","name":null,"height":3.5,"height_source":"default","kind":"building"}},{"type":"Feature","geometry":{"type":"Polygon","coordinates":[[[-95.413578,29.678904],[-95.41358,29.678981],[-95.413719,29.678978],[-95.413717,29.678901],[-95.413578,29.678904]]]},"properties":{"id":"way/1073734245","name":null,"height":3.5,"height_source":"default","kind":"building"}},{"type":"Feature","geometry":{"type":"Polygon","coordinates":[[[-95.41688,29.679243],[-95.416731,29.679246],[-95.416742,29.679723],[-95.416891,29.67972],[-95.41688,29.679243]]]},"properties":{"id":"way/1073734267","name":null,"height":3.5,"height_source":"default","kind":"building"}},{"type":"Feature","geometry":{"type":"Polygon","coordinates":[[[-95.416165,29.682263],[-95.41617,29.68255],[-95.416192,29.682549],[-95.416196,29.682766],[-95.416107,29.682767],[-95.416109,29.682886],[-95.416686,29.682878],[-95.416684,29.682767],[-95.416397,29.68277],[-95.416397,29.682756],[-95.41626,29.682758],[-95.416259,29.68273],[-95.416359,29.682729],[-95.416357,29.682647],[-95.41636,29.682647],[-95.416358,29.682557],[-95.416294,29.682557],[-95.416289,29.682262],[-95.416165,29.682263]]]},"properties":{"id":"way/1073734279","name":null,"height":3.5,"height_source":"default","kind":"building"}},{"type":"Feature","geometry":{"type":"Polygon","coordinates":[[[-95.414835,29.681257],[-95.415201,29.681262],[-95.415203,29.68113],[-95.414837,29.681125],[-95.414835,29.681257]]]},"properties":{"id":"way/1073734293","name":null,"height":3.5,"height_source":"default","kind":"building"}},{"type":"Feature","geometry":{"type":"Polygon","coordinates":[[[-95.417019,29.681072],[-95.417013,29.681319],[-95.417186,29.681323],[-95.417192,29.681075],[-95.417019,29.681072]]]},"properties":{"id":"way/1073734302","name":null,"height":3.5,"height_source":"default","kind":"building"}},{"type":"Feature","geometry":{"type":"Polygon","coordinates":[[[-95.411448,29.683572],[-95.411486,29.683571],[-95.411479,29.683354],[-95.411441,29.683355],[-95.411448,29.683572]]]},"properties":{"id":"way/1073734303","name":null,"height":3.5,"height_source":"default","kind":"building"}},{"type":"Feature","geometry":{"type":"Polygon","coordinates":[[[-95.415964,29.678922],[-95.416111,29.678932],[-95.416144,29.678542],[-95.415997,29.678533],[-95.415964,29.678922]]]},"properties":{"id":"way/1073734309","name":null,"height":3.5,"height_source":"default","kind":"building"}},{"type":"Feature","geometry":{"type":"Polygon","coordinates":[[[-95.414781,29.681786],[-95.41477,29.681309],[-95.41462,29.681312],[-95.41463,29.681788],[-95.414781,29.681786]]]},"properties":{"id":"way/1073734323","name":null,"height":3.5,"height_source":"default","kind":"building"}},{"type":"Feature","geometry":{"type":"Polygon","coordinates":[[[-95.414473,29.680719],[-95.414463,29.681192],[-95.414609,29.681194],[-95.414619,29.680721],[-95.414473,29.680719]]]},"properties":{"id":"way/1073734332","name":null,"height":3.5,"height_source":"default","kind":"building"}},{"type":"Feature","geometry":{"type":"Polygon","coordinates":[[[-95.416712,29.680315],[-95.416563,29.680259],[-95.416495,29.680397],[-95.416477,29.68039],[-95.416436,29.680473],[-95.416612,29.680539],[-95.416652,29.680458],[-95.416642,29.680455],[-95.416712,29.680315]]]},"properties":{"id":"way/1073734356","name":null,"height":3.5,"height_source":"default","kind":"building"}},{"type":"Feature","geometry":{"type":"Polygon","coordinates":[[[-95.417702,29.682591],[-95.417595,29.682491],[-95.417524,29.682548],[-95.417526,29.682549],[-95.417311,29.682721],[-95.417417,29.68282],[-95.417702,29.682591]]]},"properties":{"id":"way/1073734358","name":null,"height":3.5,"height_source":"default","kind":"building"}},{"type":"Feature","geometry":{"type":"Polygon","coordinates":[[[-95.417586,29.68187],[-95.417634,29.68187],[-95.417639,29.681589],[-95.417591,29.681589],[-95.417586,29.68187]]]},"properties":{"id":"way/1073734364","name":null,"height":3.5,"height_source":"default","kind":"building"}},{"type":"Feature","geometry":{"type":"Polygon","coordinates":[[[-95.416474,29.684657],[-95.416532,29.684658],[-95.416534,29.684577],[-95.416476,29.684576],[-95.416474,29.684657]]]},"properties":{"id":"way/1073734375","name":null,"height":3.5,"height_source":"default","kind":"building"}},{"type":"Feature","geometry":{"type":"Polygon","coordinates":[[[-95.417002,29.682929],[-95.417162,29.682928],[-95.417163,29.682941],[-95.417234,29.68294],[-95.417234,29.682934],[-95.417358,29.682933],[-95.417357,29.682788],[-95.417236,29.682789],[-95.417236,29.682787],[-95.417064,29.682788],[-95.417064,29.682774],[-95.417,29.682775],[-95.417002,29.682929]]]},"properties":{"id":"way/1073734377","name":null,"height":3.5,"height_source":"default","kind":"building"}},{"type":"Feature","geometry":{"type":"Polygon","coordinates":[[[-95.414892,29.686918],[-95.414976,29.686917],[-95.414973,29.68681],[-95.41489,29.686811],[-95.414892,29.686918]]]},"properties":{"id":"way/1073734400","name":null,"height":3.5,"height_source":"default","kind":"building"}},{"type":"Feature","geometry":{"type":"Polygon","coordinates":[[[-95.414869,29.681079],[-95.415412,29.681091],[-95.415416,29.68097],[-95.414873,29.680958],[-95.414869,29.681079]]]},"properties":{"id":"way/1073734429","name":null,"height":3.5,"height_source":"default","kind":"building"}},{"type":"Feature","geometry":{"type":"Polygon","coordinates":[[[-95.408771,29.685687],[-95.408844,29.685745],[-95.408911,29.685682],[-95.408838,29.685624],[-95.408771,29.685687]]]},"properties":{"id":"way/1073734437","name":null,"height":3.5,"height_source":"default","kind":"building"}},{"type":"Feature","geometry":{"type":"Polygon","coordinates":[[[-95.416373,29.678913],[-95.416365,29.678566],[-95.416262,29.678568],[-95.416262,29.678597],[-95.416219,29.678597],[-95.416226,29.678916],[-95.416373,29.678913]]]},"properties":{"id":"way/1073734443","name":null,"height":3.5,"height_source":"default","kind":"building"}},{"type":"Feature","geometry":{"type":"Polygon","coordinates":[[[-95.417259,29.679636],[-95.417543,29.679639],[-95.417544,29.679589],[-95.41726,29.679585],[-95.417259,29.679636]]]},"properties":{"id":"way/1073734460","name":null,"height":3.5,"height_source":"default","kind":"building"}},{"type":"Feature","geometry":{"type":"Polygon","coordinates":[[[-95.415416,29.679028],[-95.415386,29.679413],[-95.41553,29.679422],[-95.41556,29.679037],[-95.415416,29.679028]]]},"properties":{"id":"way/1073734467","name":null,"height":3.5,"height_source":"default","kind":"building"}},{"type":"Feature","geometry":{"type":"Polygon","coordinates":[[[-95.415264,29.679746],[-95.415803,29.6798],[-95.41582,29.679673],[-95.415281,29.679619],[-95.415264,29.679746]]]},"properties":{"id":"way/1073734473","name":null,"height":3.5,"height_source":"default","kind":"building"}},{"type":"Feature","geometry":{"type":"Polygon","coordinates":[[[-95.415209,29.679913],[-95.415735,29.680033],[-95.415774,29.679904],[-95.415248,29.679784],[-95.415209,29.679913]]]},"properties":{"id":"way/1073734479","name":null,"height":3.5,"height_source":"default","kind":"building"}},{"type":"Feature","geometry":{"type":"Polygon","coordinates":[[[-95.416566,29.681079],[-95.416229,29.680984],[-95.416175,29.681129],[-95.416413,29.681196],[-95.416406,29.681213],[-95.416506,29.681241],[-95.416566,29.681079]]]},"properties":{"id":"way/1073734484","name":null,"height":3.5,"height_source":"default","kind":"building"}},{"type":"Feature","geometry":{"type":"Polygon","coordinates":[[[-95.415209,29.678383],[-95.415213,29.678509],[-95.41566,29.678499],[-95.415657,29.678373],[-95.415209,29.678383]]]},"properties":{"id":"way/1073734485","name":null,"height":3.5,"height_source":"default","kind":"building"}},{"type":"Feature","geometry":{"type":"Polygon","coordinates":[[[-95.415746,29.680448],[-95.415211,29.680353],[-95.415182,29.680479],[-95.415717,29.680573],[-95.415746,29.680448]]]},"properties":{"id":"way/1073734491","name":null,"height":3.5,"height_source":"default","kind":"building"}},{"type":"Feature","geometry":{"type":"Polygon","coordinates":[[[-95.416686,29.679707],[-95.416687,29.679577],[-95.416139,29.679575],[-95.416139,29.679705],[-95.416686,29.679707]]]},"properties":{"id":"way/1073734492","name":null,"height":3.5,"height_source":"default","kind":"building"}},{"type":"Feature","geometry":{"type":"Polygon","coordinates":[[[-95.416133,29.679359],[-95.416495,29.679358],[-95.416494,29.67923],[-95.416181,29.679232],[-95.416181,29.679264],[-95.416133,29.679264],[-95.416133,29.679359]]]},"properties":{"id":"way/1073734504","name":null,"height":3.5,"height_source":"default","kind":"building"}},{"type":"Feature","geometry":{"type":"Polygon","coordinates":[[[-95.417824,29.683123],[-95.41781,29.683783],[-95.422108,29.683853],[-95.42211,29.683761],[-95.420205,29.68373],[-95.420205,29.683749],[-95.418985,29.683729],[-95.418985,29.683698],[-95.417877,29.68368],[-95.417886,29.683243],[-95.418999,29.683261],[-95.419,29.683224],[-95.420217,29.683244],[-95.420216,29.683293],[-95.422357,29.683328],[-95.42236,29.683197],[-95.417824,29.683123]]]},"properties":{"id":"way/1073734511","name":null,"height":3.5,"height_source":"default","kind":"building"}},{"type":"Feature","geometry":{"type":"Polygon","coordinates":[[[-95.416242,29.679946],[-95.416241,29.68008],[-95.416751,29.680082],[-95.416751,29.679948],[-95.416242,29.679946]]]},"properties":{"id":"way/1073734521","name":null,"height":3.5,"height_source":"default","kind":"building"}},{"type":"Feature","geometry":{"type":"Polygon","coordinates":[[[-95.414115,29.685238],[-95.414195,29.685236],[-95.414289,29.685234],[-95.414287,29.685174],[-95.414194,29.685176],[-95.414113,29.685177],[-95.414115,29.685238]]]},"properties":{"id":"way/1073734523","name":null,"height":3.5,"height_source":"default","kind":"building"}},{"type":"Feature","geometry":{"type":"Polygon","coordinates":[[[-95.416895,29.681334],[-95.416978,29.681332],[-95.416975,29.681213],[-95.416892,29.681215],[-95.416895,29.681334]]]},"properties":{"id":"way/1073734542","name":null,"height":3.5,"height_source":"default","kind":"building"}},{"type":"Feature","geometry":{"type":"Polygon","coordinates":[[[-95.417835,29.682296],[-95.417639,29.682292],[-95.417633,29.682489],[-95.417655,29.682489],[-95.417654,29.68252],[-95.417822,29.682523],[-95.417824,29.682423],[-95.417831,29.682423],[-95.417835,29.682296]]]},"properties":{"id":"way/1073734564","name":null,"height":3.5,"height_source":"default","kind":"building"}},{"type":"Feature","geometry":{"type":"Polygon","coordinates":[[[-95.414046,29.686832],[-95.414131,29.68683],[-95.414127,29.686723],[-95.414042,29.686725],[-95.414046,29.686832]]]},"properties":{"id":"way/1073734567","name":null,"height":3.5,"height_source":"default","kind":"building"}},{"type":"Feature","geometry":{"type":"Polygon","coordinates":[[[-95.414653,29.681255],[-95.414801,29.681258],[-95.414812,29.68082],[-95.414664,29.680817],[-95.414653,29.681255]]]},"properties":{"id":"way/1073734613","name":null,"height":3.5,"height_source":"default","kind":"building"}},{"type":"Feature","geometry":{"type":"Polygon","coordinates":[[[-95.415691,29.681855],[-95.415291,29.681852],[-95.415289,29.681982],[-95.415689,29.681986],[-95.415691,29.681855]]]},"properties":{"id":"way/1073734624","name":null,"height":3.5,"height_source":"default","kind":"building"}},{"type":"Feature","geometry":{"type":"Polygon","coordinates":[[[-95.417893,29.682946],[-95.417819,29.682808],[-95.4176,29.682896],[-95.417604,29.682902],[-95.417493,29.682947],[-95.417564,29.683079],[-95.417893,29.682946]]]},"properties":{"id":"way/1073734625","name":null,"height":3.5,"height_source":"default","kind":"building"}},{"type":"Feature","geometry":{"type":"Polygon","coordinates":[[[-95.416685,29.681404],[-95.416689,29.681446],[-95.416636,29.68145],[-95.416648,29.681569],[-95.41726,29.681523],[-95.417244,29.681363],[-95.416685,29.681404]]]},"properties":{"id":"way/1073734648","name":null,"height":3.5,"height_source":"default","kind":"building"}},{"type":"Feature","geometry":{"type":"Polygon","coordinates":[[[-95.416072,29.684555],[-95.416788,29.684568],[-95.416785,29.684673],[-95.417145,29.68468],[-95.417142,29.68478],[-95.418391,29.684804],[-95.418398,29.684524],[-95.418208,29.684521],[-95.418216,29.684204],[-95.418103,29.684202],[-95.418101,29.684316],[-95.417945,29.684313],[-95.417951,29.684064],[-95.417351,29.684052],[-95.417353,29.683985],[-95.417532,29.683988],[-95.417535,29.683865],[-95.417353,29.683861],[-95.417354,29.683832],[-95.41726,29.683831],[-95.417258,29.683885],[-95.41609,29.683863],[-95.416081,29.684187],[-95.416033,29.684186],[-95.416034,29.684148],[-95.415994,29.684148],[-95.415991,29.684278],[-95.416031,29.684279],[-95.416032,29.684239],[-95.41608,29.68424],[-95.416072,29.684555]]]},"properties":{"id":"way/1073734651","name":null,"height":3.5,"height_source":"default","kind":"building"}},{"type":"Feature","geometry":{"type":"Polygon","coordinates":[[[-95.416353,29.678346],[-95.415905,29.678356],[-95.415909,29.678487],[-95.416357,29.678476],[-95.416353,29.678346]]]},"properties":{"id":"way/1073734652","name":null,"height":3.5,"height_source":"default","kind":"building"}},{"type":"Feature","geometry":{"type":"Polygon","coordinates":[[[-95.415245,29.679056],[-95.415057,29.679502],[-95.415194,29.679546],[-95.415382,29.6791],[-95.415245,29.679056]]]},"properties":{"id":"way/1073734653","name":null,"height":3.5,"height_source":"default","kind":"building"}},{"type":"Feature","geometry":{"type":"Polygon","coordinates":[[[-95.417713,29.679306],[-95.417712,29.679369],[-95.417685,29.679369],[-95.417684,29.67942],[-95.41814,29.679427],[-95.418141,29.679371],[-95.418142,29.679371],[-95.418143,29.679313],[-95.417713,29.679306]]]},"properties":{"id":"way/1073734658","name":null,"height":3.5,"height_source":"default","kind":"building"}},{"type":"Feature","geometry":{"type":"Polygon","coordinates":[[[-95.416241,29.681801],[-95.415994,29.681796],[-95.41599,29.681961],[-95.416237,29.681966],[-95.416241,29.681801]]]},"properties":{"id":"way/1073734661","name":null,"height":3.5,"height_source":"default","kind":"building"}},{"type":"Feature","geometry":{"type":"Polygon","coordinates":[[[-95.416341,29.682529],[-95.416393,29.682527],[-95.416389,29.682423],[-95.416337,29.682425],[-95.416341,29.682529]]]},"properties":{"id":"way/1073734664","name":null,"height":3.5,"height_source":"default","kind":"building"}},{"type":"Feature","geometry":{"type":"Polygon","coordinates":[[[-95.417217,29.680513],[-95.417219,29.680116],[-95.417028,29.680115],[-95.417027,29.680512],[-95.417217,29.680513]]]},"properties":{"id":"way/1073734675","name":null,"height":3.5,"height_source":"default","kind":"building"}},{"type":"Feature","geometry":{"type":"Polygon","coordinates":[[[-95.417246,29.681824],[-95.417042,29.68183],[-95.417048,29.681993],[-95.417252,29.681987],[-95.417246,29.681824]]]},"properties":{"id":"way/1073734688","name":null,"height":3.5,"height_source":"default","kind":"building"}},{"type":"Feature","geometry":{"type":"Polygon","coordinates":[[[-95.416669,29.680797],[-95.416211,29.680783],[-95.416204,29.68095],[-95.416662,29.680964],[-95.416669,29.680797]]]},"properties":{"id":"way/1073734695","name":null,"height":3.5,"height_source":"default","kind":"building"}},{"type":"Feature","geometry":{"type":"Polygon","coordinates":[[[-95.417539,29.679728],[-95.417483,29.679727],[-95.417482,29.679876],[-95.417537,29.679877],[-95.417539,29.679728]]]},"properties":{"id":"way/1073734702","name":null,"height":3.5,"height_source":"default","kind":"building"}},{"type":"Feature","geometry":{"type":"Polygon","coordinates":[[[-95.417101,29.682436],[-95.417098,29.68252],[-95.417103,29.68252],[-95.417098,29.682678],[-95.417092,29.682678],[-95.41709,29.682757],[-95.417265,29.682762],[-95.417268,29.682678],[-95.417263,29.682678],[-95.417268,29.682519],[-95.417273,29.68252],[-95.417276,29.68244],[-95.417101,29.682436]]]},"properties":{"id":"way/1073734728","name":null,"height":3.5,"height_source":"default","kind":"building"}},{"type":"Feature","geometry":{"type":"Polygon","coordinates":[[[-95.417227,29.679956],[-95.416806,29.679955],[-95.416806,29.680091],[-95.417227,29.680092],[-95.417227,29.679956]]]},"properties":{"id":"way/1073734733","name":null,"height":3.5,"height_source":"default","kind":"building"}},{"type":"Feature","geometry":{"type":"Polygon","coordinates":[[[-95.41496,29.681294],[-95.414816,29.681293],[-95.414812,29.681767],[-95.414849,29.681767],[-95.414849,29.681808],[-95.414955,29.681809],[-95.41496,29.681294]]]},"properties":{"id":"way/1073734752","name":null,"height":3.5,"height_source":"default","kind":"building"}},{"type":"Feature","geometry":{"type":"Polygon","coordinates":[[[-95.416621,29.681038],[-95.416547,29.681277],[-95.416521,29.681271],[-95.416492,29.681362],[-95.416677,29.681405],[-95.416702,29.681325],[-95.416712,29.681327],[-95.41679,29.681078],[-95.416621,29.681038]]]},"properties":{"id":"way/1073734759","name":null,"height":3.5,"height_source":"default","kind":"building"}},{"type":"Feature","geometry":{"type":"Polygon","coordinates":[[[-95.417292,29.67951],[-95.417318,29.67951],[-95.417352,29.679573],[-95.417487,29.679519],[-95.41749,29.679222],[-95.417525,29.679208],[-95.417526,29.679127],[-95.417415,29.679126],[-95.417416,29.679057],[-95.417498,29.679058],[-95.417532,29.679044],[-95.417531,29.67913],[-95.417646,29.679131],[-95.41765,29.679126],[-95.417982,29.679128],[-95.418053,29.679014],[-95.41798,29.679014],[-95.417981,29.678953],[-95.417746,29.678951],[-95.417729,29.678958],[-95.417729,29.678979],[-95.417661,29.678979],[-95.417661,29.678939],[-95.417535,29.678938],[-95.417534,29.679013],[-95.417355,29.679012],[-95.417355,29.679063],[-95.417386,29.679063],[-95.417386,29.6791],[-95.417284,29.679141],[-95.417284,29.679219],[-95.417294,29.679224],[-95.417292,29.67951]]]},"properties":{"id":"way/1073734764","name":null,"height":3.5,"height_source":"default","kind":"building"}},{"type":"Feature","geometry":{"type":"Polygon","coordinates":[[[-95.415619,29.686732],[-95.415804,29.686729],[-95.415798,29.686508],[-95.415613,29.686512],[-95.415619,29.686732]]]},"properties":{"id":"way/1073734770","name":null,"height":3.5,"height_source":"default","kind":"building"}},{"type":"Feature","geometry":{"type":"Polygon","coordinates":[[[-95.415686,29.680621],[-95.415146,29.680612],[-95.415144,29.680728],[-95.415086,29.680727],[-95.415083,29.680855],[-95.415067,29.680855],[-95.415065,29.680924],[-95.415669,29.680934],[-95.415671,29.680846],[-95.415621,29.680845],[-95.415622,29.680806],[-95.41532,29.680801],[-95.415321,29.680748],[-95.415683,29.680754],[-95.415686,29.680621]]]},"properties":{"id":"way/1073734777","name":null,"height":3.5,"height_source":"default","kind":"building"}},{"type":"Feature","geometry":{"type":"Polygon","coordinates":[[[-95.416431,29.680153],[-95.416235,29.680151],[-95.416229,29.680547],[-95.416425,29.680549],[-95.416431,29.680153]]]},"properties":{"id":"way/1073734788","name":null,"height":3.5,"height_source":"default","kind":"building"}},{"type":"Feature","geometry":{"type":"Polygon","coordinates":[[[-95.416604,29.682419],[-95.41643,29.682421],[-95.416432,29.682506],[-95.416437,29.682506],[-95.41644,29.682659],[-95.416437,29.682659],[-95.416438,29.682743],[-95.416615,29.682741],[-95.416614,29.682657],[-95.416606,29.682657],[-95.416603,29.682503],[-95.416606,29.682502],[-95.416604,29.682419]]]},"properties":{"id":"way/1073734801","name":null,"height":3.5,"height_source":"default","kind":"building"}},{"type":"Feature","geometry":{"type":"Polygon","coordinates":[[[-95.416289,29.681372],[-95.416156,29.681466],[-95.416322,29.681643],[-95.416455,29.681549],[-95.416289,29.681372]]]},"properties":{"id":"way/1073734825","name":null,"height":3.5,"height_source":"default","kind":"building"}},{"type":"Feature","geometry":{"type":"Polygon","coordinates":[[[-95.415714,29.681171],[-95.415349,29.681163],[-95.415346,29.681294],[-95.41571,29.681301],[-95.415714,29.681171]]]},"properties":{"id":"way/1073734835","name":null,"height":3.5,"height_source":"default","kind":"building"}},{"type":"Feature","geometry":{"type":"Polygon","coordinates":[[[-95.414784,29.68048],[-95.414654,29.680539],[-95.414875,29.680911],[-95.415006,29.680853],[-95.414784,29.68048]]]},"properties":{"id":"way/1073734858","name":null,"height":3.5,"height_source":"default","kind":"building"}},{"type":"Feature","geometry":{"type":"Polygon","coordinates":[[[-95.416155,29.679405],[-95.41616,29.679533],[-95.416704,29.679515],[-95.416699,29.679387],[-95.416155,29.679405]]]},"properties":{"id":"way/1073734917","name":null,"height":3.5,"height_source":"default","kind":"building"}},{"type":"Feature","geometry":{"type":"Polygon","coordinates":[[[-95.415897,29.679508],[-95.415358,29.679461],[-95.415353,29.679501],[-95.415306,29.679496],[-95.415296,29.679584],[-95.415883,29.679635],[-95.415897,29.679508]]]},"properties":{"id":"way/1073734945","name":null,"height":3.5,"height_source":"default","kind":"building"}},{"type":"Feature","geometry":{"type":"Polygon","coordinates":[[[-95.417019,29.680686],[-95.417017,29.681031],[-95.417194,29.681032],[-95.417195,29.680789],[-95.417199,29.680789],[-95.4172,29.680687],[-95.417019,29.680686]]]},"properties":{"id":"way/1073734948","name":null,"height":3.5,"height_source":"default","kind":"building"}},{"type":"Feature","geometry":{"type":"Polygon","coordinates":[[[-95.417736,29.679551],[-95.417736,29.679609],[-95.417742,29.679611],[-95.417744,29.679937],[-95.417784,29.679948],[-95.417784,29.680012],[-95.417728,29.680012],[-95.417729,29.680233],[-95.417754,29.680233],[-95.417772,29.680258],[-95.417721,29.680258],[-95.417721,29.680368],[-95.417856,29.680401],[-95.417864,29.680377],[-95.417926,29.680377],[-95.417926,29.680265],[-95.417927,29.680238],[-95.417926,29.680012],[-95.417837,29.680012],[-95.417877,29.679991],[-95.417877,29.679946],[-95.417924,29.679945],[-95.417937,29.679906],[-95.417936,29.679696],[-95.417946,29.679696],[-95.417946,29.679563],[-95.417915,29.679519],[-95.417843,29.679496],[-95.417768,29.679537],[-95.417768,29.679551],[-95.417736,29.679551]]]},"properties":{"id":"way/1073734955","name":null,"height":3.5,"height_source":"default","kind":"building"}},{"type":"Feature","geometry":{"type":"Polygon","coordinates":[[[-95.41634,29.682374],[-95.416421,29.682374],[-95.416421,29.682376],[-95.416579,29.682376],[-95.416579,29.682379],[-95.416662,29.682379],[-95.416662,29.682269],[-95.41634,29.682269],[-95.41634,29.682374]]]},"properties":{"id":"way/1073734958","name":null,"height":3.5,"height_source":"default","kind":"building"}},{"type":"Feature","geometry":{"type":"Polygon","coordinates":[[[-95.415957,29.679187],[-95.415948,29.67966],[-95.415988,29.67966],[-95.415987,29.679701],[-95.41609,29.679703],[-95.416101,29.679189],[-95.415957,29.679187]]]},"properties":{"id":"way/1073734968","name":null,"height":3.5,"height_source":"default","kind":"building"}},{"type":"Feature","geometry":{"type":"Polygon","coordinates":[[[-95.417679,29.680382],[-95.417677,29.680345],[-95.417626,29.680347],[-95.417628,29.680384],[-95.417679,29.680382]]]},"properties":{"id":"way/1073734994","name":null,"height":3.5,"height_source":"default","kind":"building"}},{"type":"Feature","geometry":{"type":"Polygon","coordinates":[[[-95.414655,29.680442],[-95.414625,29.6804],[-95.414548,29.680442],[-95.414602,29.680515],[-95.41465,29.680489],[-95.414627,29.680457],[-95.414655,29.680442]]]},"properties":{"id":"way/1073734998","name":null,"height":3.5,"height_source":"default","kind":"building"}},{"type":"Feature","geometry":{"type":"Polygon","coordinates":[[[-95.416719,29.681042],[-95.41689,29.681064],[-95.416928,29.680834],[-95.41698,29.680841],[-95.416994,29.68076],[-95.416715,29.680725],[-95.416701,29.680807],[-95.416757,29.680814],[-95.416719,29.681042]]]},"properties":{"id":"way/1073735000","name":null,"height":3.5,"height_source":"default","kind":"building"}},{"type":"Feature","geometry":{"type":"Polygon","coordinates":[[[-95.417334,29.682286],[-95.417332,29.682384],[-95.417327,29.682384],[-95.417324,29.68251],[-95.417511,29.682512],[-95.417513,29.682414],[-95.417519,29.682415],[-95.417521,29.682289],[-95.417334,29.682286]]]},"properties":{"id":"way/1073735026","name":null,"height":3.5,"height_source":"default","kind":"building"}},{"type":"Feature","geometry":{"type":"Polygon","coordinates":[[[-95.416365,29.679172],[-95.416394,29.679047],[-95.415955,29.678968],[-95.415926,29.679093],[-95.416365,29.679172]]]},"properties":{"id":"way/1073735210","name":null,"height":3.5,"height_source":"default","kind":"building"}},{"type":"Feature","geometry":{"type":"Polygon","coordinates":[[[-95.414162,29.686259],[-95.414169,29.686433],[-95.414387,29.686427],[-95.41438,29.686252],[-95.414162,29.686259]]]},"properties":{"id":"way/1073735211","name":null,"height":3.5,"height_source":"default","kind":"building"}},{"type":"Feature","geometry":{"type":"Polygon","coordinates":[[[-95.414384,29.680319],[-95.414272,29.680383],[-95.414515,29.6807],[-95.414626,29.680635],[-95.414384,29.680319]]]},"properties":{"id":"way/1073735212","name":null,"height":3.5,"height_source":"default","kind":"building"}},{"type":"Feature","geometry":{"type":"Polygon","coordinates":[[[-95.417579,29.676152],[-95.417583,29.676426],[-95.417664,29.676425],[-95.417666,29.676551],[-95.417615,29.676552],[-95.417616,29.676639],[-95.41767,29.676638],[-95.417672,29.676824],[-95.417892,29.676822],[-95.417887,29.676419],[-95.417975,29.676419],[-95.417974,29.676287],[-95.418005,29.676287],[-95.418004,29.676215],[-95.41797,29.676215],[-95.41797,29.676148],[-95.417579,29.676152]]]},"properties":{"id":"way/1073735215","name":null,"height":3.5,"height_source":"default","kind":"building"}},{"type":"Feature","geometry":{"type":"Polygon","coordinates":[[[-95.415781,29.67881],[-95.415705,29.678812],[-95.41571,29.678956],[-95.415787,29.678954],[-95.415786,29.678919],[-95.41583,29.678918],[-95.415831,29.678951],[-95.415903,29.678949],[-95.415898,29.678805],[-95.415823,29.678807],[-95.415824,29.678844],[-95.415782,29.678845],[-95.415781,29.67881]]]},"properties":{"id":"way/1073735223","name":null,"height":3.5,"height_source":"default","kind":"building"}},{"type":"Feature","geometry":{"type":"Polygon","coordinates":[[[-95.415441,29.678555],[-95.415502,29.678945],[-95.415646,29.678928],[-95.415584,29.678538],[-95.415441,29.678555]]]},"properties":{"id":"way/1073735225","name":null,"height":3.5,"height_source":"default","kind":"building"}},{"type":"Feature","geometry":{"type":"Polygon","coordinates":[[[-95.415377,29.676736],[-95.414876,29.676743],[-95.41488,29.67702],[-95.415382,29.677013],[-95.415377,29.676736]]]},"properties":{"id":"way/1073735228","name":"Cavender's Boot City","height":3.5,"height_source":"default","kind":"building"}},{"type":"Feature","geometry":{"type":"Polygon","coordinates":[[[-95.41754,29.678861],[-95.417529,29.67851],[-95.417517,29.67851],[-95.417514,29.678418],[-95.417304,29.678423],[-95.417312,29.678681],[-95.417087,29.678686],[-95.417092,29.678872],[-95.41754,29.678861]]]},"properties":{"id":"way/1073735229","name":null,"height":3.5,"height_source":"default","kind":"building"}},{"type":"Feature","geometry":{"type":"Polygon","coordinates":[[[-95.414945,29.678878],[-95.414896,29.678879],[-95.414833,29.67888],[-95.414835,29.67897],[-95.4149,29.678969],[-95.414947,29.678968],[-95.414945,29.678878]]]},"properties":{"id":"way/1073735235","name":null,"height":3.5,"height_source":"default","kind":"building"}},{"type":"Feature","geometry":{"type":"Polygon","coordinates":[[[-95.415558,29.681351],[-95.415555,29.681825],[-95.415705,29.681826],[-95.415709,29.681351],[-95.415558,29.681351]]]},"properties":{"id":"way/1073735240","name":null,"height":3.5,"height_source":"default","kind":"building"}},{"type":"Feature","geometry":{"type":"Polygon","coordinates":[[[-95.415216,29.683316],[-95.415149,29.683317],[-95.415151,29.683447],[-95.415153,29.683526],[-95.41522,29.683525],[-95.415218,29.683446],[-95.415216,29.683316]]]},"properties":{"id":"way/1073735241","name":null,"height":3.5,"height_source":"default","kind":"building"}},{"type":"Feature","geometry":{"type":"Polygon","coordinates":[[[-95.416392,29.676593],[-95.416393,29.676703],[-95.416327,29.676703],[-95.416328,29.676856],[-95.416564,29.676855],[-95.416565,29.676903],[-95.416778,29.676902],[-95.416776,29.676592],[-95.416392,29.676593]]]},"properties":{"id":"way/1073735243","name":"Pappadeaux Seafood Kitchen","height":3.5,"height_source":"default","kind":"building"}},{"type":"Feature","geometry":{"type":"Polygon","coordinates":[[[-95.41538,29.678555],[-95.415231,29.678557],[-95.415239,29.679033],[-95.415388,29.679031],[-95.41538,29.678555]]]},"properties":{"id":"way/1073735244","name":null,"height":3.5,"height_source":"default","kind":"building"}},{"type":"Feature","geometry":{"type":"Polygon","coordinates":[[[-95.415149,29.680329],[-95.415002,29.680321],[-95.414972,29.680718],[-95.415116,29.680726],[-95.415122,29.680649],[-95.415124,29.68065],[-95.415149,29.680329]]]},"properties":{"id":"way/1073735250","name":null,"height":3.5,"height_source":"default","kind":"building"}},{"type":"Feature","geometry":{"type":"Polygon","coordinates":[[[-95.416957,29.680459],[-95.416957,29.680148],[-95.416781,29.680148],[-95.416782,29.68046],[-95.416957,29.680459]]]},"properties":{"id":"way/1073735258","name":null,"height":3.5,"height_source":"default","kind":"building"}},{"type":"Feature","geometry":{"type":"Polygon","coordinates":[[[-95.415983,29.68161],[-95.416133,29.681613],[-95.416141,29.681313],[-95.415991,29.68131],[-95.415983,29.68161]]]},"properties":{"id":"way/1073735266","name":null,"height":3.5,"height_source":"default","kind":"building"}},{"type":"Feature","geometry":{"type":"Polygon","coordinates":[[[-95.41464,29.681837],[-95.414636,29.681966],[-95.415034,29.681976],[-95.415038,29.681847],[-95.41464,29.681837]]]},"properties":{"id":"way/1073735267","name":null,"height":3.5,"height_source":"default","kind":"building"}},{"type":"Feature","geometry":{"type":"Polygon","coordinates":[[[-95.415677,29.683017],[-95.415851,29.683015],[-95.415856,29.683261],[-95.41599,29.683259],[-95.416006,29.683259],[-95.416002,29.683075],[-95.415925,29.683076],[-95.415924,29.683032],[-95.415884,29.683033],[-95.415876,29.682643],[-95.415941,29.682642],[-95.415938,29.682491],[-95.415849,29.682493],[-95.415848,29.682439],[-95.41569,29.682441],[-95.415691,29.68249],[-95.415667,29.68249],[-95.415677,29.683017]]]},"properties":{"id":"way/1073735287","name":null,"height":3.5,"height_source":"default","kind":"building"}},{"type":"Feature","geometry":{"type":"Polygon","coordinates":[[[-95.416998,29.681824],[-95.416459,29.681818],[-95.416457,29.681984],[-95.416996,29.68199],[-95.416998,29.681824]]]},"properties":{"id":"way/1073735344","name":null,"height":3.5,"height_source":"default","kind":"building"}},{"type":"Feature","geometry":{"type":"Polygon","coordinates":[[[-95.41461,29.692999],[-95.414888,29.693005],[-95.414799,29.692881],[-95.414675,29.692792],[-95.414616,29.692767],[-95.41461,29.692999]]]},"properties":{"id":"way/1267544044","name":null,"height":3.5,"height_source":"default","kind":"building"}},{"type":"Feature","geometry":{"type":"Polygon","coordinates":[[[-95.414088,29.692991],[-95.414094,29.692742],[-95.414377,29.692675],[-95.414377,29.692743],[-95.414353,29.692749],[-95.414347,29.692996],[-95.414088,29.692991]]]},"properties":{"id":"way/1267544045","name":null,"height":3.5,"height_source":"default","kind":"building"}},{"type":"Feature","geometry":{"type":"Polygon","coordinates":[[[-95.414359,29.693347],[-95.414371,29.693035],[-95.414204,29.69303],[-95.414191,29.693342],[-95.414359,29.693347]]]},"properties":{"id":"way/1267544046","name":null,"height":3.5,"height_source":"default","kind":"building"}},{"type":"Feature","geometry":{"type":"Polygon","coordinates":[[[-95.414718,29.693636],[-95.414055,29.693569],[-95.414069,29.692701],[-95.413965,29.6927],[-95.413954,29.693366],[-95.413864,29.693365],[-95.413861,29.693527],[-95.413887,29.693527],[-95.41393,29.693568],[-95.413929,29.693604],[-95.413975,29.693604],[-95.413974,29.693655],[-95.414637,29.693722],[-95.414705,29.693763],[-95.414778,29.693672],[-95.414718,29.693636]]]},"properties":{"id":"way/1267544048","name":null,"height":3.5,"height_source":"default","kind":"building"}},{"type":"Feature","geometry":{"type":"Polygon","coordinates":[[[-95.415928,29.693227],[-95.416023,29.693155],[-95.415897,29.693031],[-95.415802,29.693103],[-95.415928,29.693227]]]},"properties":{"id":"way/1267544054","name":"Public Storage","height":3.5,"height_source":"default","kind":"building"}},{"type":"Feature","geometry":{"type":"Polygon","coordinates":[[[-95.417869,29.681763],[-95.417885,29.681341],[-95.417838,29.68134],[-95.417841,29.681267],[-95.417892,29.681268],[-95.417908,29.680845],[-95.417706,29.68084],[-95.41769,29.681268],[-95.417742,29.681269],[-95.41774,29.681329],[-95.417695,29.681328],[-95.417679,29.681757],[-95.417869,29.681763]]]},"properties":{"id":"way/1267544119","name":null,"height":3.5,"height_source":"default","kind":"building"}},{"type":"Feature","geometry":{"type":"Polygon","coordinates":[[[-95.417091,29.682406],[-95.417095,29.68229],[-95.41671,29.68228],[-95.416706,29.682397],[-95.417091,29.682406]]]},"properties":{"id":"way/1267544122","name":null,"height":3.5,"height_source":"default","kind":"building"}},{"type":"Feature","geometry":{"type":"Polygon","coordinates":[[[-95.416002,29.683075],[-95.416459,29.683086],[-95.416474,29.683207],[-95.416253,29.68322],[-95.416264,29.683277],[-95.415991,29.683291],[-95.41599,29.683259],[-95.416006,29.683259],[-95.416002,29.683075]]]},"properties":{"id":"way/1267544123","name":null,"height":3.5,"height_source":"default","kind":"building"}},{"type":"Feature","geometry":{"type":"Polygon","coordinates":[[[-95.408926,29.6918],[-95.409101,29.691771],[-95.409026,29.691426],[-95.408762,29.691469],[-95.408882,29.692019],[-95.40897,29.692005],[-95.408926,29.6918]]]},"properties":{"id":"way/1267544124","name":"The Blood Center Annex","height":3.5,"height_source":"default","kind":"building"}},{"type":"Feature","geometry":{"type":"Polygon","coordinates":[[[-95.408414,29.693104],[-95.40841,29.692324],[-95.408049,29.692326],[-95.408054,29.69316],[-95.408276,29.693159],[-95.408276,29.693105],[-95.408414,29.693104]]]},"properties":{"id":"way/1267544125","name":null,"height":3.5,"height_source":"default","kind":"building"}},{"type":"Feature","geometry":{"type":"Polygon","coordinates":[[[-95.404521,29.693254],[-95.404533,29.693007],[-95.403982,29.692986],[-95.403976,29.693094],[-95.404066,29.693097],[-95.404062,29.69317],[-95.404103,29.693172],[-95.4041,29.693222],[-95.404035,29.693219],[-95.404029,29.693343],[-95.404298,29.693353],[-95.404296,29.693374],[-95.404432,29.693379],[-95.404433,29.693365],[-95.404578,29.693371],[-95.404584,29.693256],[-95.404521,29.693254]]]},"properties":{"id":"way/1267544126","name":null,"height":3.5,"height_source":"default","kind":"building"}},{"type":"Feature","geometry":{"type":"Polygon","coordinates":[[[-95.407997,29.690916],[-95.407998,29.690294],[-95.408565,29.690295],[-95.408564,29.69058],[-95.409043,29.690581],[-95.409042,29.690918],[-95.407997,29.690916]]]},"properties":{"id":"way/1267580324","name":null,"height":3.5,"height_source":"default","kind":"building"}},{"type":"Feature","geometry":{"type":"Polygon","coordinates":[[[-95.407353,29.690977],[-95.407358,29.690391],[-95.407112,29.690389],[-95.407107,29.690975],[-95.407353,29.690977]]]},"properties":{"id":"way/1267580325","name":null,"height":3.5,"height_source":"default","kind":"building"}},{"type":"Feature","geometry":{"type":"Polygon","coordinates":[[[-95.406972,29.691144],[-95.406977,29.690643],[-95.406762,29.690642],[-95.406761,29.6908],[-95.406728,29.690799],[-95.406727,29.690844],[-95.406714,29.690844],[-95.406714,29.690886],[-95.40669,29.690885],[-95.406689,29.690992],[-95.406716,29.690993],[-95.406715,29.69106],[-95.406755,29.69106],[-95.406755,29.691077],[-95.406813,29.691077],[-95.406812,29.691108],[-95.406845,29.691109],[-95.406845,29.691125],[-95.406886,29.691125],[-95.406885,29.691143],[-95.406972,29.691144]]]},"properties":{"id":"way/1267580326","name":null,"height":3.5,"height_source":"default","kind":"building"}},{"type":"Feature","geometry":{"type":"Polygon","coordinates":[[[-95.411401,29.692941],[-95.411382,29.692881],[-95.411356,29.692887],[-95.411335,29.692822],[-95.411363,29.692815],[-95.411344,29.692756],[-95.41128,29.692772],[-95.411276,29.692758],[-95.411215,29.692773],[-95.41122,29.692786],[-95.410844,29.692878],[-95.410839,29.692864],[-95.410774,29.69288],[-95.410778,29.69289],[-95.41071,29.692907],[-95.410731,29.692971],[-95.410754,29.692966],[-95.410771,29.693018],[-95.410746,29.693024],[-95.410769,29.693094],[-95.410821,29.693081],[-95.410825,29.693094],[-95.410906,29.693074],[-95.410902,29.693061],[-95.411278,29.692969],[-95.411283,29.692982],[-95.411352,29.692965],[-95.411348,29.692954],[-95.411401,29.692941]]]},"properties":{"id":"way/1267580327","name":null,"height":3.5,"height_source":"default","kind":"building"}},{"type":"Feature","geometry":{"type":"Polygon","coordinates":[[[-95.410489,29.693158],[-95.41047,29.693098],[-95.410444,29.693104],[-95.410423,29.693039],[-95.410451,29.693032],[-95.410432,29.692974],[-95.410368,29.692989],[-95.410364,29.692976],[-95.410303,29.69299],[-95.410307,29.693004],[-95.409932,29.693096],[-95.409927,29.693081],[-95.409862,29.693097],[-95.409865,29.693108],[-95.409797,29.693124],[-95.409818,29.693189],[-95.409842,29.693183],[-95.409859,29.693236],[-95.409834,29.693242],[-95.409857,29.693311],[-95.409909,29.693298],[-95.409913,29.693312],[-95.409994,29.693292],[-95.40999,29.693279],[-95.410366,29.693187],[-95.410371,29.6932],[-95.41044,29.693183],[-95.410436,29.693171],[-95.410489,29.693158]]]},"properties":{"id":"way/1267580328","name":null,"height":3.5,"height_source":"default","kind":"building"}},{"type":"Feature","geometry":{"type":"Polygon","coordinates":[[[-95.411086,29.692618],[-95.411201,29.692607],[-95.411168,29.692344],[-95.411049,29.692355],[-95.411054,29.692393],[-95.410731,29.692425],[-95.410726,29.692383],[-95.410594,29.692396],[-95.410628,29.692659],[-95.410755,29.692647],[-95.41075,29.692609],[-95.411081,29.692577],[-95.411086,29.692618]]]},"properties":{"id":"way/1267580329","name":null,"height":3.5,"height_source":"default","kind":"building"}},{"type":"Feature","geometry":{"type":"Polygon","coordinates":[[[-95.411108,29.69228],[-95.411051,29.692161],[-95.411031,29.692169],[-95.410982,29.692066],[-95.411001,29.692059],[-95.410942,29.691937],[-95.410724,29.692016],[-95.410777,29.692127],[-95.410791,29.692121],[-95.410843,29.692228],[-95.410821,29.692235],[-95.410882,29.692362],[-95.411108,29.69228]]]},"properties":{"id":"way/1267580330","name":null,"height":3.5,"height_source":"default","kind":"building"}},{"type":"Feature","geometry":{"type":"Polygon","coordinates":[[[-95.409582,29.692603],[-95.409623,29.692727],[-95.409644,29.692722],[-95.409678,29.692828],[-95.409659,29.692833],[-95.4097,29.692961],[-95.409928,29.692905],[-95.40989,29.69279],[-95.409875,29.692793],[-95.409839,29.692683],[-95.409861,29.692677],[-95.409818,29.692545],[-95.409582,29.692603]]]},"properties":{"id":"way/1267580331","name":null,"height":3.5,"height_source":"default","kind":"building"}},{"type":"Feature","geometry":{"type":"Polygon","coordinates":[[[-95.410308,29.692775],[-95.410271,29.69265],[-95.41025,29.692655],[-95.410219,29.692547],[-95.410239,29.692543],[-95.410201,29.692415],[-95.409972,29.692465],[-95.410006,29.692581],[-95.410021,29.692578],[-95.410054,29.692689],[-95.410031,29.692694],[-95.41007,29.692828],[-95.410308,29.692775]]]},"properties":{"id":"way/1267580334","name":null,"height":3.5,"height_source":"default","kind":"building"}},{"type":"Feature","geometry":{"type":"Polygon","coordinates":[[[-95.409864,29.692262],[-95.409725,29.692308],[-95.409733,29.692325],[-95.409614,29.692365],[-95.409607,29.692348],[-95.409464,29.692396],[-95.409549,29.692588],[-95.409678,29.692545],[-95.409672,29.692532],[-95.409796,29.692491],[-95.409804,29.69251],[-95.409952,29.69246],[-95.409864,29.692262]]]},"properties":{"id":"way/1267580335","name":null,"height":3.5,"height_source":"default","kind":"building"}},{"type":"Feature","geometry":{"type":"Polygon","coordinates":[[[-95.410734,29.692173],[-95.410684,29.692045],[-95.410658,29.692052],[-95.410651,29.692034],[-95.41045,29.692092],[-95.410457,29.69211],[-95.410167,29.692194],[-95.410162,29.692182],[-95.409969,29.692239],[-95.409977,29.692259],[-95.409953,29.692266],[-95.409997,29.692379],[-95.410016,29.692374],[-95.410028,29.692404],[-95.410269,29.692333],[-95.410277,29.692351],[-95.410486,29.69229],[-95.410477,29.692268],[-95.410716,29.692198],[-95.410709,29.69218],[-95.410734,29.692173]]]},"properties":{"id":"way/1267580336","name":null,"height":3.5,"height_source":"default","kind":"building"}},{"type":"Feature","geometry":{"type":"Polygon","coordinates":[[[-95.410577,29.692634],[-95.410543,29.69252],[-95.410306,29.692573],[-95.410341,29.692692],[-95.410386,29.692682],[-95.410392,29.692699],[-95.410528,29.692668],[-95.410521,29.692647],[-95.410577,29.692634]]]},"properties":{"id":"way/1267580337","name":null,"height":3.5,"height_source":"default","kind":"building"}},{"type":"Feature","geometry":{"type":"Polygon","coordinates":[[[-95.41352,29.680037],[-95.413323,29.679975],[-95.413436,29.679715],[-95.413637,29.67978],[-95.41352,29.680037]]]},"properties":{"id":"way/1328645540","name":"Gulf Coast Building 4","height":3.5,"height_source":"default","kind":"building"}},{"type":"Feature","geometry":{"type":"Polygon","coordinates":[[[-95.413651,29.679683],[-95.413439,29.67968],[-95.413423,29.679372],[-95.413631,29.679368],[-95.413651,29.679683]]]},"properties":{"id":"way/1328645541","name":"Gulf Coast Building 3","height":3.5,"height_source":"default","kind":"building"}},{"type":"Feature","geometry":{"type":"Polygon","coordinates":[[[-95.4136,29.679266],[-95.41341,29.679338],[-95.413286,29.679093],[-95.413475,29.67902],[-95.4136,29.679266]]]},"properties":{"id":"way/1328645542","name":"Gulf Coast Building 2","height":3.5,"height_source":"default","kind":"building"}},{"type":"Feature","geometry":{"type":"Polygon","coordinates":[[[-95.413359,29.678711],[-95.413356,29.67861],[-95.413169,29.678619],[-95.413174,29.678719],[-95.413359,29.678711]]]},"properties":{"id":"way/1328645543","name":null,"height":3.5,"height_source":"default","kind":"building"}},{"type":"Feature","geometry":{"type":"Polygon","coordinates":[[[-95.412344,29.692011],[-95.412369,29.692002],[-95.412146,29.691523],[-95.41212,29.691532],[-95.412344,29.692011]]]},"properties":{"id":"way/1425968054","name":null,"height":3.5,"height_source":"default","kind":"building"}},{"type":"Feature","geometry":{"type":"Polygon","coordinates":[[[-95.411224,29.680421],[-95.411222,29.680255],[-95.411179,29.680255],[-95.411181,29.680421],[-95.411224,29.680421]]]},"properties":{"id":"way/1426888613","name":null,"height":3.5,"height_source":"default","kind":"building"}}],"properties":{"source":"OpenStreetMap via Overpass API","licence":"ODbL","height_rule":"height tag where present, else building:levels times 3.5 m per storey, else 3.5 m single storey default","height_source_counts":{"tagged":5,"levels":2,"default":179},"fetched_utc":"2026-09-09T01:27:44.813Z"}}